<?xml version="1.0" encoding="UTF-8"?>
<gpx version="1.1" creator="TubeRun route generator" xmlns="http://www.topografix.com/GPX/1/1">
  <metadata>
    <name>c2c — TubeRun</name>
    <desc>Above-ground running route tracing the c2c line, station to station. Routed on pavements and footways from OpenStreetMap data (BRouter, shortest).</desc>
    <author><name>TubeRun</name></author>
    <copyright author="OpenStreetMap contributors"><license>https://opendatacommons.org/licenses/odbl/1-0/</license></copyright>
    <link href="https://www.openstreetmap.org/copyright"><text>© OpenStreetMap contributors</text></link>
    <time>2026-07-13T15:18:54.944Z</time>
  </metadata>
  <wpt lat="51.47625" lon="0.32183"><name>Grays</name></wpt>
  <wpt lat="51.48101" lon="0.23677"><name>Purfleet</name></wpt>
  <wpt lat="51.51672" lon="0.19063"><name>Rainham</name></wpt>
  <wpt lat="51.52624" lon="0.14666"><name>Dagenham Dock</name></wpt>
  <wpt lat="51.5395" lon="0.0809"><name>Barking</name></wpt>
  <trk>
    <name>c2c — TubeRun</name>
    <trkseg>
      <trkpt lat="51.476153" lon="0.321812"><ele>8</ele></trkpt>
      <trkpt lat="51.476147" lon="0.321906"><ele>8</ele></trkpt>
      <trkpt lat="51.476048" lon="0.32206"><ele>8</ele></trkpt>
      <trkpt lat="51.476051" lon="0.322622"><ele>8</ele></trkpt>
      <trkpt lat="51.476052" lon="0.322796"><ele>8</ele></trkpt>
      <trkpt lat="51.476079" lon="0.322711"><ele>8</ele></trkpt>
      <trkpt lat="51.476216" lon="0.322713"><ele>7.5</ele></trkpt>
      <trkpt lat="51.476213" lon="0.322772"><ele>7.5</ele></trkpt>
      <trkpt lat="51.476267" lon="0.322787"><ele>7.25</ele></trkpt>
      <trkpt lat="51.476304" lon="0.322794"><ele>7.25</ele></trkpt>
      <trkpt lat="51.47635" lon="0.322806"><ele>7</ele></trkpt>
      <trkpt lat="51.476427" lon="0.32282"><ele>7</ele></trkpt>
      <trkpt lat="51.476448" lon="0.322637"><ele>6.75</ele></trkpt>
      <trkpt lat="51.476467" lon="0.322379"><ele>7.25</ele></trkpt>
      <trkpt lat="51.476495" lon="0.322187"><ele>7.5</ele></trkpt>
      <trkpt lat="51.47657" lon="0.322077"><ele>7</ele></trkpt>
      <trkpt lat="51.476576" lon="0.322019"><ele>6.75</ele></trkpt>
      <trkpt lat="51.476607" lon="0.321816"><ele>6.25</ele></trkpt>
      <trkpt lat="51.476645" lon="0.321584"><ele>6</ele></trkpt>
      <trkpt lat="51.476673" lon="0.321382"><ele>5.75</ele></trkpt>
      <trkpt lat="51.476695" lon="0.321157"><ele>5.75</ele></trkpt>
      <trkpt lat="51.476713" lon="0.320936"><ele>5</ele></trkpt>
      <trkpt lat="51.476736" lon="0.320577"><ele>4.75</ele></trkpt>
      <trkpt lat="51.476746" lon="0.320342"><ele>4.5</ele></trkpt>
      <trkpt lat="51.476754" lon="0.320038"><ele>4.25</ele></trkpt>
      <trkpt lat="51.476766" lon="0.319869"><ele>4.25</ele></trkpt>
      <trkpt lat="51.476786" lon="0.319762"><ele>4</ele></trkpt>
      <trkpt lat="51.476836" lon="0.319575"><ele>3.5</ele></trkpt>
      <trkpt lat="51.476888" lon="0.319458"><ele>3</ele></trkpt>
      <trkpt lat="51.476982" lon="0.319298"><ele>3</ele></trkpt>
      <trkpt lat="51.477131" lon="0.319077"><ele>3</ele></trkpt>
      <trkpt lat="51.477141" lon="0.319063"><ele>3</ele></trkpt>
      <trkpt lat="51.477287" lon="0.318853"><ele>3</ele></trkpt>
      <trkpt lat="51.477513" lon="0.318521"><ele>4</ele></trkpt>
      <trkpt lat="51.477544" lon="0.318476"><ele>4</ele></trkpt>
      <trkpt lat="51.477628" lon="0.318345"><ele>4.25</ele></trkpt>
      <trkpt lat="51.477572" lon="0.318158"><ele>4.25</ele></trkpt>
      <trkpt lat="51.477447" lon="0.317745"><ele>4</ele></trkpt>
      <trkpt lat="51.477405" lon="0.317645"><ele>4.25</ele></trkpt>
      <trkpt lat="51.47737" lon="0.317543"><ele>4.75</ele></trkpt>
      <trkpt lat="51.477324" lon="0.317351"><ele>4.5</ele></trkpt>
      <trkpt lat="51.477226" lon="0.317006"><ele>4</ele></trkpt>
      <trkpt lat="51.477147" lon="0.316771"><ele>4</ele></trkpt>
      <trkpt lat="51.477115" lon="0.31656"><ele>4</ele></trkpt>
      <trkpt lat="51.477063" lon="0.316316"><ele>4</ele></trkpt>
      <trkpt lat="51.477037" lon="0.316134"><ele>4</ele></trkpt>
      <trkpt lat="51.476985" lon="0.315797"><ele>4</ele></trkpt>
      <trkpt lat="51.476925" lon="0.315231"><ele>4</ele></trkpt>
      <trkpt lat="51.476878" lon="0.31476"><ele>4</ele></trkpt>
      <trkpt lat="51.476847" lon="0.314541"><ele>4</ele></trkpt>
      <trkpt lat="51.476797" lon="0.314313"><ele>4</ele></trkpt>
      <trkpt lat="51.476805" lon="0.314159"><ele>4</ele></trkpt>
      <trkpt lat="51.4768" lon="0.31409"><ele>4</ele></trkpt>
      <trkpt lat="51.476758" lon="0.313801"><ele>3.75</ele></trkpt>
      <trkpt lat="51.476708" lon="0.313414"><ele>3</ele></trkpt>
      <trkpt lat="51.476599" lon="0.312756"><ele>3</ele></trkpt>
      <trkpt lat="51.476543" lon="0.312388"><ele>3.5</ele></trkpt>
      <trkpt lat="51.476443" lon="0.311779"><ele>3.5</ele></trkpt>
      <trkpt lat="51.476406" lon="0.311557"><ele>3.5</ele></trkpt>
      <trkpt lat="51.476309" lon="0.310971"><ele>4</ele></trkpt>
      <trkpt lat="51.476275" lon="0.310769"><ele>3.75</ele></trkpt>
      <trkpt lat="51.476247" lon="0.310253"><ele>3.25</ele></trkpt>
      <trkpt lat="51.476262" lon="0.309944"><ele>3.25</ele></trkpt>
      <trkpt lat="51.476269" lon="0.309791"><ele>3</ele></trkpt>
      <trkpt lat="51.4763" lon="0.309543"><ele>3</ele></trkpt>
      <trkpt lat="51.476343" lon="0.3093"><ele>3</ele></trkpt>
      <trkpt lat="51.476399" lon="0.30907"><ele>3</ele></trkpt>
      <trkpt lat="51.476467" lon="0.308825"><ele>3.25</ele></trkpt>
      <trkpt lat="51.476486" lon="0.308755"><ele>3.25</ele></trkpt>
      <trkpt lat="51.476598" lon="0.30829"><ele>3.75</ele></trkpt>
      <trkpt lat="51.476711" lon="0.307984"><ele>4</ele></trkpt>
      <trkpt lat="51.476771" lon="0.307882"><ele>4</ele></trkpt>
      <trkpt lat="51.476839" lon="0.307803"><ele>4</ele></trkpt>
      <trkpt lat="51.476889" lon="0.307719"><ele>4</ele></trkpt>
      <trkpt lat="51.476896" lon="0.30766"><ele>4</ele></trkpt>
      <trkpt lat="51.476916" lon="0.307591"><ele>4</ele></trkpt>
      <trkpt lat="51.476992" lon="0.307414"><ele>4</ele></trkpt>
      <trkpt lat="51.477076" lon="0.307234"><ele>4.25</ele></trkpt>
      <trkpt lat="51.47709" lon="0.307205"><ele>4.25</ele></trkpt>
      <trkpt lat="51.477133" lon="0.30712"><ele>4.25</ele></trkpt>
      <trkpt lat="51.477213" lon="0.306896"><ele>4</ele></trkpt>
      <trkpt lat="51.477256" lon="0.306745"><ele>4</ele></trkpt>
      <trkpt lat="51.477373" lon="0.306309"><ele>4.75</ele></trkpt>
      <trkpt lat="51.477444" lon="0.3059"><ele>4.75</ele></trkpt>
      <trkpt lat="51.477477" lon="0.305667"><ele>4.75</ele></trkpt>
      <trkpt lat="51.47752" lon="0.305356"><ele>4.75</ele></trkpt>
      <trkpt lat="51.477545" lon="0.305217"><ele>5</ele></trkpt>
      <trkpt lat="51.477719" lon="0.304328"><ele>5</ele></trkpt>
      <trkpt lat="51.477774" lon="0.304112"><ele>5</ele></trkpt>
      <trkpt lat="51.477786" lon="0.303893"><ele>5</ele></trkpt>
      <trkpt lat="51.477782" lon="0.30361"><ele>5</ele></trkpt>
      <trkpt lat="51.47778" lon="0.303519"><ele>5</ele></trkpt>
      <trkpt lat="51.477776" lon="0.303433"><ele>5</ele></trkpt>
      <trkpt lat="51.477774" lon="0.303234"><ele>5.25</ele></trkpt>
      <trkpt lat="51.47777" lon="0.302947"><ele>5.75</ele></trkpt>
      <trkpt lat="51.477762" lon="0.302463"><ele>5.75</ele></trkpt>
      <trkpt lat="51.47775" lon="0.30179"><ele>6</ele></trkpt>
      <trkpt lat="51.477736" lon="0.301537"><ele>6.25</ele></trkpt>
      <trkpt lat="51.477694" lon="0.301151"><ele>7</ele></trkpt>
      <trkpt lat="51.477609" lon="0.300373"><ele>7.25</ele></trkpt>
      <trkpt lat="51.477579" lon="0.300068"><ele>7.25</ele></trkpt>
      <trkpt lat="51.477564" lon="0.299924"><ele>7</ele></trkpt>
      <trkpt lat="51.477496" lon="0.299304"><ele>6.5</ele></trkpt>
      <trkpt lat="51.477452" lon="0.29887"><ele>5.75</ele></trkpt>
      <trkpt lat="51.477441" lon="0.298778"><ele>6.25</ele></trkpt>
      <trkpt lat="51.477392" lon="0.298441"><ele>7</ele></trkpt>
      <trkpt lat="51.477329" lon="0.29803"><ele>6.75</ele></trkpt>
      <trkpt lat="51.477154" lon="0.297193"><ele>5.75</ele></trkpt>
      <trkpt lat="51.477088" lon="0.296857"><ele>5.5</ele></trkpt>
      <trkpt lat="51.476856" lon="0.295746"><ele>4.5</ele></trkpt>
      <trkpt lat="51.47682" lon="0.295543"><ele>4.5</ele></trkpt>
      <trkpt lat="51.476785" lon="0.295248"><ele>4.25</ele></trkpt>
      <trkpt lat="51.476772" lon="0.295083"><ele>4.25</ele></trkpt>
      <trkpt lat="51.476763" lon="0.294887"><ele>4.25</ele></trkpt>
      <trkpt lat="51.476754" lon="0.294295"><ele>4.5</ele></trkpt>
      <trkpt lat="51.476743" lon="0.293288"><ele>5</ele></trkpt>
      <trkpt lat="51.476724" lon="0.292995"><ele>4.25</ele></trkpt>
      <trkpt lat="51.47669" lon="0.292759"><ele>4</ele></trkpt>
      <trkpt lat="51.476591" lon="0.292228"><ele>3.5</ele></trkpt>
      <trkpt lat="51.476487" lon="0.291652"><ele>3.25</ele></trkpt>
      <trkpt lat="51.476453" lon="0.291409"><ele>3.75</ele></trkpt>
      <trkpt lat="51.476437" lon="0.291272"><ele>3.75</ele></trkpt>
      <trkpt lat="51.476359" lon="0.290485"><ele>4</ele></trkpt>
      <trkpt lat="51.476348" lon="0.290332"><ele>4</ele></trkpt>
      <trkpt lat="51.476319" lon="0.290085"><ele>4</ele></trkpt>
      <trkpt lat="51.476307" lon="0.289976"><ele>4</ele></trkpt>
      <trkpt lat="51.476274" lon="0.289588"><ele>4.25</ele></trkpt>
      <trkpt lat="51.476233" lon="0.289188"><ele>4.25</ele></trkpt>
      <trkpt lat="51.476227" lon="0.288901"><ele>4</ele></trkpt>
      <trkpt lat="51.476235" lon="0.28874"><ele>4</ele></trkpt>
      <trkpt lat="51.476247" lon="0.288492"><ele>4.5</ele></trkpt>
      <trkpt lat="51.476252" lon="0.288376"><ele>4.75</ele></trkpt>
      <trkpt lat="51.476224" lon="0.288372"><ele>4.75</ele></trkpt>
      <trkpt lat="51.476177" lon="0.288348"><ele>4.75</ele></trkpt>
      <trkpt lat="51.476141" lon="0.288313"><ele>5</ele></trkpt>
      <trkpt lat="51.476114" lon="0.288268"><ele>5</ele></trkpt>
      <trkpt lat="51.476092" lon="0.288207"><ele>4.75</ele></trkpt>
      <trkpt lat="51.47608" lon="0.288137"><ele>4.75</ele></trkpt>
      <trkpt lat="51.476085" lon="0.288032"><ele>5</ele></trkpt>
      <trkpt lat="51.476099" lon="0.287972"><ele>5</ele></trkpt>
      <trkpt lat="51.476141" lon="0.287891"><ele>5</ele></trkpt>
      <trkpt lat="51.476199" lon="0.287841"><ele>5</ele></trkpt>
      <trkpt lat="51.476256" lon="0.28783"><ele>5</ele></trkpt>
      <trkpt lat="51.476277" lon="0.287533"><ele>5</ele></trkpt>
      <trkpt lat="51.476404" lon="0.286766"><ele>6</ele></trkpt>
      <trkpt lat="51.47645" lon="0.286351"><ele>6</ele></trkpt>
      <trkpt lat="51.476471" lon="0.286004"><ele>6</ele></trkpt>
      <trkpt lat="51.476465" lon="0.285796"><ele>6</ele></trkpt>
      <trkpt lat="51.476442" lon="0.285385"><ele>6</ele></trkpt>
      <trkpt lat="51.476427" lon="0.285111"><ele>6</ele></trkpt>
      <trkpt lat="51.476407" lon="0.284797"><ele>6</ele></trkpt>
      <trkpt lat="51.476351" lon="0.284336"><ele>5.75</ele></trkpt>
      <trkpt lat="51.476316" lon="0.284136"><ele>5.5</ele></trkpt>
      <trkpt lat="51.476274" lon="0.283942"><ele>5.5</ele></trkpt>
      <trkpt lat="51.47625" lon="0.283857"><ele>5.25</ele></trkpt>
      <trkpt lat="51.476127" lon="0.283423"><ele>5</ele></trkpt>
      <trkpt lat="51.476045" lon="0.283076"><ele>4.75</ele></trkpt>
      <trkpt lat="51.47601" lon="0.28294"><ele>4.75</ele></trkpt>
      <trkpt lat="51.47589" lon="0.282465"><ele>4</ele></trkpt>
      <trkpt lat="51.475854" lon="0.282257"><ele>4</ele></trkpt>
      <trkpt lat="51.475825" lon="0.281937"><ele>3.75</ele></trkpt>
      <trkpt lat="51.475793" lon="0.281345"><ele>3.75</ele></trkpt>
      <trkpt lat="51.475785" lon="0.281119"><ele>3.75</ele></trkpt>
      <trkpt lat="51.475769" lon="0.280908"><ele>4</ele></trkpt>
      <trkpt lat="51.475761" lon="0.280793"><ele>4</ele></trkpt>
      <trkpt lat="51.475779" lon="0.28068"><ele>4</ele></trkpt>
      <trkpt lat="51.475806" lon="0.280516"><ele>4</ele></trkpt>
      <trkpt lat="51.475825" lon="0.280401"><ele>4</ele></trkpt>
      <trkpt lat="51.475862" lon="0.279928"><ele>4</ele></trkpt>
      <trkpt lat="51.475884" lon="0.27953"><ele>4.75</ele></trkpt>
      <trkpt lat="51.475892" lon="0.279344"><ele>5</ele></trkpt>
      <trkpt lat="51.475913" lon="0.278619"><ele>5.25</ele></trkpt>
      <trkpt lat="51.475917" lon="0.278026"><ele>5.25</ele></trkpt>
      <trkpt lat="51.475901" lon="0.277652"><ele>5</ele></trkpt>
      <trkpt lat="51.47588" lon="0.277463"><ele>5.25</ele></trkpt>
      <trkpt lat="51.475848" lon="0.27733"><ele>5.5</ele></trkpt>
      <trkpt lat="51.475872" lon="0.277222"><ele>6</ele></trkpt>
      <trkpt lat="51.47588" lon="0.276588"><ele>5.75</ele></trkpt>
      <trkpt lat="51.475865" lon="0.276197"><ele>5</ele></trkpt>
      <trkpt lat="51.475856" lon="0.275935"><ele>5.5</ele></trkpt>
      <trkpt lat="51.475843" lon="0.275632"><ele>5.75</ele></trkpt>
      <trkpt lat="51.475831" lon="0.275347"><ele>5.75</ele></trkpt>
      <trkpt lat="51.475831" lon="0.275118"><ele>5.75</ele></trkpt>
      <trkpt lat="51.475832" lon="0.275068"><ele>5.75</ele></trkpt>
      <trkpt lat="51.475843" lon="0.274892"><ele>5.5</ele></trkpt>
      <trkpt lat="51.475864" lon="0.274812"><ele>5.25</ele></trkpt>
      <trkpt lat="51.475841" lon="0.274778"><ele>5</ele></trkpt>
      <trkpt lat="51.475825" lon="0.274729"><ele>4.75</ele></trkpt>
      <trkpt lat="51.475816" lon="0.274605"><ele>4.75</ele></trkpt>
      <trkpt lat="51.475832" lon="0.274318"><ele>4.75</ele></trkpt>
      <trkpt lat="51.475901" lon="0.273367"><ele>6</ele></trkpt>
      <trkpt lat="51.475926" lon="0.273172"><ele>5.5</ele></trkpt>
      <trkpt lat="51.476008" lon="0.272625"><ele>4.75</ele></trkpt>
      <trkpt lat="51.476061" lon="0.272288"><ele>4.75</ele></trkpt>
      <trkpt lat="51.47607" lon="0.272224"><ele>4.75</ele></trkpt>
      <trkpt lat="51.476139" lon="0.271741"><ele>4.75</ele></trkpt>
      <trkpt lat="51.476158" lon="0.271566"><ele>5</ele></trkpt>
      <trkpt lat="51.476168" lon="0.271398"><ele>5</ele></trkpt>
      <trkpt lat="51.476189" lon="0.270514"><ele>5.25</ele></trkpt>
      <trkpt lat="51.476198" lon="0.270043"><ele>5.25</ele></trkpt>
      <trkpt lat="51.476207" lon="0.269546"><ele>6</ele></trkpt>
      <trkpt lat="51.476206" lon="0.269051"><ele>5.5</ele></trkpt>
      <trkpt lat="51.476225" lon="0.268561"><ele>5</ele></trkpt>
      <trkpt lat="51.476259" lon="0.2685"><ele>5</ele></trkpt>
      <trkpt lat="51.476292" lon="0.268294"><ele>5</ele></trkpt>
      <trkpt lat="51.476337" lon="0.268103"><ele>5</ele></trkpt>
      <trkpt lat="51.476376" lon="0.26786"><ele>5</ele></trkpt>
      <trkpt lat="51.476408" lon="0.267737"><ele>5</ele></trkpt>
      <trkpt lat="51.476422" lon="0.267687"><ele>5</ele></trkpt>
      <trkpt lat="51.476433" lon="0.267561"><ele>5</ele></trkpt>
      <trkpt lat="51.476541" lon="0.267222"><ele>4.5</ele></trkpt>
      <trkpt lat="51.476586" lon="0.267016"><ele>4.5</ele></trkpt>
      <trkpt lat="51.476832" lon="0.265615"><ele>4.5</ele></trkpt>
      <trkpt lat="51.476989" lon="0.26472"><ele>5</ele></trkpt>
      <trkpt lat="51.477075" lon="0.264257"><ele>4.5</ele></trkpt>
      <trkpt lat="51.477279" lon="0.263146"><ele>5.25</ele></trkpt>
      <trkpt lat="51.477288" lon="0.263099"><ele>5.25</ele></trkpt>
      <trkpt lat="51.477389" lon="0.262747"><ele>6</ele></trkpt>
      <trkpt lat="51.47752" lon="0.26239"><ele>6</ele></trkpt>
      <trkpt lat="51.477651" lon="0.262086"><ele>6.5</ele></trkpt>
      <trkpt lat="51.477756" lon="0.261874"><ele>6.75</ele></trkpt>
      <trkpt lat="51.477913" lon="0.261564"><ele>8</ele></trkpt>
      <trkpt lat="51.477943" lon="0.261506"><ele>8</ele></trkpt>
      <trkpt lat="51.477908" lon="0.261454"><ele>7.5</ele></trkpt>
      <trkpt lat="51.477901" lon="0.261444"><ele>7.5</ele></trkpt>
      <trkpt lat="51.477943" lon="0.261325"><ele>7.5</ele></trkpt>
      <trkpt lat="51.477998" lon="0.261125"><ele>7.5</ele></trkpt>
      <trkpt lat="51.478047" lon="0.26104"><ele>7.75</ele></trkpt>
      <trkpt lat="51.478074" lon="0.260956"><ele>8</ele></trkpt>
      <trkpt lat="51.478101" lon="0.260598"><ele>7.5</ele></trkpt>
      <trkpt lat="51.478135" lon="0.260134"><ele>6.5</ele></trkpt>
      <trkpt lat="51.478143" lon="0.25995"><ele>6.5</ele></trkpt>
      <trkpt lat="51.478" lon="0.259611"><ele>5</ele></trkpt>
      <trkpt lat="51.478042" lon="0.259559"><ele>5.25</ele></trkpt>
      <trkpt lat="51.478083" lon="0.259518"><ele>5.5</ele></trkpt>
      <trkpt lat="51.478051" lon="0.259434"><ele>4.75</ele></trkpt>
      <trkpt lat="51.478103" lon="0.259383"><ele>5.75</ele></trkpt>
      <trkpt lat="51.478141" lon="0.259335"><ele>6.25</ele></trkpt>
      <trkpt lat="51.478151" lon="0.259218"><ele>6.25</ele></trkpt>
      <trkpt lat="51.478197" lon="0.258484"><ele>5.5</ele></trkpt>
      <trkpt lat="51.478233" lon="0.258371"><ele>5.75</ele></trkpt>
      <trkpt lat="51.478245" lon="0.25821"><ele>6</ele></trkpt>
      <trkpt lat="51.478276" lon="0.257831"><ele>5.5</ele></trkpt>
      <trkpt lat="51.4783" lon="0.257566"><ele>4.75</ele></trkpt>
      <trkpt lat="51.478383" lon="0.256815"><ele>4.75</ele></trkpt>
      <trkpt lat="51.478486" lon="0.256046"><ele>5.75</ele></trkpt>
      <trkpt lat="51.478569" lon="0.255556"><ele>5.5</ele></trkpt>
      <trkpt lat="51.47868" lon="0.254873"><ele>6</ele></trkpt>
      <trkpt lat="51.478786" lon="0.254156"><ele>7</ele></trkpt>
      <trkpt lat="51.478878" lon="0.253511"><ele>6.5</ele></trkpt>
      <trkpt lat="51.478883" lon="0.25343"><ele>6.25</ele></trkpt>
      <trkpt lat="51.478874" lon="0.253275"><ele>5.5</ele></trkpt>
      <trkpt lat="51.478861" lon="0.25321"><ele>5.25</ele></trkpt>
      <trkpt lat="51.478536" lon="0.252161"><ele>2.5</ele></trkpt>
      <trkpt lat="51.47849" lon="0.251871"><ele>2.5</ele></trkpt>
      <trkpt lat="51.478484" lon="0.251698"><ele>3</ele></trkpt>
      <trkpt lat="51.478483" lon="0.251417"><ele>2.5</ele></trkpt>
      <trkpt lat="51.478486" lon="0.251125"><ele>3</ele></trkpt>
      <trkpt lat="51.478502" lon="0.250073"><ele>2.75</ele></trkpt>
      <trkpt lat="51.478511" lon="0.24993"><ele>2.75</ele></trkpt>
      <trkpt lat="51.478585" lon="0.249204"><ele>2.75</ele></trkpt>
      <trkpt lat="51.47865" lon="0.248655"><ele>3.75</ele></trkpt>
      <trkpt lat="51.478674" lon="0.248441"><ele>4</ele></trkpt>
      <trkpt lat="51.478692" lon="0.248306"><ele>4</ele></trkpt>
      <trkpt lat="51.478744" lon="0.247938"><ele>4</ele></trkpt>
      <trkpt lat="51.478783" lon="0.24772"><ele>3.5</ele></trkpt>
      <trkpt lat="51.478832" lon="0.247497"><ele>3.5</ele></trkpt>
      <trkpt lat="51.478914" lon="0.24714"><ele>3</ele></trkpt>
      <trkpt lat="51.478993" lon="0.246735"><ele>3.5</ele></trkpt>
      <trkpt lat="51.479053" lon="0.246332"><ele>3</ele></trkpt>
      <trkpt lat="51.479086" lon="0.245997"><ele>3.25</ele></trkpt>
      <trkpt lat="51.479178" lon="0.245191"><ele>3</ele></trkpt>
      <trkpt lat="51.479278" lon="0.244256"><ele>3.25</ele></trkpt>
      <trkpt lat="51.479356" lon="0.24346"><ele>3</ele></trkpt>
      <trkpt lat="51.479629" lon="0.240775"><ele>3.75</ele></trkpt>
      <trkpt lat="51.479704" lon="0.240341"><ele>3.75</ele></trkpt>
      <trkpt lat="51.479877" lon="0.239785"><ele>3.5</ele></trkpt>
      <trkpt lat="51.480118" lon="0.238978"><ele>3.5</ele></trkpt>
      <trkpt lat="51.480392" lon="0.238138"><ele>3.75</ele></trkpt>
      <trkpt lat="51.480429" lon="0.238032"><ele>4</ele></trkpt>
      <trkpt lat="51.480524" lon="0.237736"><ele>3.75</ele></trkpt>
      <trkpt lat="51.480624" lon="0.237403"><ele>4.25</ele></trkpt>
      <trkpt lat="51.480648" lon="0.237319"><ele>4.25</ele></trkpt>
      <trkpt lat="51.480698" lon="0.237133"><ele>4.25</ele></trkpt>
      <trkpt lat="51.480712" lon="0.237078"><ele>4.25</ele></trkpt>
      <trkpt lat="51.480741" lon="0.236975"><ele>4.25</ele></trkpt>
      <trkpt lat="51.480803" lon="0.236717"><ele>4.75</ele></trkpt>
      <trkpt lat="51.48084" lon="0.236715"><ele>5</ele></trkpt>
      <trkpt lat="51.480929" lon="0.236706"><ele>5</ele></trkpt>
      <trkpt lat="51.481006" lon="0.236697"><ele>5.25</ele></trkpt>
      <trkpt lat="51.480929" lon="0.236706"><ele>5</ele></trkpt>
      <trkpt lat="51.48084" lon="0.236715"><ele>5</ele></trkpt>
      <trkpt lat="51.480886" lon="0.236521"><ele>5</ele></trkpt>
      <trkpt lat="51.480854" lon="0.236502"><ele>5</ele></trkpt>
      <trkpt lat="51.480975" lon="0.236001"><ele>5.25</ele></trkpt>
      <trkpt lat="51.481045" lon="0.235778"><ele>5.5</ele></trkpt>
      <trkpt lat="51.481169" lon="0.23549"><ele>5.75</ele></trkpt>
      <trkpt lat="51.481258" lon="0.23535"><ele>6</ele></trkpt>
      <trkpt lat="51.4813" lon="0.235298"><ele>6</ele></trkpt>
      <trkpt lat="51.481479" lon="0.235075"><ele>6</ele></trkpt>
      <trkpt lat="51.48168" lon="0.234823"><ele>7.5</ele></trkpt>
      <trkpt lat="51.48176" lon="0.234681"><ele>6.75</ele></trkpt>
      <trkpt lat="51.481794" lon="0.234601"><ele>6.75</ele></trkpt>
      <trkpt lat="51.481861" lon="0.234406"><ele>8</ele></trkpt>
      <trkpt lat="51.482145" lon="0.233436"><ele>8</ele></trkpt>
      <trkpt lat="51.482297" lon="0.232819"><ele>7.25</ele></trkpt>
      <trkpt lat="51.482339" lon="0.232657"><ele>7</ele></trkpt>
      <trkpt lat="51.482322" lon="0.232596"><ele>7.25</ele></trkpt>
      <trkpt lat="51.482354" lon="0.232488"><ele>7.5</ele></trkpt>
      <trkpt lat="51.482387" lon="0.232393"><ele>7.25</ele></trkpt>
      <trkpt lat="51.482396" lon="0.232352"><ele>7.25</ele></trkpt>
      <trkpt lat="51.482418" lon="0.232308"><ele>7.25</ele></trkpt>
      <trkpt lat="51.482441" lon="0.23229"><ele>7</ele></trkpt>
      <trkpt lat="51.482466" lon="0.232287"><ele>7</ele></trkpt>
      <trkpt lat="51.482489" lon="0.2323"><ele>7</ele></trkpt>
      <trkpt lat="51.482526" lon="0.232146"><ele>6.75</ele></trkpt>
      <trkpt lat="51.48254" lon="0.232118"><ele>6.75</ele></trkpt>
      <trkpt lat="51.482596" lon="0.232004"><ele>6.75</ele></trkpt>
      <trkpt lat="51.482638" lon="0.231913"><ele>7</ele></trkpt>
      <trkpt lat="51.482746" lon="0.23177"><ele>7</ele></trkpt>
      <trkpt lat="51.482801" lon="0.2317"><ele>7</ele></trkpt>
      <trkpt lat="51.482896" lon="0.231588"><ele>7.5</ele></trkpt>
      <trkpt lat="51.483051" lon="0.231363"><ele>8.75</ele></trkpt>
      <trkpt lat="51.483144" lon="0.231158"><ele>9.25</ele></trkpt>
      <trkpt lat="51.483217" lon="0.230994"><ele>9.25</ele></trkpt>
      <trkpt lat="51.483301" lon="0.230964"><ele>9.75</ele></trkpt>
      <trkpt lat="51.483352" lon="0.230908"><ele>10</ele></trkpt>
      <trkpt lat="51.483443" lon="0.230897"><ele>10.25</ele></trkpt>
      <trkpt lat="51.483541" lon="0.230964"><ele>10.5</ele></trkpt>
      <trkpt lat="51.48386" lon="0.231312"><ele>11.75</ele></trkpt>
      <trkpt lat="51.483888" lon="0.231346"><ele>11.75</ele></trkpt>
      <trkpt lat="51.483995" lon="0.231429"><ele>11.75</ele></trkpt>
      <trkpt lat="51.484046" lon="0.231326"><ele>12.25</ele></trkpt>
      <trkpt lat="51.484423" lon="0.231769"><ele>14.5</ele></trkpt>
      <trkpt lat="51.484511" lon="0.231959"><ele>14.75</ele></trkpt>
      <trkpt lat="51.484632" lon="0.232106"><ele>15</ele></trkpt>
      <trkpt lat="51.484718" lon="0.232308"><ele>16.75</ele></trkpt>
      <trkpt lat="51.484745" lon="0.232546"><ele>16.75</ele></trkpt>
      <trkpt lat="51.484827" lon="0.232929"><ele>16.5</ele></trkpt>
      <trkpt lat="51.48492" lon="0.233176"><ele>17.5</ele></trkpt>
      <trkpt lat="51.485075" lon="0.233472"><ele>18.5</ele></trkpt>
      <trkpt lat="51.48535" lon="0.233742"><ele>17.5</ele></trkpt>
      <trkpt lat="51.485447" lon="0.233784"><ele>17</ele></trkpt>
      <trkpt lat="51.485475" lon="0.233784"><ele>17</ele></trkpt>
      <trkpt lat="51.485575" lon="0.233793"><ele>16.5</ele></trkpt>
      <trkpt lat="51.48589" lon="0.233755"><ele>15</ele></trkpt>
      <trkpt lat="51.486138" lon="0.233726"><ele>13.75</ele></trkpt>
      <trkpt lat="51.486517" lon="0.233681"><ele>12.5</ele></trkpt>
      <trkpt lat="51.48663" lon="0.23368"><ele>12</ele></trkpt>
      <trkpt lat="51.487149" lon="0.233548"><ele>9.25</ele></trkpt>
      <trkpt lat="51.487363" lon="0.233508"><ele>8.25</ele></trkpt>
      <trkpt lat="51.487472" lon="0.233484"><ele>8</ele></trkpt>
      <trkpt lat="51.487736" lon="0.23343"><ele>7</ele></trkpt>
      <trkpt lat="51.487998" lon="0.233451"><ele>5.75</ele></trkpt>
      <trkpt lat="51.488118" lon="0.233461"><ele>5</ele></trkpt>
      <trkpt lat="51.488459" lon="0.233525"><ele>4.5</ele></trkpt>
      <trkpt lat="51.488665" lon="0.233567"><ele>4</ele></trkpt>
      <trkpt lat="51.488771" lon="0.233606"><ele>2.5</ele></trkpt>
      <trkpt lat="51.489067" lon="0.233731"><ele>2.75</ele></trkpt>
      <trkpt lat="51.489164" lon="0.233775"><ele>3.75</ele></trkpt>
      <trkpt lat="51.4895" lon="0.233985"><ele>3</ele></trkpt>
      <trkpt lat="51.490204" lon="0.234323"><ele>4.5</ele></trkpt>
      <trkpt lat="51.490388" lon="0.234397"><ele>4</ele></trkpt>
      <trkpt lat="51.490646" lon="0.234481"><ele>4.5</ele></trkpt>
      <trkpt lat="51.490938" lon="0.234556"><ele>5.25</ele></trkpt>
      <trkpt lat="51.491173" lon="0.234595"><ele>5.75</ele></trkpt>
      <trkpt lat="51.491387" lon="0.234611"><ele>6.5</ele></trkpt>
      <trkpt lat="51.491678" lon="0.234608"><ele>7</ele></trkpt>
      <trkpt lat="51.491977" lon="0.234548"><ele>8</ele></trkpt>
      <trkpt lat="51.492136" lon="0.23452"><ele>8</ele></trkpt>
      <trkpt lat="51.49253" lon="0.234403"><ele>6.75</ele></trkpt>
      <trkpt lat="51.492648" lon="0.234362"><ele>5.75</ele></trkpt>
      <trkpt lat="51.492763" lon="0.234341"><ele>4.75</ele></trkpt>
      <trkpt lat="51.49288" lon="0.234359"><ele>4.25</ele></trkpt>
      <trkpt lat="51.492985" lon="0.234405"><ele>4</ele></trkpt>
      <trkpt lat="51.493084" lon="0.23449"><ele>3.75</ele></trkpt>
      <trkpt lat="51.493179" lon="0.234612"><ele>3.5</ele></trkpt>
      <trkpt lat="51.493231" lon="0.234711"><ele>3.25</ele></trkpt>
      <trkpt lat="51.493269" lon="0.234809"><ele>3.25</ele></trkpt>
      <trkpt lat="51.49332" lon="0.234941"><ele>3.75</ele></trkpt>
      <trkpt lat="51.49341" lon="0.234875"><ele>3.5</ele></trkpt>
      <trkpt lat="51.493446" lon="0.234852"><ele>3.5</ele></trkpt>
      <trkpt lat="51.494077" lon="0.234431"><ele>3.75</ele></trkpt>
      <trkpt lat="51.494793" lon="0.233937"><ele>4.75</ele></trkpt>
      <trkpt lat="51.495416" lon="0.233452"><ele>4.25</ele></trkpt>
      <trkpt lat="51.495818" lon="0.233062"><ele>4.75</ele></trkpt>
      <trkpt lat="51.496067" lon="0.232802"><ele>4.75</ele></trkpt>
      <trkpt lat="51.496138" lon="0.23273"><ele>4.75</ele></trkpt>
      <trkpt lat="51.496149" lon="0.232666"><ele>4.75</ele></trkpt>
      <trkpt lat="51.496269" lon="0.232531"><ele>4.75</ele></trkpt>
      <trkpt lat="51.496315" lon="0.232476"><ele>4.75</ele></trkpt>
      <trkpt lat="51.496382" lon="0.232397"><ele>4.75</ele></trkpt>
      <trkpt lat="51.496631" lon="0.232084"><ele>4.75</ele></trkpt>
      <trkpt lat="51.496689" lon="0.232071"><ele>5</ele></trkpt>
      <trkpt lat="51.496946" lon="0.231769"><ele>5</ele></trkpt>
      <trkpt lat="51.497285" lon="0.231394"><ele>5</ele></trkpt>
      <trkpt lat="51.497651" lon="0.231036"><ele>5.25</ele></trkpt>
      <trkpt lat="51.497928" lon="0.230783"><ele>5</ele></trkpt>
      <trkpt lat="51.498085" lon="0.230738"><ele>5</ele></trkpt>
      <trkpt lat="51.498127" lon="0.230706"><ele>5.25</ele></trkpt>
      <trkpt lat="51.498504" lon="0.230429"><ele>6.25</ele></trkpt>
      <trkpt lat="51.499038" lon="0.230054"><ele>7.75</ele></trkpt>
      <trkpt lat="51.499204" lon="0.229959"><ele>8</ele></trkpt>
      <trkpt lat="51.499262" lon="0.229979"><ele>8</ele></trkpt>
      <trkpt lat="51.499306" lon="0.229971"><ele>8</ele></trkpt>
      <trkpt lat="51.499355" lon="0.22994"><ele>8</ele></trkpt>
      <trkpt lat="51.499396" lon="0.229887"><ele>8.25</ele></trkpt>
      <trkpt lat="51.499425" lon="0.229816"><ele>8.5</ele></trkpt>
      <trkpt lat="51.499439" lon="0.229735"><ele>8.75</ele></trkpt>
      <trkpt lat="51.499618" lon="0.229413"><ele>5.25</ele></trkpt>
      <trkpt lat="51.49969" lon="0.229368"><ele>5.25</ele></trkpt>
      <trkpt lat="51.500084" lon="0.22912"><ele>6.5</ele></trkpt>
      <trkpt lat="51.500157" lon="0.229111"><ele>6.75</ele></trkpt>
      <trkpt lat="51.50021" lon="0.229106"><ele>6.75</ele></trkpt>
      <trkpt lat="51.500405" lon="0.229058"><ele>8.25</ele></trkpt>
      <trkpt lat="51.500453" lon="0.229082"><ele>8.5</ele></trkpt>
      <trkpt lat="51.500503" lon="0.229083"><ele>8.75</ele></trkpt>
      <trkpt lat="51.500551" lon="0.229059"><ele>8.75</ele></trkpt>
      <trkpt lat="51.500592" lon="0.229014"><ele>9</ele></trkpt>
      <trkpt lat="51.500618" lon="0.228966"><ele>9</ele></trkpt>
      <trkpt lat="51.500636" lon="0.228909"><ele>9</ele></trkpt>
      <trkpt lat="51.500706" lon="0.2288"><ele>9</ele></trkpt>
      <trkpt lat="51.500798" lon="0.228677"><ele>9</ele></trkpt>
      <trkpt lat="51.5011" lon="0.228462"><ele>9</ele></trkpt>
      <trkpt lat="51.50259" lon="0.227512"><ele>6</ele></trkpt>
      <trkpt lat="51.502849" lon="0.227376"><ele>5.75</ele></trkpt>
      <trkpt lat="51.502986" lon="0.227342"><ele>5.5</ele></trkpt>
      <trkpt lat="51.503121" lon="0.227324"><ele>5.25</ele></trkpt>
      <trkpt lat="51.503151" lon="0.227347"><ele>5.25</ele></trkpt>
      <trkpt lat="51.503184" lon="0.227359"><ele>5.25</ele></trkpt>
      <trkpt lat="51.503236" lon="0.227357"><ele>5</ele></trkpt>
      <trkpt lat="51.503286" lon="0.227328"><ele>5</ele></trkpt>
      <trkpt lat="51.503327" lon="0.227275"><ele>5</ele></trkpt>
      <trkpt lat="51.503363" lon="0.227173"><ele>4.75</ele></trkpt>
      <trkpt lat="51.503415" lon="0.22709"><ele>4.75</ele></trkpt>
      <trkpt lat="51.503623" lon="0.226955"><ele>4.75</ele></trkpt>
      <trkpt lat="51.50401" lon="0.226764"><ele>4</ele></trkpt>
      <trkpt lat="51.504312" lon="0.226571"><ele>4</ele></trkpt>
      <trkpt lat="51.505338" lon="0.226035"><ele>4</ele></trkpt>
      <trkpt lat="51.505713" lon="0.225772"><ele>3.75</ele></trkpt>
      <trkpt lat="51.50589" lon="0.225651"><ele>4</ele></trkpt>
      <trkpt lat="51.506055" lon="0.225563"><ele>4</ele></trkpt>
      <trkpt lat="51.506043" lon="0.225499"><ele>3.75</ele></trkpt>
      <trkpt lat="51.506036" lon="0.225462"><ele>3.75</ele></trkpt>
      <trkpt lat="51.506065" lon="0.225265"><ele>3.75</ele></trkpt>
      <trkpt lat="51.506142" lon="0.225254"><ele>4</ele></trkpt>
      <trkpt lat="51.50614" lon="0.225201"><ele>4</ele></trkpt>
      <trkpt lat="51.506157" lon="0.225129"><ele>4</ele></trkpt>
      <trkpt lat="51.50622" lon="0.224974"><ele>4</ele></trkpt>
      <trkpt lat="51.506253" lon="0.224848"><ele>4</ele></trkpt>
      <trkpt lat="51.506269" lon="0.224681"><ele>4</ele></trkpt>
      <trkpt lat="51.506288" lon="0.224153"><ele>4</ele></trkpt>
      <trkpt lat="51.506289" lon="0.224042"><ele>4</ele></trkpt>
      <trkpt lat="51.50629" lon="0.223853"><ele>4</ele></trkpt>
      <trkpt lat="51.506295" lon="0.223698"><ele>4</ele></trkpt>
      <trkpt lat="51.506302" lon="0.223453"><ele>3.75</ele></trkpt>
      <trkpt lat="51.50629" lon="0.222939"><ele>3</ele></trkpt>
      <trkpt lat="51.506296" lon="0.222711"><ele>2.75</ele></trkpt>
      <trkpt lat="51.506309" lon="0.222603"><ele>2.75</ele></trkpt>
      <trkpt lat="51.506368" lon="0.222435"><ele>2.75</ele></trkpt>
      <trkpt lat="51.506502" lon="0.222079"><ele>3</ele></trkpt>
      <trkpt lat="51.506538" lon="0.221961"><ele>3</ele></trkpt>
      <trkpt lat="51.50656" lon="0.221852"><ele>3</ele></trkpt>
      <trkpt lat="51.50657" lon="0.22175"><ele>3.25</ele></trkpt>
      <trkpt lat="51.50655" lon="0.221443"><ele>4.25</ele></trkpt>
      <trkpt lat="51.5065" lon="0.220963"><ele>4.75</ele></trkpt>
      <trkpt lat="51.506476" lon="0.220572"><ele>4.5</ele></trkpt>
      <trkpt lat="51.506467" lon="0.220148"><ele>4.5</ele></trkpt>
      <trkpt lat="51.506475" lon="0.219816"><ele>4.5</ele></trkpt>
      <trkpt lat="51.506497" lon="0.219482"><ele>4.25</ele></trkpt>
      <trkpt lat="51.50651" lon="0.219335"><ele>4.25</ele></trkpt>
      <trkpt lat="51.506522" lon="0.219202"><ele>4.25</ele></trkpt>
      <trkpt lat="51.506568" lon="0.218691"><ele>5</ele></trkpt>
      <trkpt lat="51.506592" lon="0.218523"><ele>5</ele></trkpt>
      <trkpt lat="51.506665" lon="0.217908"><ele>5</ele></trkpt>
      <trkpt lat="51.506691" lon="0.217501"><ele>5</ele></trkpt>
      <trkpt lat="51.506695" lon="0.216985"><ele>5</ele></trkpt>
      <trkpt lat="51.50669" lon="0.216525"><ele>5</ele></trkpt>
      <trkpt lat="51.506689" lon="0.216451"><ele>5</ele></trkpt>
      <trkpt lat="51.506692" lon="0.215948"><ele>5</ele></trkpt>
      <trkpt lat="51.506703" lon="0.215701"><ele>5</ele></trkpt>
      <trkpt lat="51.506722" lon="0.215453"><ele>4.75</ele></trkpt>
      <trkpt lat="51.5068" lon="0.214446"><ele>4</ele></trkpt>
      <trkpt lat="51.506824" lon="0.214133"><ele>3.5</ele></trkpt>
      <trkpt lat="51.506883" lon="0.213439"><ele>3.5</ele></trkpt>
      <trkpt lat="51.5069" lon="0.213268"><ele>3.5</ele></trkpt>
      <trkpt lat="51.506914" lon="0.213179"><ele>3.75</ele></trkpt>
      <trkpt lat="51.50694" lon="0.213077"><ele>3.75</ele></trkpt>
      <trkpt lat="51.506984" lon="0.212954"><ele>3.5</ele></trkpt>
      <trkpt lat="51.50712" lon="0.212683"><ele>3.5</ele></trkpt>
      <trkpt lat="51.507373" lon="0.212214"><ele>3.5</ele></trkpt>
      <trkpt lat="51.507634" lon="0.21179"><ele>4</ele></trkpt>
      <trkpt lat="51.50802" lon="0.211164"><ele>5</ele></trkpt>
      <trkpt lat="51.508344" lon="0.210639"><ele>5.75</ele></trkpt>
      <trkpt lat="51.508502" lon="0.210384"><ele>5.5</ele></trkpt>
      <trkpt lat="51.508508" lon="0.210357"><ele>5.5</ele></trkpt>
      <trkpt lat="51.508564" lon="0.210264"><ele>5.75</ele></trkpt>
      <trkpt lat="51.508597" lon="0.210229"><ele>5.75</ele></trkpt>
      <trkpt lat="51.508615" lon="0.210205"><ele>5.5</ele></trkpt>
      <trkpt lat="51.508712" lon="0.210039"><ele>5</ele></trkpt>
      <trkpt lat="51.508825" lon="0.209862"><ele>5</ele></trkpt>
      <trkpt lat="51.509204" lon="0.20924"><ele>4.75</ele></trkpt>
      <trkpt lat="51.509286" lon="0.209105"><ele>4.25</ele></trkpt>
      <trkpt lat="51.509336" lon="0.209032"><ele>4</ele></trkpt>
      <trkpt lat="51.50976" lon="0.208359"><ele>3.5</ele></trkpt>
      <trkpt lat="51.509833" lon="0.208232"><ele>2.75</ele></trkpt>
      <trkpt lat="51.509903" lon="0.208119"><ele>2.5</ele></trkpt>
      <trkpt lat="51.510068" lon="0.207822"><ele>1.75</ele></trkpt>
      <trkpt lat="51.510665" lon="0.206879"><ele>1.5</ele></trkpt>
      <trkpt lat="51.510774" lon="0.206723"><ele>1.5</ele></trkpt>
      <trkpt lat="51.510824" lon="0.206666"><ele>1.75</ele></trkpt>
      <trkpt lat="51.510932" lon="0.206562"><ele>1.5</ele></trkpt>
      <trkpt lat="51.511088" lon="0.206421"><ele>1.75</ele></trkpt>
      <trkpt lat="51.511815" lon="0.205726"><ele>3</ele></trkpt>
      <trkpt lat="51.512038" lon="0.205509"><ele>3</ele></trkpt>
      <trkpt lat="51.512111" lon="0.20544"><ele>3</ele></trkpt>
      <trkpt lat="51.512179" lon="0.205374"><ele>3</ele></trkpt>
      <trkpt lat="51.512382" lon="0.205185"><ele>3.5</ele></trkpt>
      <trkpt lat="51.512437" lon="0.205127"><ele>3.75</ele></trkpt>
      <trkpt lat="51.512537" lon="0.205022"><ele>4</ele></trkpt>
      <trkpt lat="51.513007" lon="0.204532"><ele>5</ele></trkpt>
      <trkpt lat="51.513476" lon="0.204042"><ele>5.5</ele></trkpt>
      <trkpt lat="51.513604" lon="0.203908"><ele>5.75</ele></trkpt>
      <trkpt lat="51.513819" lon="0.203692"><ele>6</ele></trkpt>
      <trkpt lat="51.513905" lon="0.203604"><ele>6</ele></trkpt>
      <trkpt lat="51.514262" lon="0.203258"><ele>6</ele></trkpt>
      <trkpt lat="51.514598" lon="0.202938"><ele>6</ele></trkpt>
      <trkpt lat="51.514718" lon="0.202807"><ele>6</ele></trkpt>
      <trkpt lat="51.514792" lon="0.202726"><ele>5.75</ele></trkpt>
      <trkpt lat="51.515187" lon="0.202354"><ele>4.5</ele></trkpt>
      <trkpt lat="51.515299" lon="0.202209"><ele>4</ele></trkpt>
      <trkpt lat="51.515368" lon="0.202098"><ele>4</ele></trkpt>
      <trkpt lat="51.515391" lon="0.202047"><ele>4</ele></trkpt>
      <trkpt lat="51.515415" lon="0.201969"><ele>4</ele></trkpt>
      <trkpt lat="51.515471" lon="0.201733"><ele>3.75</ele></trkpt>
      <trkpt lat="51.515518" lon="0.201497"><ele>3.75</ele></trkpt>
      <trkpt lat="51.515629" lon="0.200987"><ele>5.25</ele></trkpt>
      <trkpt lat="51.515716" lon="0.200614"><ele>5.5</ele></trkpt>
      <trkpt lat="51.51587" lon="0.199995"><ele>6</ele></trkpt>
      <trkpt lat="51.515919" lon="0.199798"><ele>6</ele></trkpt>
      <trkpt lat="51.516105" lon="0.198955"><ele>6</ele></trkpt>
      <trkpt lat="51.516155" lon="0.198758"><ele>6</ele></trkpt>
      <trkpt lat="51.5163" lon="0.198195"><ele>6</ele></trkpt>
      <trkpt lat="51.516377" lon="0.197883"><ele>6</ele></trkpt>
      <trkpt lat="51.516418" lon="0.197687"><ele>6</ele></trkpt>
      <trkpt lat="51.516493" lon="0.197227"><ele>6</ele></trkpt>
      <trkpt lat="51.516554" lon="0.196744"><ele>6</ele></trkpt>
      <trkpt lat="51.516621" lon="0.196211"><ele>6.5</ele></trkpt>
      <trkpt lat="51.516636" lon="0.196087"><ele>6.75</ele></trkpt>
      <trkpt lat="51.516685" lon="0.195697"><ele>6</ele></trkpt>
      <trkpt lat="51.516739" lon="0.195263"><ele>6</ele></trkpt>
      <trkpt lat="51.51681" lon="0.194722"><ele>6</ele></trkpt>
      <trkpt lat="51.516854" lon="0.19444"><ele>6</ele></trkpt>
      <trkpt lat="51.5169" lon="0.1942"><ele>6</ele></trkpt>
      <trkpt lat="51.517037" lon="0.19357"><ele>6</ele></trkpt>
      <trkpt lat="51.51706" lon="0.193443"><ele>6</ele></trkpt>
      <trkpt lat="51.517115" lon="0.193151"><ele>6</ele></trkpt>
      <trkpt lat="51.517164" lon="0.19274"><ele>5</ele></trkpt>
      <trkpt lat="51.517188" lon="0.19255"><ele>5</ele></trkpt>
      <trkpt lat="51.517223" lon="0.192315"><ele>4.75</ele></trkpt>
      <trkpt lat="51.517382" lon="0.191555"><ele>3.5</ele></trkpt>
      <trkpt lat="51.517386" lon="0.191456"><ele>3.5</ele></trkpt>
      <trkpt lat="51.517375" lon="0.19136"><ele>3.5</ele></trkpt>
      <trkpt lat="51.51731" lon="0.191358"><ele>3.5</ele></trkpt>
      <trkpt lat="51.517269" lon="0.191365"><ele>3.75</ele></trkpt>
      <trkpt lat="51.517224" lon="0.191371"><ele>3.75</ele></trkpt>
      <trkpt lat="51.51703" lon="0.191401"><ele>4.5</ele></trkpt>
      <trkpt lat="51.516859" lon="0.191415"><ele>4.75</ele></trkpt>
      <trkpt lat="51.516824" lon="0.191262"><ele>5</ele></trkpt>
      <trkpt lat="51.516842" lon="0.19112"><ele>5</ele></trkpt>
      <trkpt lat="51.516886" lon="0.190949"><ele>5</ele></trkpt>
      <trkpt lat="51.517369" lon="0.190808"><ele>3.75</ele></trkpt>
      <trkpt lat="51.517488" lon="0.190754"><ele>3.5</ele></trkpt>
      <trkpt lat="51.517522" lon="0.190791"><ele>3.75</ele></trkpt>
      <trkpt lat="51.517548" lon="0.190717"><ele>3.75</ele></trkpt>
      <trkpt lat="51.517593" lon="0.190637"><ele>3.75</ele></trkpt>
      <trkpt lat="51.517606" lon="0.190596"><ele>3.75</ele></trkpt>
      <trkpt lat="51.517971" lon="0.190348"><ele>5</ele></trkpt>
      <trkpt lat="51.518125" lon="0.190252"><ele>5</ele></trkpt>
      <trkpt lat="51.5183" lon="0.190129"><ele>5</ele></trkpt>
      <trkpt lat="51.518566" lon="0.189962"><ele>4</ele></trkpt>
      <trkpt lat="51.518611" lon="0.189894"><ele>4</ele></trkpt>
      <trkpt lat="51.518783" lon="0.189722"><ele>3.75</ele></trkpt>
      <trkpt lat="51.518867" lon="0.189619"><ele>3.75</ele></trkpt>
      <trkpt lat="51.51897" lon="0.189474"><ele>3.75</ele></trkpt>
      <trkpt lat="51.519025" lon="0.189405"><ele>4</ele></trkpt>
      <trkpt lat="51.519177" lon="0.189265"><ele>4.5</ele></trkpt>
      <trkpt lat="51.519209" lon="0.189245"><ele>4.5</ele></trkpt>
      <trkpt lat="51.519323" lon="0.1892"><ele>4.25</ele></trkpt>
      <trkpt lat="51.519376" lon="0.189197"><ele>4</ele></trkpt>
      <trkpt lat="51.519539" lon="0.189177"><ele>3.5</ele></trkpt>
      <trkpt lat="51.519591" lon="0.18912"><ele>3.25</ele></trkpt>
      <trkpt lat="51.519631" lon="0.189017"><ele>3.5</ele></trkpt>
      <trkpt lat="51.519651" lon="0.189021"><ele>3.5</ele></trkpt>
      <trkpt lat="51.519655" lon="0.188906"><ele>3.5</ele></trkpt>
      <trkpt lat="51.519632" lon="0.188792"><ele>3.75</ele></trkpt>
      <trkpt lat="51.519584" lon="0.188655"><ele>3.75</ele></trkpt>
      <trkpt lat="51.519613" lon="0.188591"><ele>3.75</ele></trkpt>
      <trkpt lat="51.519638" lon="0.18853"><ele>3.75</ele></trkpt>
      <trkpt lat="51.519645" lon="0.188515"><ele>3.75</ele></trkpt>
      <trkpt lat="51.519663" lon="0.18847"><ele>3.5</ele></trkpt>
      <trkpt lat="51.519695" lon="0.188303"><ele>3</ele></trkpt>
      <trkpt lat="51.519941" lon="0.188398"><ele>3</ele></trkpt>
      <trkpt lat="51.520021" lon="0.187982"><ele>3</ele></trkpt>
      <trkpt lat="51.520119" lon="0.187905"><ele>3.25</ele></trkpt>
      <trkpt lat="51.520208" lon="0.187436"><ele>3</ele></trkpt>
      <trkpt lat="51.520334" lon="0.18678"><ele>3.25</ele></trkpt>
      <trkpt lat="51.520531" lon="0.18688"><ele>3</ele></trkpt>
      <trkpt lat="51.52075" lon="0.186986"><ele>3</ele></trkpt>
      <trkpt lat="51.520846" lon="0.186423"><ele>3</ele></trkpt>
      <trkpt lat="51.5212" lon="0.186545"><ele>2.75</ele></trkpt>
      <trkpt lat="51.521246" lon="0.186566"><ele>2.75</ele></trkpt>
      <trkpt lat="51.521264" lon="0.186608"><ele>2.75</ele></trkpt>
      <trkpt lat="51.521532" lon="0.186698"><ele>3</ele></trkpt>
      <trkpt lat="51.521634" lon="0.18661"><ele>2.75</ele></trkpt>
      <trkpt lat="51.521662" lon="0.18659"><ele>2.75</ele></trkpt>
      <trkpt lat="51.521816" lon="0.186616"><ele>3</ele></trkpt>
      <trkpt lat="51.521875" lon="0.186186"><ele>3.5</ele></trkpt>
      <trkpt lat="51.5219" lon="0.186147"><ele>3.75</ele></trkpt>
      <trkpt lat="51.52192" lon="0.186103"><ele>3.75</ele></trkpt>
      <trkpt lat="51.521958" lon="0.18585"><ele>4</ele></trkpt>
      <trkpt lat="51.521958" lon="0.185847"><ele>4</ele></trkpt>
      <trkpt lat="51.521966" lon="0.185807"><ele>4</ele></trkpt>
      <trkpt lat="51.521972" lon="0.185774"><ele>4</ele></trkpt>
      <trkpt lat="51.521983" lon="0.185717"><ele>4</ele></trkpt>
      <trkpt lat="51.52199" lon="0.185674"><ele>4</ele></trkpt>
      <trkpt lat="51.521997" lon="0.185633"><ele>4</ele></trkpt>
      <trkpt lat="51.522007" lon="0.185575"><ele>4</ele></trkpt>
      <trkpt lat="51.52201" lon="0.185474"><ele>3.75</ele></trkpt>
      <trkpt lat="51.522046" lon="0.185199"><ele>3.25</ele></trkpt>
      <trkpt lat="51.522066" lon="0.185099"><ele>3.25</ele></trkpt>
      <trkpt lat="51.522073" lon="0.185061"><ele>3.25</ele></trkpt>
      <trkpt lat="51.522083" lon="0.185014"><ele>3.25</ele></trkpt>
      <trkpt lat="51.522092" lon="0.184967"><ele>3.5</ele></trkpt>
      <trkpt lat="51.522134" lon="0.18476"><ele>3.5</ele></trkpt>
      <trkpt lat="51.522142" lon="0.184716"><ele>3.5</ele></trkpt>
      <trkpt lat="51.522144" lon="0.18471"><ele>3.5</ele></trkpt>
      <trkpt lat="51.522165" lon="0.18463"><ele>3.75</ele></trkpt>
      <trkpt lat="51.5222" lon="0.184518"><ele>3.75</ele></trkpt>
      <trkpt lat="51.522516" lon="0.182828"><ele>3.75</ele></trkpt>
      <trkpt lat="51.522529" lon="0.182763"><ele>4</ele></trkpt>
      <trkpt lat="51.52266" lon="0.18195"><ele>4.5</ele></trkpt>
      <trkpt lat="51.522748" lon="0.181498"><ele>4.75</ele></trkpt>
      <trkpt lat="51.522759" lon="0.181281"><ele>4.75</ele></trkpt>
      <trkpt lat="51.522774" lon="0.181198"><ele>4.75</ele></trkpt>
      <trkpt lat="51.522791" lon="0.181131"><ele>5</ele></trkpt>
      <trkpt lat="51.522804" lon="0.181068"><ele>5</ele></trkpt>
      <trkpt lat="51.522876" lon="0.180927"><ele>5</ele></trkpt>
      <trkpt lat="51.523048" lon="0.180277"><ele>4.75</ele></trkpt>
      <trkpt lat="51.523139" lon="0.179868"><ele>5</ele></trkpt>
      <trkpt lat="51.523219" lon="0.179515"><ele>5</ele></trkpt>
      <trkpt lat="51.523298" lon="0.179164"><ele>4.75</ele></trkpt>
      <trkpt lat="51.523364" lon="0.178868"><ele>4</ele></trkpt>
      <trkpt lat="51.523381" lon="0.178792"><ele>4</ele></trkpt>
      <trkpt lat="51.523463" lon="0.178425"><ele>4</ele></trkpt>
      <trkpt lat="51.523561" lon="0.177988"><ele>3.75</ele></trkpt>
      <trkpt lat="51.523631" lon="0.177672"><ele>3</ele></trkpt>
      <trkpt lat="51.523683" lon="0.177442"><ele>3</ele></trkpt>
      <trkpt lat="51.523758" lon="0.177103"><ele>2.75</ele></trkpt>
      <trkpt lat="51.523796" lon="0.176936"><ele>2.5</ele></trkpt>
      <trkpt lat="51.523907" lon="0.176438"><ele>2</ele></trkpt>
      <trkpt lat="51.524221" lon="0.175015"><ele>3</ele></trkpt>
      <trkpt lat="51.524473" lon="0.173855"><ele>3</ele></trkpt>
      <trkpt lat="51.524568" lon="0.173369"><ele>3.25</ele></trkpt>
      <trkpt lat="51.524851" lon="0.171978"><ele>3.5</ele></trkpt>
      <trkpt lat="51.524894" lon="0.171958"><ele>3.5</ele></trkpt>
      <trkpt lat="51.524915" lon="0.171852"><ele>3.5</ele></trkpt>
      <trkpt lat="51.524943" lon="0.171718"><ele>3.75</ele></trkpt>
      <trkpt lat="51.525035" lon="0.171217"><ele>3.25</ele></trkpt>
      <trkpt lat="51.525184" lon="0.170404"><ele>2.5</ele></trkpt>
      <trkpt lat="51.525217" lon="0.170234"><ele>2.75</ele></trkpt>
      <trkpt lat="51.525227" lon="0.170189"><ele>2.75</ele></trkpt>
      <trkpt lat="51.525239" lon="0.170132"><ele>2.75</ele></trkpt>
      <trkpt lat="51.525279" lon="0.169938"><ele>2.75</ele></trkpt>
      <trkpt lat="51.525366" lon="0.169545"><ele>3</ele></trkpt>
      <trkpt lat="51.525422" lon="0.169276"><ele>3.25</ele></trkpt>
      <trkpt lat="51.525595" lon="0.168717"><ele>3.75</ele></trkpt>
      <trkpt lat="51.52567" lon="0.168159"><ele>3.5</ele></trkpt>
      <trkpt lat="51.525807" lon="0.167518"><ele>3.75</ele></trkpt>
      <trkpt lat="51.525952" lon="0.166806"><ele>3.5</ele></trkpt>
      <trkpt lat="51.525965" lon="0.166751"><ele>3.5</ele></trkpt>
      <trkpt lat="51.525977" lon="0.166694"><ele>3.5</ele></trkpt>
      <trkpt lat="51.526055" lon="0.166318"><ele>3</ele></trkpt>
      <trkpt lat="51.526078" lon="0.166204"><ele>3</ele></trkpt>
      <trkpt lat="51.526099" lon="0.166105"><ele>2.75</ele></trkpt>
      <trkpt lat="51.526224" lon="0.165535"><ele>2</ele></trkpt>
      <trkpt lat="51.526457" lon="0.164381"><ele>1.5</ele></trkpt>
      <trkpt lat="51.526525" lon="0.164016"><ele>1.75</ele></trkpt>
      <trkpt lat="51.52656" lon="0.163835"><ele>2</ele></trkpt>
      <trkpt lat="51.526613" lon="0.163574"><ele>2</ele></trkpt>
      <trkpt lat="51.526787" lon="0.162732"><ele>2</ele></trkpt>
      <trkpt lat="51.527453" lon="0.15933"><ele>2.5</ele></trkpt>
      <trkpt lat="51.527475" lon="0.159219"><ele>2.75</ele></trkpt>
      <trkpt lat="51.527529" lon="0.158977"><ele>3</ele></trkpt>
      <trkpt lat="51.527591" lon="0.158724"><ele>3</ele></trkpt>
      <trkpt lat="51.527975" lon="0.157179"><ele>3.5</ele></trkpt>
      <trkpt lat="51.528166" lon="0.15665"><ele>3.75</ele></trkpt>
      <trkpt lat="51.528329" lon="0.156245"><ele>3.75</ele></trkpt>
      <trkpt lat="51.528654" lon="0.155625"><ele>4</ele></trkpt>
      <trkpt lat="51.52875" lon="0.155464"><ele>3.5</ele></trkpt>
      <trkpt lat="51.528815" lon="0.155361"><ele>3.25</ele></trkpt>
      <trkpt lat="51.528859" lon="0.155289"><ele>3</ele></trkpt>
      <trkpt lat="51.528964" lon="0.155121"><ele>3</ele></trkpt>
      <trkpt lat="51.529024" lon="0.155025"><ele>3</ele></trkpt>
      <trkpt lat="51.529116" lon="0.154848"><ele>3</ele></trkpt>
      <trkpt lat="51.529148" lon="0.154788"><ele>3</ele></trkpt>
      <trkpt lat="51.529242" lon="0.154614"><ele>3</ele></trkpt>
      <trkpt lat="51.529304" lon="0.15447"><ele>3</ele></trkpt>
      <trkpt lat="51.529428" lon="0.154245"><ele>2.75</ele></trkpt>
      <trkpt lat="51.529714" lon="0.15375"><ele>3.75</ele></trkpt>
      <trkpt lat="51.529862" lon="0.1534"><ele>4</ele></trkpt>
      <trkpt lat="51.529982" lon="0.15309"><ele>3.75</ele></trkpt>
      <trkpt lat="51.530654" lon="0.151215"><ele>6</ele></trkpt>
      <trkpt lat="51.53104" lon="0.150128"><ele>6</ele></trkpt>
      <trkpt lat="51.531164" lon="0.149778"><ele>6</ele></trkpt>
      <trkpt lat="51.531226" lon="0.149605"><ele>6</ele></trkpt>
      <trkpt lat="51.531197" lon="0.149579"><ele>6</ele></trkpt>
      <trkpt lat="51.531175" lon="0.149559"><ele>6</ele></trkpt>
      <trkpt lat="51.531196" lon="0.149503"><ele>6</ele></trkpt>
      <trkpt lat="51.531213" lon="0.149468"><ele>6</ele></trkpt>
      <trkpt lat="51.531252" lon="0.149385"><ele>6</ele></trkpt>
      <trkpt lat="51.531372" lon="0.149058"><ele>6</ele></trkpt>
      <trkpt lat="51.531474" lon="0.148727"><ele>6</ele></trkpt>
      <trkpt lat="51.531509" lon="0.14856"><ele>6</ele></trkpt>
      <trkpt lat="51.531524" lon="0.148419"><ele>6</ele></trkpt>
      <trkpt lat="51.531526" lon="0.148214"><ele>6</ele></trkpt>
      <trkpt lat="51.531521" lon="0.148091"><ele>6</ele></trkpt>
      <trkpt lat="51.531518" lon="0.148"><ele>5.75</ele></trkpt>
      <trkpt lat="51.53151" lon="0.147941"><ele>5.75</ele></trkpt>
      <trkpt lat="51.531476" lon="0.147848"><ele>5.25</ele></trkpt>
      <trkpt lat="51.531473" lon="0.147818"><ele>5.25</ele></trkpt>
      <trkpt lat="51.53148" lon="0.147716"><ele>5.25</ele></trkpt>
      <trkpt lat="51.531446" lon="0.147713"><ele>5</ele></trkpt>
      <trkpt lat="51.531403" lon="0.14771"><ele>5</ele></trkpt>
      <trkpt lat="51.53126" lon="0.147701"><ele>5</ele></trkpt>
      <trkpt lat="51.531147" lon="0.147694"><ele>5</ele></trkpt>
      <trkpt lat="51.530321" lon="0.147659"><ele>2.5</ele></trkpt>
      <trkpt lat="51.529809" lon="0.147706"><ele>1.25</ele></trkpt>
      <trkpt lat="51.529598" lon="0.147734"><ele>1</ele></trkpt>
      <trkpt lat="51.529582" lon="0.147649"><ele>1</ele></trkpt>
      <trkpt lat="51.52955" lon="0.147653"><ele>1</ele></trkpt>
      <trkpt lat="51.529412" lon="0.147669"><ele>1</ele></trkpt>
      <trkpt lat="51.528987" lon="0.14758"><ele>1</ele></trkpt>
      <trkpt lat="51.527489" lon="0.147212"><ele>1</ele></trkpt>
      <trkpt lat="51.527378" lon="0.147177"><ele>1</ele></trkpt>
      <trkpt lat="51.527378" lon="0.147177"><ele>1</ele></trkpt>
      <trkpt lat="51.527397" lon="0.146964"><ele>1.25</ele></trkpt>
      <trkpt lat="51.527394" lon="0.14685"><ele>1.25</ele></trkpt>
      <trkpt lat="51.527385" lon="0.146752"><ele>1.25</ele></trkpt>
      <trkpt lat="51.527328" lon="0.146534"><ele>1.5</ele></trkpt>
      <trkpt lat="51.527308" lon="0.146349"><ele>1.25</ele></trkpt>
      <trkpt lat="51.527317" lon="0.146186"><ele>1.25</ele></trkpt>
      <trkpt lat="51.527373" lon="0.145612"><ele>1.5</ele></trkpt>
      <trkpt lat="51.527413" lon="0.145486"><ele>1.5</ele></trkpt>
      <trkpt lat="51.527465" lon="0.145373"><ele>1.25</ele></trkpt>
      <trkpt lat="51.527527" lon="0.145285"><ele>1</ele></trkpt>
      <trkpt lat="51.527579" lon="0.145234"><ele>1</ele></trkpt>
      <trkpt lat="51.52772" lon="0.145188"><ele>1</ele></trkpt>
      <trkpt lat="51.527922" lon="0.145164"><ele>1</ele></trkpt>
      <trkpt lat="51.528009" lon="0.145145"><ele>1</ele></trkpt>
      <trkpt lat="51.528089" lon="0.1451"><ele>1</ele></trkpt>
      <trkpt lat="51.528153" lon="0.145046"><ele>1.25</ele></trkpt>
      <trkpt lat="51.528258" lon="0.14485"><ele>1.25</ele></trkpt>
      <trkpt lat="51.528284" lon="0.144716"><ele>1</ele></trkpt>
      <trkpt lat="51.528293" lon="0.144593"><ele>1</ele></trkpt>
      <trkpt lat="51.528288" lon="0.144228"><ele>1</ele></trkpt>
      <trkpt lat="51.528283" lon="0.144161"><ele>1</ele></trkpt>
      <trkpt lat="51.528663" lon="0.14411"><ele>1</ele></trkpt>
      <trkpt lat="51.528979" lon="0.144069"><ele>1.5</ele></trkpt>
      <trkpt lat="51.529214" lon="0.144037"><ele>2</ele></trkpt>
      <trkpt lat="51.529377" lon="0.144016"><ele>2</ele></trkpt>
      <trkpt lat="51.529545" lon="0.144017"><ele>2</ele></trkpt>
      <trkpt lat="51.529908" lon="0.14404"><ele>2</ele></trkpt>
      <trkpt lat="51.530013" lon="0.143968"><ele>2</ele></trkpt>
      <trkpt lat="51.530244" lon="0.144332"><ele>2</ele></trkpt>
      <trkpt lat="51.530388" lon="0.144453"><ele>2</ele></trkpt>
      <trkpt lat="51.530415" lon="0.144386"><ele>2</ele></trkpt>
      <trkpt lat="51.530456" lon="0.144339"><ele>2</ele></trkpt>
      <trkpt lat="51.530504" lon="0.14432"><ele>2</ele></trkpt>
      <trkpt lat="51.530554" lon="0.144332"><ele>2</ele></trkpt>
      <trkpt lat="51.530769" lon="0.144212"><ele>2.75</ele></trkpt>
      <trkpt lat="51.530858" lon="0.144131"><ele>3</ele></trkpt>
      <trkpt lat="51.531079" lon="0.143979"><ele>3</ele></trkpt>
      <trkpt lat="51.531115" lon="0.143963"><ele>2.75</ele></trkpt>
      <trkpt lat="51.531108" lon="0.143903"><ele>3</ele></trkpt>
      <trkpt lat="51.531104" lon="0.143884"><ele>2.75</ele></trkpt>
      <trkpt lat="51.531125" lon="0.143859"><ele>3</ele></trkpt>
      <trkpt lat="51.531146" lon="0.143812"><ele>3</ele></trkpt>
      <trkpt lat="51.531146" lon="0.143797"><ele>3</ele></trkpt>
      <trkpt lat="51.531159" lon="0.143797"><ele>3</ele></trkpt>
      <trkpt lat="51.531212" lon="0.143798"><ele>3</ele></trkpt>
      <trkpt lat="51.531189" lon="0.14317"><ele>3</ele></trkpt>
      <trkpt lat="51.531258" lon="0.14273"><ele>3.5</ele></trkpt>
      <trkpt lat="51.531272" lon="0.142343"><ele>4.25</ele></trkpt>
      <trkpt lat="51.531264" lon="0.141973"><ele>4.5</ele></trkpt>
      <trkpt lat="51.531266" lon="0.141836"><ele>4.5</ele></trkpt>
      <trkpt lat="51.531304" lon="0.141693"><ele>4.5</ele></trkpt>
      <trkpt lat="51.531284" lon="0.141551"><ele>4.5</ele></trkpt>
      <trkpt lat="51.53119" lon="0.141007"><ele>4.25</ele></trkpt>
      <trkpt lat="51.531077" lon="0.140483"><ele>4.75</ele></trkpt>
      <trkpt lat="51.531043" lon="0.140173"><ele>4.75</ele></trkpt>
      <trkpt lat="51.530994" lon="0.139922"><ele>4.25</ele></trkpt>
      <trkpt lat="51.530966" lon="0.139789"><ele>4</ele></trkpt>
      <trkpt lat="51.530929" lon="0.139712"><ele>3.5</ele></trkpt>
      <trkpt lat="51.530908" lon="0.139433"><ele>3.5</ele></trkpt>
      <trkpt lat="51.530909" lon="0.139379"><ele>3.75</ele></trkpt>
      <trkpt lat="51.530955" lon="0.138965"><ele>4.75</ele></trkpt>
      <trkpt lat="51.531" lon="0.138743"><ele>5.75</ele></trkpt>
      <trkpt lat="51.531244" lon="0.137965"><ele>6.5</ele></trkpt>
      <trkpt lat="51.53137" lon="0.137466"><ele>7</ele></trkpt>
      <trkpt lat="51.531448" lon="0.137097"><ele>7.5</ele></trkpt>
      <trkpt lat="51.531515" lon="0.136708"><ele>6.5</ele></trkpt>
      <trkpt lat="51.531615" lon="0.135854"><ele>6.75</ele></trkpt>
      <trkpt lat="51.531641" lon="0.135571"><ele>6.75</ele></trkpt>
      <trkpt lat="51.531645" lon="0.135201"><ele>6.75</ele></trkpt>
      <trkpt lat="51.531623" lon="0.134808"><ele>6.5</ele></trkpt>
      <trkpt lat="51.531631" lon="0.134237"><ele>6</ele></trkpt>
      <trkpt lat="51.53162" lon="0.133656"><ele>6</ele></trkpt>
      <trkpt lat="51.531567" lon="0.133061"><ele>6</ele></trkpt>
      <trkpt lat="51.531557" lon="0.132183"><ele>6</ele></trkpt>
      <trkpt lat="51.531567" lon="0.131737"><ele>6</ele></trkpt>
      <trkpt lat="51.531599" lon="0.131248"><ele>6</ele></trkpt>
      <trkpt lat="51.531792" lon="0.129575"><ele>5.75</ele></trkpt>
      <trkpt lat="51.53184" lon="0.128892"><ele>4</ele></trkpt>
      <trkpt lat="51.531851" lon="0.128548"><ele>4.75</ele></trkpt>
      <trkpt lat="51.531844" lon="0.12799"><ele>5.5</ele></trkpt>
      <trkpt lat="51.531824" lon="0.127696"><ele>6</ele></trkpt>
      <trkpt lat="51.531793" lon="0.127249"><ele>6</ele></trkpt>
      <trkpt lat="51.531725" lon="0.126441"><ele>6</ele></trkpt>
      <trkpt lat="51.531699" lon="0.126116"><ele>6</ele></trkpt>
      <trkpt lat="51.531664" lon="0.125567"><ele>5.75</ele></trkpt>
      <trkpt lat="51.531652" lon="0.124615"><ele>5</ele></trkpt>
      <trkpt lat="51.531671" lon="0.123963"><ele>5</ele></trkpt>
      <trkpt lat="51.531724" lon="0.123142"><ele>5</ele></trkpt>
      <trkpt lat="51.531828" lon="0.1223"><ele>5</ele></trkpt>
      <trkpt lat="51.532268" lon="0.119386"><ele>4</ele></trkpt>
      <trkpt lat="51.532366" lon="0.11873"><ele>4.5</ele></trkpt>
      <trkpt lat="51.532528" lon="0.11768"><ele>4</ele></trkpt>
      <trkpt lat="51.532607" lon="0.117115"><ele>5.25</ele></trkpt>
      <trkpt lat="51.532719" lon="0.116193"><ele>4.75</ele></trkpt>
      <trkpt lat="51.53275" lon="0.115892"><ele>4.75</ele></trkpt>
      <trkpt lat="51.532786" lon="0.115457"><ele>5</ele></trkpt>
      <trkpt lat="51.532799" lon="0.115229"><ele>5</ele></trkpt>
      <trkpt lat="51.532817" lon="0.114669"><ele>5</ele></trkpt>
      <trkpt lat="51.53283" lon="0.113521"><ele>5</ele></trkpt>
      <trkpt lat="51.532845" lon="0.1122"><ele>4.25</ele></trkpt>
      <trkpt lat="51.532876" lon="0.112028"><ele>4.5</ele></trkpt>
      <trkpt lat="51.5329" lon="0.111355"><ele>4.25</ele></trkpt>
      <trkpt lat="51.532939" lon="0.110519"><ele>4.5</ele></trkpt>
      <trkpt lat="51.532961" lon="0.110096"><ele>4</ele></trkpt>
      <trkpt lat="51.532968" lon="0.110025"><ele>4</ele></trkpt>
      <trkpt lat="51.532983" lon="0.109935"><ele>4</ele></trkpt>
      <trkpt lat="51.533013" lon="0.10981"><ele>4</ele></trkpt>
      <trkpt lat="51.533069" lon="0.109689"><ele>4</ele></trkpt>
      <trkpt lat="51.533155" lon="0.109667"><ele>4.25</ele></trkpt>
      <trkpt lat="51.533226" lon="0.109546"><ele>4.5</ele></trkpt>
      <trkpt lat="51.533253" lon="0.109468"><ele>4.5</ele></trkpt>
      <trkpt lat="51.533267" lon="0.109418"><ele>4.75</ele></trkpt>
      <trkpt lat="51.533286" lon="0.109306"><ele>4.75</ele></trkpt>
      <trkpt lat="51.533209" lon="0.108673"><ele>4.5</ele></trkpt>
      <trkpt lat="51.5332" lon="0.108353"><ele>4.5</ele></trkpt>
      <trkpt lat="51.533184" lon="0.108217"><ele>4.25</ele></trkpt>
      <trkpt lat="51.533177" lon="0.107967"><ele>4.25</ele></trkpt>
      <trkpt lat="51.533175" lon="0.107902"><ele>4.25</ele></trkpt>
      <trkpt lat="51.533172" lon="0.107838"><ele>4.25</ele></trkpt>
      <trkpt lat="51.533169" lon="0.107622"><ele>4.25</ele></trkpt>
      <trkpt lat="51.533168" lon="0.107543"><ele>4.25</ele></trkpt>
      <trkpt lat="51.533202" lon="0.107251"><ele>4</ele></trkpt>
      <trkpt lat="51.533233" lon="0.107089"><ele>4</ele></trkpt>
      <trkpt lat="51.533272" lon="0.106924"><ele>3.75</ele></trkpt>
      <trkpt lat="51.533352" lon="0.106586"><ele>4.25</ele></trkpt>
      <trkpt lat="51.533419" lon="0.106321"><ele>5</ele></trkpt>
      <trkpt lat="51.533516" lon="0.105998"><ele>5</ele></trkpt>
      <trkpt lat="51.5336" lon="0.105767"><ele>5</ele></trkpt>
      <trkpt lat="51.533685" lon="0.105579"><ele>5.25</ele></trkpt>
      <trkpt lat="51.533863" lon="0.105256"><ele>6</ele></trkpt>
      <trkpt lat="51.534302" lon="0.104627"><ele>6</ele></trkpt>
      <trkpt lat="51.534666" lon="0.104164"><ele>5</ele></trkpt>
      <trkpt lat="51.534919" lon="0.103883"><ele>4.75</ele></trkpt>
      <trkpt lat="51.535074" lon="0.103698"><ele>4.25</ele></trkpt>
      <trkpt lat="51.535125" lon="0.103634"><ele>4</ele></trkpt>
      <trkpt lat="51.535288" lon="0.10344"><ele>3.25</ele></trkpt>
      <trkpt lat="51.535333" lon="0.103376"><ele>3.25</ele></trkpt>
      <trkpt lat="51.535427" lon="0.103193"><ele>3.25</ele></trkpt>
      <trkpt lat="51.535551" lon="0.102899"><ele>2.75</ele></trkpt>
      <trkpt lat="51.53556" lon="0.102754"><ele>3</ele></trkpt>
      <trkpt lat="51.535585" lon="0.102642"><ele>3</ele></trkpt>
      <trkpt lat="51.535599" lon="0.102586"><ele>3</ele></trkpt>
      <trkpt lat="51.535632" lon="0.102378"><ele>3.5</ele></trkpt>
      <trkpt lat="51.535649" lon="0.102183"><ele>4</ele></trkpt>
      <trkpt lat="51.535649" lon="0.102131"><ele>4</ele></trkpt>
      <trkpt lat="51.535651" lon="0.102057"><ele>4</ele></trkpt>
      <trkpt lat="51.535675" lon="0.101931"><ele>4</ele></trkpt>
      <trkpt lat="51.535669" lon="0.100808"><ele>6.25</ele></trkpt>
      <trkpt lat="51.535676" lon="0.100451"><ele>7</ele></trkpt>
      <trkpt lat="51.535705" lon="0.100149"><ele>7</ele></trkpt>
      <trkpt lat="51.535789" lon="0.099438"><ele>6.75</ele></trkpt>
      <trkpt lat="51.535803" lon="0.099163"><ele>6.75</ele></trkpt>
      <trkpt lat="51.535806" lon="0.099096"><ele>6.75</ele></trkpt>
      <trkpt lat="51.535805" lon="0.099031"><ele>6.75</ele></trkpt>
      <trkpt lat="51.535804" lon="0.098608"><ele>6.75</ele></trkpt>
      <trkpt lat="51.535798" lon="0.098399"><ele>6</ele></trkpt>
      <trkpt lat="51.535777" lon="0.098101"><ele>6.75</ele></trkpt>
      <trkpt lat="51.535626" lon="0.096664"><ele>5.25</ele></trkpt>
      <trkpt lat="51.535604" lon="0.096403"><ele>5</ele></trkpt>
      <trkpt lat="51.53559" lon="0.096063"><ele>4</ele></trkpt>
      <trkpt lat="51.535589" lon="0.095719"><ele>3.5</ele></trkpt>
      <trkpt lat="51.535602" lon="0.095024"><ele>2</ele></trkpt>
      <trkpt lat="51.535605" lon="0.094815"><ele>2</ele></trkpt>
      <trkpt lat="51.535585" lon="0.094378"><ele>2</ele></trkpt>
      <trkpt lat="51.535581" lon="0.094315"><ele>2</ele></trkpt>
      <trkpt lat="51.535576" lon="0.09423"><ele>2</ele></trkpt>
      <trkpt lat="51.535534" lon="0.093482"><ele>2</ele></trkpt>
      <trkpt lat="51.535502" lon="0.093062"><ele>2</ele></trkpt>
      <trkpt lat="51.535553" lon="0.092978"><ele>2.25</ele></trkpt>
      <trkpt lat="51.535571" lon="0.092918"><ele>2.25</ele></trkpt>
      <trkpt lat="51.53557" lon="0.092773"><ele>3</ele></trkpt>
      <trkpt lat="51.535508" lon="0.091606"><ele>3</ele></trkpt>
      <trkpt lat="51.535483" lon="0.091305"><ele>3</ele></trkpt>
      <trkpt lat="51.535469" lon="0.091136"><ele>3</ele></trkpt>
      <trkpt lat="51.535452" lon="0.090933"><ele>3</ele></trkpt>
      <trkpt lat="51.535316" lon="0.090029"><ele>4</ele></trkpt>
      <trkpt lat="51.535307" lon="0.089853"><ele>4</ele></trkpt>
      <trkpt lat="51.535335" lon="0.089828"><ele>4</ele></trkpt>
      <trkpt lat="51.535355" lon="0.089809"><ele>4.25</ele></trkpt>
      <trkpt lat="51.53538" lon="0.089786"><ele>4.25</ele></trkpt>
      <trkpt lat="51.535418" lon="0.089708"><ele>4.5</ele></trkpt>
      <trkpt lat="51.536774" lon="0.086962"><ele>7.25</ele></trkpt>
      <trkpt lat="51.537068" lon="0.086385"><ele>8</ele></trkpt>
      <trkpt lat="51.537278" lon="0.085938"><ele>7.25</ele></trkpt>
      <trkpt lat="51.537414" lon="0.086206"><ele>7.25</ele></trkpt>
      <trkpt lat="51.537469" lon="0.086225"><ele>7</ele></trkpt>
      <trkpt lat="51.537462" lon="0.086276"><ele>6.75</ele></trkpt>
      <trkpt lat="51.53746" lon="0.086294"><ele>6.75</ele></trkpt>
      <trkpt lat="51.537864" lon="0.086408"><ele>6</ele></trkpt>
      <trkpt lat="51.537867" lon="0.086388"><ele>6</ele></trkpt>
      <trkpt lat="51.537881" lon="0.086279"><ele>6</ele></trkpt>
      <trkpt lat="51.537934" lon="0.086361"><ele>6.5</ele></trkpt>
      <trkpt lat="51.538001" lon="0.086291"><ele>6.5</ele></trkpt>
      <trkpt lat="51.537967" lon="0.086137"><ele>6.25</ele></trkpt>
      <trkpt lat="51.537968" lon="0.086033"><ele>6.25</ele></trkpt>
      <trkpt lat="51.537986" lon="0.085929"><ele>6.5</ele></trkpt>
      <trkpt lat="51.538053" lon="0.085628"><ele>6.75</ele></trkpt>
      <trkpt lat="51.538174" lon="0.08508"><ele>7.25</ele></trkpt>
      <trkpt lat="51.538272" lon="0.084638"><ele>7.75</ele></trkpt>
      <trkpt lat="51.538424" lon="0.084178"><ele>7.25</ele></trkpt>
      <trkpt lat="51.538508" lon="0.083978"><ele>7.5</ele></trkpt>
      <trkpt lat="51.538623" lon="0.083798"><ele>8</ele></trkpt>
      <trkpt lat="51.538809" lon="0.083455"><ele>7.75</ele></trkpt>
      <trkpt lat="51.538988" lon="0.083121"><ele>8</ele></trkpt>
      <trkpt lat="51.539194" lon="0.082738"><ele>8</ele></trkpt>
      <trkpt lat="51.539282" lon="0.082553"><ele>8.25</ele></trkpt>
      <trkpt lat="51.539512" lon="0.082084"><ele>9.25</ele></trkpt>
      <trkpt lat="51.539606" lon="0.081893"><ele>9.5</ele></trkpt>
      <trkpt lat="51.539588" lon="0.081868"><ele>9.25</ele></trkpt>
      <trkpt lat="51.539578" lon="0.081837"><ele>9</ele></trkpt>
      <trkpt lat="51.539543" lon="0.081775"><ele>8.5</ele></trkpt>
      <trkpt lat="51.539559" lon="0.081743"><ele>8.75</ele></trkpt>
      <trkpt lat="51.539581" lon="0.081697"><ele>9</ele></trkpt>
      <trkpt lat="51.539605" lon="0.081648"><ele>9</ele></trkpt>
      <trkpt lat="51.539638" lon="0.08157"><ele>9</ele></trkpt>
      <trkpt lat="51.53935" lon="0.081196"><ele>9.75</ele></trkpt>
    </trkseg>
  </trk>
</gpx>
