<?xml version="1.0" encoding="UTF-8"?>
<gpx version="1.1" creator="Line Runners route generator" xmlns="http://www.topografix.com/GPX/1/1">
  <metadata>
    <name>DLR — Line Runners</name>
    <desc>Above-ground running route tracing the DLR line, station to station. Routed on pavements and footways from OpenStreetMap data (BRouter, shortest).</desc>
    <author><name>Line Runners</name></author>
    <copyright author="OpenStreetMap contributors"><license>https://opendatacommons.org/licenses/odbl/1-0/</license></copyright>
    <link href="https://www.openstreetmap.org/copyright"><text>© OpenStreetMap contributors</text></link>
    <time>2026-07-14T16:18:03.855Z</time>
  </metadata>
  <wpt lat="51.46467" lon="-0.01287"><name>Lewisham</name></wpt>
  <wpt lat="51.46907" lon="-0.01673"><name>Elverson Road</name></wpt>
  <wpt lat="51.47422" lon="-0.02244"><name>Deptford Bridge</name></wpt>
  <wpt lat="51.47809" lon="-0.01367"><name>Greenwich</name></wpt>
  <wpt lat="51.48167" lon="-0.01081"><name>Cutty Sark</name></wpt>
  <wpt lat="51.48781" lon="-0.01014"><name>Island Gardens</name></wpt>
  <wpt lat="51.4907" lon="-0.01474"><name>Mudchute</name></wpt>
  <wpt lat="51.49573" lon="-0.01461"><name>Crossharbour</name></wpt>
  <wpt lat="51.50005" lon="-0.01613"><name>South Quay</name></wpt>
  <wpt lat="51.50338" lon="-0.02142"><name>Heron Quays</name></wpt>
  <wpt lat="51.50484" lon="-0.021"><name>Canary Wharf</name></wpt>
  <wpt lat="51.50703" lon="-0.02031"><name>West India Quay</name></wpt>
  <wpt lat="51.50774" lon="-0.01738"><name>Poplar</name></wpt>
  <wpt lat="51.511" lon="-0.01313"><name>All Saints</name></wpt>
  <wpt lat="51.51517" lon="-0.01415"><name>Langdon Park</name></wpt>
  <wpt lat="51.52267" lon="-0.01761"><name>Devons Road</name></wpt>
  <wpt lat="51.52786" lon="-0.02094"><name>Bow Church</name></wpt>
  <wpt lat="51.5343" lon="-0.01275"><name>Pudding Mill Lane</name></wpt>
  <wpt lat="51.54176" lon="-0.00329"><name>Stratford</name></wpt>
  <wpt lat="51.54527" lon="-0.00964"><name>Stratford International</name></wpt>
  <trk>
    <name>DLR — Line Runners</name>
    <trkseg>
      <trkpt lat="51.464651" lon="-0.012881"><ele>7.75</ele></trkpt>
      <trkpt lat="51.464658" lon="-0.012907"><ele>7.75</ele></trkpt>
      <trkpt lat="51.464653" lon="-0.012928"><ele>7.75</ele></trkpt>
      <trkpt lat="51.464639" lon="-0.012972"><ele>7.75</ele></trkpt>
      <trkpt lat="51.464626" lon="-0.013016"><ele>7.5</ele></trkpt>
      <trkpt lat="51.46462" lon="-0.013035"><ele>7.5</ele></trkpt>
      <trkpt lat="51.464611" lon="-0.013061"><ele>7.5</ele></trkpt>
      <trkpt lat="51.464607" lon="-0.013103"><ele>7.75</ele></trkpt>
      <trkpt lat="51.464621" lon="-0.013304"><ele>9.25</ele></trkpt>
      <trkpt lat="51.464635" lon="-0.013425"><ele>8.75</ele></trkpt>
      <trkpt lat="51.464642" lon="-0.01362"><ele>7</ele></trkpt>
      <trkpt lat="51.464633" lon="-0.013832"><ele>7</ele></trkpt>
      <trkpt lat="51.464623" lon="-0.014387"><ele>7</ele></trkpt>
      <trkpt lat="51.464653" lon="-0.014451"><ele>7</ele></trkpt>
      <trkpt lat="51.464653" lon="-0.014469"><ele>7</ele></trkpt>
      <trkpt lat="51.464654" lon="-0.014527"><ele>7</ele></trkpt>
      <trkpt lat="51.464683" lon="-0.014526"><ele>7</ele></trkpt>
      <trkpt lat="51.464728" lon="-0.014527"><ele>6.75</ele></trkpt>
      <trkpt lat="51.465048" lon="-0.014546"><ele>5.75</ele></trkpt>
      <trkpt lat="51.465178" lon="-0.014548"><ele>6</ele></trkpt>
      <trkpt lat="51.465216" lon="-0.014557"><ele>6</ele></trkpt>
      <trkpt lat="51.465277" lon="-0.014587"><ele>6</ele></trkpt>
      <trkpt lat="51.465325" lon="-0.014629"><ele>6</ele></trkpt>
      <trkpt lat="51.4654" lon="-0.014717"><ele>6</ele></trkpt>
      <trkpt lat="51.465465" lon="-0.014813"><ele>6</ele></trkpt>
      <trkpt lat="51.46558" lon="-0.015021"><ele>6</ele></trkpt>
      <trkpt lat="51.465674" lon="-0.015214"><ele>6</ele></trkpt>
      <trkpt lat="51.465711" lon="-0.015319"><ele>6</ele></trkpt>
      <trkpt lat="51.465776" lon="-0.015463"><ele>6</ele></trkpt>
      <trkpt lat="51.465792" lon="-0.015447"><ele>6</ele></trkpt>
      <trkpt lat="51.465804" lon="-0.015438"><ele>6</ele></trkpt>
      <trkpt lat="51.465816" lon="-0.015469"><ele>6</ele></trkpt>
      <trkpt lat="51.465882" lon="-0.015656"><ele>6.25</ele></trkpt>
      <trkpt lat="51.465907" lon="-0.015728"><ele>6.25</ele></trkpt>
      <trkpt lat="51.465932" lon="-0.015796"><ele>6</ele></trkpt>
      <trkpt lat="51.465939" lon="-0.015816"><ele>6</ele></trkpt>
      <trkpt lat="51.465955" lon="-0.015857"><ele>6</ele></trkpt>
      <trkpt lat="51.466225" lon="-0.015769"><ele>8.25</ele></trkpt>
      <trkpt lat="51.466285" lon="-0.015728"><ele>9</ele></trkpt>
      <trkpt lat="51.466337" lon="-0.015691"><ele>9.5</ele></trkpt>
      <trkpt lat="51.466392" lon="-0.015652"><ele>9.5</ele></trkpt>
      <trkpt lat="51.466428" lon="-0.015627"><ele>9</ele></trkpt>
      <trkpt lat="51.466463" lon="-0.015605"><ele>8.25</ele></trkpt>
      <trkpt lat="51.466511" lon="-0.015621"><ele>7.75</ele></trkpt>
      <trkpt lat="51.466535" lon="-0.015592"><ele>7.5</ele></trkpt>
      <trkpt lat="51.466552" lon="-0.015599"><ele>7.25</ele></trkpt>
      <trkpt lat="51.466768" lon="-0.015378"><ele>6</ele></trkpt>
      <trkpt lat="51.466777" lon="-0.01532"><ele>6</ele></trkpt>
      <trkpt lat="51.466787" lon="-0.015244"><ele>6</ele></trkpt>
      <trkpt lat="51.466981" lon="-0.015049"><ele>6</ele></trkpt>
      <trkpt lat="51.467001" lon="-0.01502"><ele>6</ele></trkpt>
      <trkpt lat="51.467238" lon="-0.015393"><ele>5.25</ele></trkpt>
      <trkpt lat="51.467451" lon="-0.015693"><ele>5</ele></trkpt>
      <trkpt lat="51.46761" lon="-0.015813"><ele>5</ele></trkpt>
      <trkpt lat="51.467878" lon="-0.015988"><ele>5.75</ele></trkpt>
      <trkpt lat="51.467963" lon="-0.016042"><ele>6.25</ele></trkpt>
      <trkpt lat="51.46821" lon="-0.016249"><ele>6.5</ele></trkpt>
      <trkpt lat="51.468294" lon="-0.016347"><ele>6.75</ele></trkpt>
      <trkpt lat="51.468316" lon="-0.016389"><ele>7</ele></trkpt>
      <trkpt lat="51.46832" lon="-0.016398"><ele>7</ele></trkpt>
      <trkpt lat="51.468345" lon="-0.016441"><ele>6.75</ele></trkpt>
      <trkpt lat="51.468368" lon="-0.016418"><ele>7</ele></trkpt>
      <trkpt lat="51.468391" lon="-0.016394"><ele>7</ele></trkpt>
      <trkpt lat="51.468415" lon="-0.016365"><ele>6.75</ele></trkpt>
      <trkpt lat="51.468438" lon="-0.016301"><ele>6.75</ele></trkpt>
      <trkpt lat="51.468445" lon="-0.016283"><ele>6.75</ele></trkpt>
      <trkpt lat="51.468608" lon="-0.016423"><ele>7</ele></trkpt>
      <trkpt lat="51.468793" lon="-0.016638"><ele>7</ele></trkpt>
      <trkpt lat="51.468883" lon="-0.016718"><ele>6.75</ele></trkpt>
      <trkpt lat="51.46892" lon="-0.016739"><ele>6.5</ele></trkpt>
      <trkpt lat="51.468938" lon="-0.016677"><ele>6.75</ele></trkpt>
      <trkpt lat="51.469024" lon="-0.016728"><ele>6.25</ele></trkpt>
      <trkpt lat="51.46905" lon="-0.016758"><ele>6.25</ele></trkpt>
      <trkpt lat="51.469054" lon="-0.016764"><ele>6</ele></trkpt>
      <trkpt lat="51.469066" lon="-0.016777"><ele>6</ele></trkpt>
      <trkpt lat="51.469091" lon="-0.016809"><ele>6</ele></trkpt>
      <trkpt lat="51.469107" lon="-0.016829"><ele>6</ele></trkpt>
      <trkpt lat="51.469185" lon="-0.016687"><ele>6</ele></trkpt>
      <trkpt lat="51.469163" lon="-0.016662"><ele>6</ele></trkpt>
      <trkpt lat="51.469135" lon="-0.016627"><ele>6</ele></trkpt>
      <trkpt lat="51.469125" lon="-0.016616"><ele>6.25</ele></trkpt>
      <trkpt lat="51.469094" lon="-0.016581"><ele>6.25</ele></trkpt>
      <trkpt lat="51.469079" lon="-0.016561"><ele>6.5</ele></trkpt>
      <trkpt lat="51.469084" lon="-0.016528"><ele>6.5</ele></trkpt>
      <trkpt lat="51.46909" lon="-0.016485"><ele>6.5</ele></trkpt>
      <trkpt lat="51.469097" lon="-0.016451"><ele>6.75</ele></trkpt>
      <trkpt lat="51.469146" lon="-0.016478"><ele>6.5</ele></trkpt>
      <trkpt lat="51.46927" lon="-0.016548"><ele>6.5</ele></trkpt>
      <trkpt lat="51.469446" lon="-0.01666"><ele>6.75</ele></trkpt>
      <trkpt lat="51.469571" lon="-0.016735"><ele>6.25</ele></trkpt>
      <trkpt lat="51.469701" lon="-0.016813"><ele>6</ele></trkpt>
      <trkpt lat="51.470156" lon="-0.017088"><ele>6</ele></trkpt>
      <trkpt lat="51.470366" lon="-0.017215"><ele>6</ele></trkpt>
      <trkpt lat="51.470408" lon="-0.01724"><ele>5.75</ele></trkpt>
      <trkpt lat="51.470663" lon="-0.017381"><ele>5.75</ele></trkpt>
      <trkpt lat="51.470917" lon="-0.017526"><ele>5</ele></trkpt>
      <trkpt lat="51.471156" lon="-0.017662"><ele>5</ele></trkpt>
      <trkpt lat="51.471354" lon="-0.017777"><ele>5</ele></trkpt>
      <trkpt lat="51.471482" lon="-0.01785"><ele>5</ele></trkpt>
      <trkpt lat="51.471596" lon="-0.017909"><ele>5</ele></trkpt>
      <trkpt lat="51.471658" lon="-0.017906"><ele>5</ele></trkpt>
      <trkpt lat="51.471683" lon="-0.017881"><ele>5</ele></trkpt>
      <trkpt lat="51.471704" lon="-0.017837"><ele>5</ele></trkpt>
      <trkpt lat="51.471742" lon="-0.017713"><ele>5.5</ele></trkpt>
      <trkpt lat="51.471783" lon="-0.017734"><ele>5.5</ele></trkpt>
      <trkpt lat="51.471799" lon="-0.017742"><ele>5.5</ele></trkpt>
      <trkpt lat="51.471829" lon="-0.017741"><ele>5.75</ele></trkpt>
      <trkpt lat="51.472269" lon="-0.017717"><ele>6.5</ele></trkpt>
      <trkpt lat="51.472483" lon="-0.017681"><ele>7.25</ele></trkpt>
      <trkpt lat="51.473076" lon="-0.01785"><ele>8.25</ele></trkpt>
      <trkpt lat="51.473106" lon="-0.017858"><ele>8</ele></trkpt>
      <trkpt lat="51.473117" lon="-0.017861"><ele>8</ele></trkpt>
      <trkpt lat="51.47316" lon="-0.018311"><ele>7.25</ele></trkpt>
      <trkpt lat="51.473281" lon="-0.018788"><ele>7.5</ele></trkpt>
      <trkpt lat="51.473363" lon="-0.019054"><ele>7.25</ele></trkpt>
      <trkpt lat="51.473389" lon="-0.019132"><ele>7</ele></trkpt>
      <trkpt lat="51.473418" lon="-0.019219"><ele>7</ele></trkpt>
      <trkpt lat="51.473522" lon="-0.019508"><ele>6.75</ele></trkpt>
      <trkpt lat="51.473724" lon="-0.020043"><ele>5.75</ele></trkpt>
      <trkpt lat="51.47379" lon="-0.020211"><ele>5.5</ele></trkpt>
      <trkpt lat="51.473871" lon="-0.020418"><ele>5.75</ele></trkpt>
      <trkpt lat="51.473892" lon="-0.020474"><ele>6</ele></trkpt>
      <trkpt lat="51.473916" lon="-0.020538"><ele>6</ele></trkpt>
      <trkpt lat="51.47414" lon="-0.021132"><ele>5.75</ele></trkpt>
      <trkpt lat="51.474173" lon="-0.02122"><ele>5.75</ele></trkpt>
      <trkpt lat="51.474231" lon="-0.021363"><ele>6</ele></trkpt>
      <trkpt lat="51.474304" lon="-0.021233"><ele>6</ele></trkpt>
      <trkpt lat="51.474393" lon="-0.021087"><ele>6</ele></trkpt>
      <trkpt lat="51.474415" lon="-0.021053"><ele>6</ele></trkpt>
      <trkpt lat="51.474445" lon="-0.021012"><ele>5.75</ele></trkpt>
      <trkpt lat="51.474511" lon="-0.020916"><ele>5.75</ele></trkpt>
      <trkpt lat="51.474645" lon="-0.020734"><ele>5.5</ele></trkpt>
      <trkpt lat="51.474742" lon="-0.020598"><ele>5.75</ele></trkpt>
      <trkpt lat="51.474838" lon="-0.020465"><ele>5.75</ele></trkpt>
      <trkpt lat="51.47505" lon="-0.02017"><ele>5.5</ele></trkpt>
      <trkpt lat="51.475086" lon="-0.020118"><ele>5.25</ele></trkpt>
      <trkpt lat="51.475381" lon="-0.019686"><ele>5</ele></trkpt>
      <trkpt lat="51.475626" lon="-0.019312"><ele>5</ele></trkpt>
      <trkpt lat="51.475673" lon="-0.019233"><ele>5</ele></trkpt>
      <trkpt lat="51.475826" lon="-0.01896"><ele>5</ele></trkpt>
      <trkpt lat="51.4759" lon="-0.018798"><ele>4.75</ele></trkpt>
      <trkpt lat="51.475954" lon="-0.018662"><ele>5</ele></trkpt>
      <trkpt lat="51.476005" lon="-0.018715"><ele>5</ele></trkpt>
      <trkpt lat="51.476325" lon="-0.017899"><ele>5</ele></trkpt>
      <trkpt lat="51.476421" lon="-0.017684"><ele>5</ele></trkpt>
      <trkpt lat="51.476496" lon="-0.017517"><ele>5.25</ele></trkpt>
      <trkpt lat="51.476717" lon="-0.016994"><ele>5.5</ele></trkpt>
      <trkpt lat="51.476744" lon="-0.016972"><ele>5.5</ele></trkpt>
      <trkpt lat="51.476746" lon="-0.016944"><ele>5.5</ele></trkpt>
      <trkpt lat="51.476766" lon="-0.016896"><ele>5.5</ele></trkpt>
      <trkpt lat="51.476785" lon="-0.016848"><ele>5.5</ele></trkpt>
      <trkpt lat="51.476794" lon="-0.016826"><ele>5.5</ele></trkpt>
      <trkpt lat="51.476795" lon="-0.016801"><ele>5.5</ele></trkpt>
      <trkpt lat="51.476898" lon="-0.016511"><ele>5</ele></trkpt>
      <trkpt lat="51.477044" lon="-0.015977"><ele>5.5</ele></trkpt>
      <trkpt lat="51.477178" lon="-0.015509"><ele>6</ele></trkpt>
      <trkpt lat="51.477194" lon="-0.015454"><ele>6</ele></trkpt>
      <trkpt lat="51.477211" lon="-0.015391"><ele>6</ele></trkpt>
      <trkpt lat="51.477285" lon="-0.015124"><ele>5.75</ele></trkpt>
      <trkpt lat="51.477302" lon="-0.015101"><ele>5.75</ele></trkpt>
      <trkpt lat="51.477305" lon="-0.015073"><ele>5.75</ele></trkpt>
      <trkpt lat="51.477336" lon="-0.014966"><ele>6</ele></trkpt>
      <trkpt lat="51.477354" lon="-0.014903"><ele>6</ele></trkpt>
      <trkpt lat="51.477363" lon="-0.014895"><ele>6</ele></trkpt>
      <trkpt lat="51.477362" lon="-0.01487"><ele>6</ele></trkpt>
      <trkpt lat="51.477389" lon="-0.01477"><ele>6.25</ele></trkpt>
      <trkpt lat="51.477396" lon="-0.014744"><ele>6.25</ele></trkpt>
      <trkpt lat="51.477405" lon="-0.014712"><ele>6.25</ele></trkpt>
      <trkpt lat="51.477417" lon="-0.01467"><ele>6.25</ele></trkpt>
      <trkpt lat="51.477425" lon="-0.014639"><ele>6.25</ele></trkpt>
      <trkpt lat="51.47748" lon="-0.014449"><ele>6.75</ele></trkpt>
      <trkpt lat="51.477486" lon="-0.014426"><ele>7</ele></trkpt>
      <trkpt lat="51.477495" lon="-0.014395"><ele>7</ele></trkpt>
      <trkpt lat="51.477555" lon="-0.014184"><ele>6.75</ele></trkpt>
      <trkpt lat="51.477566" lon="-0.014143"><ele>6.75</ele></trkpt>
      <trkpt lat="51.477581" lon="-0.014087"><ele>6.75</ele></trkpt>
      <trkpt lat="51.477707" lon="-0.013553"><ele>7</ele></trkpt>
      <trkpt lat="51.47775" lon="-0.013576"><ele>7</ele></trkpt>
      <trkpt lat="51.477796" lon="-0.013596"><ele>7</ele></trkpt>
      <trkpt lat="51.477837" lon="-0.013575"><ele>7</ele></trkpt>
      <trkpt lat="51.477893" lon="-0.013531"><ele>7</ele></trkpt>
      <trkpt lat="51.47798" lon="-0.013425"><ele>7.25</ele></trkpt>
      <trkpt lat="51.478125" lon="-0.013504"><ele>7</ele></trkpt>
      <trkpt lat="51.478198" lon="-0.01354"><ele>6.5</ele></trkpt>
      <trkpt lat="51.478194" lon="-0.013583"><ele>6.5</ele></trkpt>
      <trkpt lat="51.478183" lon="-0.013694"><ele>4.75</ele></trkpt>
      <trkpt lat="51.478194" lon="-0.013583"><ele>6.5</ele></trkpt>
      <trkpt lat="51.478198" lon="-0.01354"><ele>6.5</ele></trkpt>
      <trkpt lat="51.478234" lon="-0.01332"><ele>7.25</ele></trkpt>
      <trkpt lat="51.478169" lon="-0.013287"><ele>7.5</ele></trkpt>
      <trkpt lat="51.478048" lon="-0.013223"><ele>7.75</ele></trkpt>
      <trkpt lat="51.478025" lon="-0.013211"><ele>7.75</ele></trkpt>
      <trkpt lat="51.478033" lon="-0.01317"><ele>7.75</ele></trkpt>
      <trkpt lat="51.478035" lon="-0.013092"><ele>7.75</ele></trkpt>
      <trkpt lat="51.478029" lon="-0.013019"><ele>8</ele></trkpt>
      <trkpt lat="51.478002" lon="-0.012951"><ele>8</ele></trkpt>
      <trkpt lat="51.477969" lon="-0.01291"><ele>8</ele></trkpt>
      <trkpt lat="51.477898" lon="-0.012867"><ele>8</ele></trkpt>
      <trkpt lat="51.477879" lon="-0.012841"><ele>8</ele></trkpt>
      <trkpt lat="51.477875" lon="-0.012811"><ele>8</ele></trkpt>
      <trkpt lat="51.477903" lon="-0.012681"><ele>8</ele></trkpt>
      <trkpt lat="51.477974" lon="-0.01235"><ele>8</ele></trkpt>
      <trkpt lat="51.477986" lon="-0.012311"><ele>8</ele></trkpt>
      <trkpt lat="51.477998" lon="-0.01227"><ele>8</ele></trkpt>
      <trkpt lat="51.478077" lon="-0.012073"><ele>8.25</ele></trkpt>
      <trkpt lat="51.478348" lon="-0.011534"><ele>8.75</ele></trkpt>
      <trkpt lat="51.478523" lon="-0.011229"><ele>8</ele></trkpt>
      <trkpt lat="51.478573" lon="-0.011142"><ele>8</ele></trkpt>
      <trkpt lat="51.478701" lon="-0.010926"><ele>8</ele></trkpt>
      <trkpt lat="51.478817" lon="-0.010732"><ele>7.5</ele></trkpt>
      <trkpt lat="51.478926" lon="-0.01058"><ele>7</ele></trkpt>
      <trkpt lat="51.478946" lon="-0.010552"><ele>7</ele></trkpt>
      <trkpt lat="51.478964" lon="-0.010527"><ele>7</ele></trkpt>
      <trkpt lat="51.478972" lon="-0.010518"><ele>7</ele></trkpt>
      <trkpt lat="51.479098" lon="-0.010372"><ele>7</ele></trkpt>
      <trkpt lat="51.479244" lon="-0.010244"><ele>7</ele></trkpt>
      <trkpt lat="51.479788" lon="-0.009802"><ele>6.75</ele></trkpt>
      <trkpt lat="51.479853" lon="-0.009748"><ele>6.75</ele></trkpt>
      <trkpt lat="51.479889" lon="-0.009732"><ele>6.75</ele></trkpt>
      <trkpt lat="51.479922" lon="-0.009735"><ele>6.75</ele></trkpt>
      <trkpt lat="51.479985" lon="-0.00968"><ele>7</ele></trkpt>
      <trkpt lat="51.480038" lon="-0.009641"><ele>6.75</ele></trkpt>
      <trkpt lat="51.480044" lon="-0.00961"><ele>6.75</ele></trkpt>
      <trkpt lat="51.48006" lon="-0.009589"><ele>6.75</ele></trkpt>
      <trkpt lat="51.480277" lon="-0.00936"><ele>7</ele></trkpt>
      <trkpt lat="51.480333" lon="-0.00932"><ele>6.75</ele></trkpt>
      <trkpt lat="51.480365" lon="-0.009308"><ele>6.5</ele></trkpt>
      <trkpt lat="51.480453" lon="-0.009304"><ele>6.25</ele></trkpt>
      <trkpt lat="51.480586" lon="-0.009332"><ele>6</ele></trkpt>
      <trkpt lat="51.480646" lon="-0.009374"><ele>6</ele></trkpt>
      <trkpt lat="51.480719" lon="-0.009461"><ele>6</ele></trkpt>
      <trkpt lat="51.480742" lon="-0.0095"><ele>6</ele></trkpt>
      <trkpt lat="51.480766" lon="-0.009544"><ele>6</ele></trkpt>
      <trkpt lat="51.480805" lon="-0.009609"><ele>6</ele></trkpt>
      <trkpt lat="51.480871" lon="-0.00968"><ele>5.75</ele></trkpt>
      <trkpt lat="51.48128" lon="-0.010072"><ele>4.75</ele></trkpt>
      <trkpt lat="51.481332" lon="-0.010136"><ele>4.75</ele></trkpt>
      <trkpt lat="51.481342" lon="-0.010124"><ele>4.75</ele></trkpt>
      <trkpt lat="51.481365" lon="-0.010095"><ele>4.75</ele></trkpt>
      <trkpt lat="51.48139" lon="-0.010065"><ele>5</ele></trkpt>
      <trkpt lat="51.481414" lon="-0.010078"><ele>5</ele></trkpt>
      <trkpt lat="51.481452" lon="-0.0101"><ele>5</ele></trkpt>
      <trkpt lat="51.481474" lon="-0.010116"><ele>5</ele></trkpt>
      <trkpt lat="51.481501" lon="-0.010135"><ele>5</ele></trkpt>
      <trkpt lat="51.481511" lon="-0.010151"><ele>5</ele></trkpt>
      <trkpt lat="51.481495" lon="-0.010168"><ele>5</ele></trkpt>
      <trkpt lat="51.481487" lon="-0.010195"><ele>5</ele></trkpt>
      <trkpt lat="51.48149" lon="-0.010689"><ele>4.5</ele></trkpt>
      <trkpt lat="51.481495" lon="-0.010689"><ele>4.5</ele></trkpt>
      <trkpt lat="51.481552" lon="-0.010697"><ele>4.25</ele></trkpt>
      <trkpt lat="51.481581" lon="-0.010701"><ele>4.25</ele></trkpt>
      <trkpt lat="51.481598" lon="-0.010705"><ele>4.25</ele></trkpt>
      <trkpt lat="51.481623" lon="-0.010782"><ele>4</ele></trkpt>
      <trkpt lat="51.481639" lon="-0.01083"><ele>4</ele></trkpt>
      <trkpt lat="51.481657" lon="-0.010795"><ele>4.25</ele></trkpt>
      <trkpt lat="51.481694" lon="-0.010724"><ele>4.25</ele></trkpt>
      <trkpt lat="51.481747" lon="-0.010572"><ele>4.5</ele></trkpt>
      <trkpt lat="51.481764" lon="-0.010498"><ele>4.5</ele></trkpt>
      <trkpt lat="51.481783" lon="-0.010355"><ele>4.5</ele></trkpt>
      <trkpt lat="51.481774" lon="-0.010211"><ele>4.5</ele></trkpt>
      <trkpt lat="51.481771" lon="-0.010167"><ele>4.75</ele></trkpt>
      <trkpt lat="51.481818" lon="-0.010155"><ele>4.5</ele></trkpt>
      <trkpt lat="51.482064" lon="-0.010104"><ele>4.5</ele></trkpt>
      <trkpt lat="51.482096" lon="-0.010106"><ele>4.5</ele></trkpt>
      <trkpt lat="51.482119" lon="-0.0101"><ele>4.5</ele></trkpt>
      <trkpt lat="51.482143" lon="-0.010094"><ele>4.5</ele></trkpt>
      <trkpt lat="51.482425" lon="-0.01001"><ele>4.75</ele></trkpt>
      <trkpt lat="51.482537" lon="-0.010007"><ele>5</ele></trkpt>
      <trkpt lat="51.482825" lon="-0.01006"><ele>5.5</ele></trkpt>
      <trkpt lat="51.483165" lon="-0.010149"><ele>5.25</ele></trkpt>
      <trkpt lat="51.483187" lon="-0.010101"><ele>5</ele></trkpt>
      <trkpt lat="51.483234" lon="-0.010131"><ele>5</ele></trkpt>
      <trkpt lat="51.483255" lon="-0.010144"><ele>5</ele></trkpt>
      <trkpt lat="51.483275" lon="-0.010109"><ele>5</ele></trkpt>
      <trkpt lat="51.483307" lon="-0.010103"><ele>5</ele></trkpt>
      <trkpt lat="51.483326" lon="-0.010123"><ele>5</ele></trkpt>
      <trkpt lat="51.483334" lon="-0.010157"><ele>4.75</ele></trkpt>
      <trkpt lat="51.483323" lon="-0.01016"><ele>5</ele></trkpt>
      <trkpt lat="51.483294" lon="-0.010167"><ele>4.75</ele></trkpt>
      <trkpt lat="51.483322" lon="-0.01016"><ele>4.75</ele></trkpt>
      <trkpt lat="51.483336" lon="-0.010157"><ele>4.75</ele></trkpt>
      <trkpt lat="51.48489" lon="-0.009756"><ele>4.25</ele></trkpt>
      <trkpt lat="51.486547" lon="-0.009328"><ele>4.25</ele></trkpt>
      <trkpt lat="51.486556" lon="-0.009326"><ele>4.25</ele></trkpt>
      <trkpt lat="51.486575" lon="-0.009321"><ele>4.25</ele></trkpt>
      <trkpt lat="51.486557" lon="-0.009326"><ele>4.25</ele></trkpt>
      <trkpt lat="51.486529" lon="-0.009333"><ele>4.25</ele></trkpt>
      <trkpt lat="51.486538" lon="-0.009368"><ele>4.25</ele></trkpt>
      <trkpt lat="51.48655" lon="-0.009386"><ele>4.25</ele></trkpt>
      <trkpt lat="51.48658" lon="-0.0094"><ele>4.5</ele></trkpt>
      <trkpt lat="51.486598" lon="-0.009395"><ele>4.5</ele></trkpt>
      <trkpt lat="51.486624" lon="-0.009362"><ele>4.75</ele></trkpt>
      <trkpt lat="51.486622" lon="-0.009331"><ele>4.75</ele></trkpt>
      <trkpt lat="51.486643" lon="-0.009343"><ele>4.75</ele></trkpt>
      <trkpt lat="51.486717" lon="-0.009385"><ele>4.75</ele></trkpt>
      <trkpt lat="51.486975" lon="-0.009581"><ele>4.75</ele></trkpt>
      <trkpt lat="51.486985" lon="-0.009594"><ele>4.5</ele></trkpt>
      <trkpt lat="51.48701" lon="-0.009622"><ele>4.5</ele></trkpt>
      <trkpt lat="51.487031" lon="-0.009646"><ele>4.25</ele></trkpt>
      <trkpt lat="51.487197" lon="-0.00977"><ele>3.25</ele></trkpt>
      <trkpt lat="51.487672" lon="-0.010103"><ele>2</ele></trkpt>
      <trkpt lat="51.487708" lon="-0.010152"><ele>2</ele></trkpt>
      <trkpt lat="51.48774" lon="-0.010173"><ele>2</ele></trkpt>
      <trkpt lat="51.48777" lon="-0.010194"><ele>2</ele></trkpt>
      <trkpt lat="51.487796" lon="-0.01021"><ele>2</ele></trkpt>
      <trkpt lat="51.487812" lon="-0.010143"><ele>2</ele></trkpt>
      <trkpt lat="51.487796" lon="-0.01021"><ele>2</ele></trkpt>
      <trkpt lat="51.487784" lon="-0.010268"><ele>2</ele></trkpt>
      <trkpt lat="51.487756" lon="-0.010403"><ele>2</ele></trkpt>
      <trkpt lat="51.487813" lon="-0.010437"><ele>2</ele></trkpt>
      <trkpt lat="51.487871" lon="-0.010468"><ele>2</ele></trkpt>
      <trkpt lat="51.487899" lon="-0.010496"><ele>2</ele></trkpt>
      <trkpt lat="51.488194" lon="-0.010942"><ele>2</ele></trkpt>
      <trkpt lat="51.488437" lon="-0.011337"><ele>1</ele></trkpt>
      <trkpt lat="51.488513" lon="-0.011474"><ele>1</ele></trkpt>
      <trkpt lat="51.488641" lon="-0.011727"><ele>1</ele></trkpt>
      <trkpt lat="51.488654" lon="-0.011752"><ele>1</ele></trkpt>
      <trkpt lat="51.488668" lon="-0.011779"><ele>1</ele></trkpt>
      <trkpt lat="51.488838" lon="-0.012115"><ele>1.25</ele></trkpt>
      <trkpt lat="51.488909" lon="-0.012255"><ele>1</ele></trkpt>
      <trkpt lat="51.48945" lon="-0.013293"><ele>1</ele></trkpt>
      <trkpt lat="51.489521" lon="-0.013385"><ele>1.25</ele></trkpt>
      <trkpt lat="51.489608" lon="-0.013455"><ele>2</ele></trkpt>
      <trkpt lat="51.489529" lon="-0.013766"><ele>2.25</ele></trkpt>
      <trkpt lat="51.48951" lon="-0.01401"><ele>2</ele></trkpt>
      <trkpt lat="51.489506" lon="-0.014113"><ele>2</ele></trkpt>
      <trkpt lat="51.489774" lon="-0.014153"><ele>2</ele></trkpt>
      <trkpt lat="51.489771" lon="-0.014387"><ele>2</ele></trkpt>
      <trkpt lat="51.489985" lon="-0.014473"><ele>2.75</ele></trkpt>
      <trkpt lat="51.490241" lon="-0.014641"><ele>3.75</ele></trkpt>
      <trkpt lat="51.490479" lon="-0.014786"><ele>2</ele></trkpt>
      <trkpt lat="51.490528" lon="-0.014826"><ele>1.75</ele></trkpt>
      <trkpt lat="51.490648" lon="-0.014893"><ele>2.25</ele></trkpt>
      <trkpt lat="51.490664" lon="-0.014903"><ele>2.75</ele></trkpt>
      <trkpt lat="51.490648" lon="-0.014893"><ele>2.25</ele></trkpt>
      <trkpt lat="51.490528" lon="-0.014826"><ele>1.75</ele></trkpt>
      <trkpt lat="51.490479" lon="-0.014786"><ele>2</ele></trkpt>
      <trkpt lat="51.490481" lon="-0.014743"><ele>1.75</ele></trkpt>
      <trkpt lat="51.490475" lon="-0.014659"><ele>2.5</ele></trkpt>
      <trkpt lat="51.490478" lon="-0.014582"><ele>3.25</ele></trkpt>
      <trkpt lat="51.490542" lon="-0.014446"><ele>4.75</ele></trkpt>
      <trkpt lat="51.490552" lon="-0.014408"><ele>4.75</ele></trkpt>
      <trkpt lat="51.490565" lon="-0.014355"><ele>5</ele></trkpt>
      <trkpt lat="51.49079" lon="-0.014512"><ele>5</ele></trkpt>
      <trkpt lat="51.491013" lon="-0.014611"><ele>4.75</ele></trkpt>
      <trkpt lat="51.491104" lon="-0.014651"><ele>4.5</ele></trkpt>
      <trkpt lat="51.491522" lon="-0.014716"><ele>3</ele></trkpt>
      <trkpt lat="51.492488" lon="-0.014605"><ele>4.75</ele></trkpt>
      <trkpt lat="51.493339" lon="-0.014479"><ele>6</ele></trkpt>
      <trkpt lat="51.493484" lon="-0.01445"><ele>6</ele></trkpt>
      <trkpt lat="51.494531" lon="-0.014277"><ele>4.75</ele></trkpt>
      <trkpt lat="51.495033" lon="-0.014197"><ele>3.25</ele></trkpt>
      <trkpt lat="51.495108" lon="-0.014185"><ele>2.75</ele></trkpt>
      <trkpt lat="51.495306" lon="-0.014153"><ele>2</ele></trkpt>
      <trkpt lat="51.495596" lon="-0.014096"><ele>2.75</ele></trkpt>
      <trkpt lat="51.495732" lon="-0.014085"><ele>2.75</ele></trkpt>
      <trkpt lat="51.495921" lon="-0.014105"><ele>2.5</ele></trkpt>
      <trkpt lat="51.495967" lon="-0.014109"><ele>2.25</ele></trkpt>
      <trkpt lat="51.496012" lon="-0.014113"><ele>2.25</ele></trkpt>
      <trkpt lat="51.496087" lon="-0.014119"><ele>2</ele></trkpt>
      <trkpt lat="51.496101" lon="-0.014422"><ele>3</ele></trkpt>
      <trkpt lat="51.496153" lon="-0.014564"><ele>3.75</ele></trkpt>
      <trkpt lat="51.496165" lon="-0.014594"><ele>4</ele></trkpt>
      <trkpt lat="51.496184" lon="-0.014928"><ele>5.5</ele></trkpt>
      <trkpt lat="51.496206" lon="-0.014924"><ele>5.5</ele></trkpt>
      <trkpt lat="51.496256" lon="-0.015717"><ele>6</ele></trkpt>
      <trkpt lat="51.496266" lon="-0.015864"><ele>5.75</ele></trkpt>
      <trkpt lat="51.496283" lon="-0.016141"><ele>5.25</ele></trkpt>
      <trkpt lat="51.496796" lon="-0.016061"><ele>5</ele></trkpt>
      <trkpt lat="51.496904" lon="-0.016044"><ele>5</ele></trkpt>
      <trkpt lat="51.497044" lon="-0.016023"><ele>5.25</ele></trkpt>
      <trkpt lat="51.497077" lon="-0.016018"><ele>5.25</ele></trkpt>
      <trkpt lat="51.497212" lon="-0.015997"><ele>5.25</ele></trkpt>
      <trkpt lat="51.497535" lon="-0.015947"><ele>5</ele></trkpt>
      <trkpt lat="51.497864" lon="-0.015896"><ele>5.5</ele></trkpt>
      <trkpt lat="51.497979" lon="-0.015878"><ele>5.5</ele></trkpt>
      <trkpt lat="51.4983" lon="-0.015823"><ele>5</ele></trkpt>
      <trkpt lat="51.498543" lon="-0.01578"><ele>5.5</ele></trkpt>
      <trkpt lat="51.498924" lon="-0.015719"><ele>5.25</ele></trkpt>
      <trkpt lat="51.499314" lon="-0.015658"><ele>5.5</ele></trkpt>
      <trkpt lat="51.499549" lon="-0.015624"><ele>5.25</ele></trkpt>
      <trkpt lat="51.49987" lon="-0.015579"><ele>5.25</ele></trkpt>
      <trkpt lat="51.499895" lon="-0.015573"><ele>5.5</ele></trkpt>
      <trkpt lat="51.50002" lon="-0.015537"><ele>5.75</ele></trkpt>
      <trkpt lat="51.500088" lon="-0.015519"><ele>5.5</ele></trkpt>
      <trkpt lat="51.500123" lon="-0.015857"><ele>5.25</ele></trkpt>
      <trkpt lat="51.500137" lon="-0.015997"><ele>4.75</ele></trkpt>
      <trkpt lat="51.500148" lon="-0.016102"><ele>5</ele></trkpt>
      <trkpt lat="51.500169" lon="-0.016282"><ele>5</ele></trkpt>
      <trkpt lat="51.500191" lon="-0.016482"><ele>5.5</ele></trkpt>
      <trkpt lat="51.500265" lon="-0.01646"><ele>5.75</ele></trkpt>
      <trkpt lat="51.500312" lon="-0.016447"><ele>5.75</ele></trkpt>
      <trkpt lat="51.500349" lon="-0.016437"><ele>5.75</ele></trkpt>
      <trkpt lat="51.500353" lon="-0.016476"><ele>5.75</ele></trkpt>
      <trkpt lat="51.500397" lon="-0.016893"><ele>6</ele></trkpt>
      <trkpt lat="51.500408" lon="-0.016989"><ele>6</ele></trkpt>
      <trkpt lat="51.500666" lon="-0.016913"><ele>6</ele></trkpt>
      <trkpt lat="51.500718" lon="-0.017366"><ele>5.5</ele></trkpt>
      <trkpt lat="51.501046" lon="-0.017733"><ele>5</ele></trkpt>
      <trkpt lat="51.501369" lon="-0.017633"><ele>5</ele></trkpt>
      <trkpt lat="51.501391" lon="-0.017832"><ele>4.75</ele></trkpt>
      <trkpt lat="51.501492" lon="-0.018699"><ele>5.25</ele></trkpt>
      <trkpt lat="51.501611" lon="-0.019721"><ele>4</ele></trkpt>
      <trkpt lat="51.501692" lon="-0.020448"><ele>4.75</ele></trkpt>
      <trkpt lat="51.501748" lon="-0.020378"><ele>4.75</ele></trkpt>
      <trkpt lat="51.501819" lon="-0.020319"><ele>5</ele></trkpt>
      <trkpt lat="51.501899" lon="-0.020267"><ele>5.25</ele></trkpt>
      <trkpt lat="51.501986" lon="-0.020232"><ele>5.25</ele></trkpt>
      <trkpt lat="51.502084" lon="-0.020207"><ele>5.5</ele></trkpt>
      <trkpt lat="51.502237" lon="-0.020201"><ele>5.75</ele></trkpt>
      <trkpt lat="51.502437" lon="-0.020212"><ele>6</ele></trkpt>
      <trkpt lat="51.502442" lon="-0.020262"><ele>6.25</ele></trkpt>
      <trkpt lat="51.502424" lon="-0.020267"><ele>6</ele></trkpt>
      <trkpt lat="51.502431" lon="-0.020323"><ele>6.25</ele></trkpt>
      <trkpt lat="51.502449" lon="-0.020318"><ele>6.25</ele></trkpt>
      <trkpt lat="51.50245" lon="-0.020327"><ele>6.25</ele></trkpt>
      <trkpt lat="51.50246" lon="-0.02041"><ele>6.5</ele></trkpt>
      <trkpt lat="51.502439" lon="-0.020485"><ele>6.25</ele></trkpt>
      <trkpt lat="51.502536" lon="-0.021369"><ele>4</ele></trkpt>
      <trkpt lat="51.502796" lon="-0.0213"><ele>4.5</ele></trkpt>
      <trkpt lat="51.502841" lon="-0.021288"><ele>4.75</ele></trkpt>
      <trkpt lat="51.502939" lon="-0.021261"><ele>5</ele></trkpt>
      <trkpt lat="51.50309" lon="-0.021221"><ele>5.75</ele></trkpt>
      <trkpt lat="51.50318" lon="-0.021197"><ele>6.25</ele></trkpt>
      <trkpt lat="51.503243" lon="-0.02118"><ele>6.5</ele></trkpt>
      <trkpt lat="51.503312" lon="-0.021161"><ele>6.75</ele></trkpt>
      <trkpt lat="51.503377" lon="-0.02114"><ele>6.5</ele></trkpt>
      <trkpt lat="51.503409" lon="-0.021411"><ele>4.25</ele></trkpt>
      <trkpt lat="51.503433" lon="-0.021603"><ele>4.25</ele></trkpt>
      <trkpt lat="51.503507" lon="-0.02216"><ele>3.5</ele></trkpt>
      <trkpt lat="51.503515" lon="-0.022227"><ele>3.5</ele></trkpt>
      <trkpt lat="51.503522" lon="-0.022291"><ele>3.25</ele></trkpt>
      <trkpt lat="51.50353" lon="-0.022362"><ele>3.25</ele></trkpt>
      <trkpt lat="51.503557" lon="-0.022355"><ele>3.25</ele></trkpt>
      <trkpt lat="51.503579" lon="-0.022349"><ele>3.25</ele></trkpt>
      <trkpt lat="51.503617" lon="-0.022338"><ele>3.25</ele></trkpt>
      <trkpt lat="51.503616" lon="-0.022334"><ele>3.25</ele></trkpt>
      <trkpt lat="51.50364" lon="-0.022327"><ele>3.25</ele></trkpt>
      <trkpt lat="51.503637" lon="-0.022294"><ele>3.25</ele></trkpt>
      <trkpt lat="51.503651" lon="-0.02229"><ele>3.25</ele></trkpt>
      <trkpt lat="51.503658" lon="-0.022275"><ele>3.25</ele></trkpt>
      <trkpt lat="51.504164" lon="-0.02213"><ele>5</ele></trkpt>
      <trkpt lat="51.504174" lon="-0.022139"><ele>5.25</ele></trkpt>
      <trkpt lat="51.504207" lon="-0.022128"><ele>5.25</ele></trkpt>
      <trkpt lat="51.504193" lon="-0.021999"><ele>5</ele></trkpt>
      <trkpt lat="51.50416" lon="-0.021711"><ele>5.75</ele></trkpt>
      <trkpt lat="51.504128" lon="-0.021426"><ele>5.5</ele></trkpt>
      <trkpt lat="51.504298" lon="-0.021278"><ele>6.25</ele></trkpt>
      <trkpt lat="51.504289" lon="-0.021202"><ele>6.25</ele></trkpt>
      <trkpt lat="51.50477" lon="-0.021069"><ele>8</ele></trkpt>
      <trkpt lat="51.504821" lon="-0.021053"><ele>8.25</ele></trkpt>
      <trkpt lat="51.504843" lon="-0.021047"><ele>8.25</ele></trkpt>
      <trkpt lat="51.504859" lon="-0.021043"><ele>8.25</ele></trkpt>
      <trkpt lat="51.504877" lon="-0.021038"><ele>8.5</ele></trkpt>
      <trkpt lat="51.505099" lon="-0.020975"><ele>8.75</ele></trkpt>
      <trkpt lat="51.505309" lon="-0.020916"><ele>8.25</ele></trkpt>
      <trkpt lat="51.505443" lon="-0.020879"><ele>8</ele></trkpt>
      <trkpt lat="51.505701" lon="-0.020823"><ele>7.25</ele></trkpt>
      <trkpt lat="51.506075" lon="-0.02071"><ele>5.5</ele></trkpt>
      <trkpt lat="51.50606" lon="-0.02054"><ele>5.25</ele></trkpt>
      <trkpt lat="51.506113" lon="-0.020451"><ele>5.25</ele></trkpt>
      <trkpt lat="51.506028" lon="-0.019554"><ele>4.75</ele></trkpt>
      <trkpt lat="51.506025" lon="-0.019518"><ele>4.75</ele></trkpt>
      <trkpt lat="51.506048" lon="-0.019512"><ele>4.5</ele></trkpt>
      <trkpt lat="51.506027" lon="-0.019306"><ele>4.75</ele></trkpt>
      <trkpt lat="51.506137" lon="-0.019272"><ele>4.5</ele></trkpt>
      <trkpt lat="51.506122" lon="-0.019135"><ele>4.75</ele></trkpt>
      <trkpt lat="51.506135" lon="-0.019132"><ele>4.75</ele></trkpt>
      <trkpt lat="51.506133" lon="-0.019117"><ele>4.75</ele></trkpt>
      <trkpt lat="51.506125" lon="-0.019045"><ele>4.75</ele></trkpt>
      <trkpt lat="51.506121" lon="-0.01901"><ele>4.75</ele></trkpt>
      <trkpt lat="51.50611" lon="-0.018981"><ele>5</ele></trkpt>
      <trkpt lat="51.506095" lon="-0.018847"><ele>4.75</ele></trkpt>
      <trkpt lat="51.506152" lon="-0.018834"><ele>4.5</ele></trkpt>
      <trkpt lat="51.506323" lon="-0.018788"><ele>4.5</ele></trkpt>
      <trkpt lat="51.506381" lon="-0.018771"><ele>4.5</ele></trkpt>
      <trkpt lat="51.506411" lon="-0.019069"><ele>4.25</ele></trkpt>
      <trkpt lat="51.506577" lon="-0.019025"><ele>4.75</ele></trkpt>
      <trkpt lat="51.506704" lon="-0.02017"><ele>5</ele></trkpt>
      <trkpt lat="51.506746" lon="-0.020159"><ele>5</ele></trkpt>
      <trkpt lat="51.506769" lon="-0.020371"><ele>5</ele></trkpt>
      <trkpt lat="51.507029" lon="-0.020314"><ele>5</ele></trkpt>
      <trkpt lat="51.507215" lon="-0.020272"><ele>5</ele></trkpt>
      <trkpt lat="51.507225" lon="-0.020403"><ele>4.5</ele></trkpt>
      <trkpt lat="51.507229" lon="-0.020452"><ele>4.25</ele></trkpt>
      <trkpt lat="51.507233" lon="-0.020501"><ele>4</ele></trkpt>
      <trkpt lat="51.507247" lon="-0.020498"><ele>4</ele></trkpt>
      <trkpt lat="51.507439" lon="-0.020461"><ele>3.25</ele></trkpt>
      <trkpt lat="51.507512" lon="-0.020464"><ele>3</ele></trkpt>
      <trkpt lat="51.507532" lon="-0.020475"><ele>3</ele></trkpt>
      <trkpt lat="51.507602" lon="-0.020446"><ele>3.25</ele></trkpt>
      <trkpt lat="51.507588" lon="-0.020084"><ele>3.75</ele></trkpt>
      <trkpt lat="51.507737" lon="-0.019911"><ele>4</ele></trkpt>
      <trkpt lat="51.507498" lon="-0.018825"><ele>4</ele></trkpt>
      <trkpt lat="51.507447" lon="-0.018562"><ele>4</ele></trkpt>
      <trkpt lat="51.507412" lon="-0.018338"><ele>4</ele></trkpt>
      <trkpt lat="51.5074" lon="-0.018264"><ele>4</ele></trkpt>
      <trkpt lat="51.507376" lon="-0.018104"><ele>4.25</ele></trkpt>
      <trkpt lat="51.507362" lon="-0.018019"><ele>4.5</ele></trkpt>
      <trkpt lat="51.507353" lon="-0.018023"><ele>4.5</ele></trkpt>
      <trkpt lat="51.507345" lon="-0.018015"><ele>4.25</ele></trkpt>
      <trkpt lat="51.50735" lon="-0.018062"><ele>4.25</ele></trkpt>
      <trkpt lat="51.507788" lon="-0.017946"><ele>3.5</ele></trkpt>
      <trkpt lat="51.507786" lon="-0.017871"><ele>3.25</ele></trkpt>
      <trkpt lat="51.50791" lon="-0.017784"><ele>2.5</ele></trkpt>
      <trkpt lat="51.507944" lon="-0.017772"><ele>2.25</ele></trkpt>
      <trkpt lat="51.507977" lon="-0.017761"><ele>2.25</ele></trkpt>
      <trkpt lat="51.50809" lon="-0.017779"><ele>2</ele></trkpt>
      <trkpt lat="51.508141" lon="-0.017783"><ele>2.25</ele></trkpt>
      <trkpt lat="51.508303" lon="-0.01798"><ele>2.75</ele></trkpt>
      <trkpt lat="51.508932" lon="-0.017859"><ele>5.5</ele></trkpt>
      <trkpt lat="51.508937" lon="-0.017857"><ele>5.5</ele></trkpt>
      <trkpt lat="51.508952" lon="-0.017853"><ele>5.5</ele></trkpt>
      <trkpt lat="51.508984" lon="-0.017847"><ele>5.75</ele></trkpt>
      <trkpt lat="51.50897" lon="-0.017672"><ele>6</ele></trkpt>
      <trkpt lat="51.508998" lon="-0.017668"><ele>6</ele></trkpt>
      <trkpt lat="51.50903" lon="-0.017666"><ele>6</ele></trkpt>
      <trkpt lat="51.509271" lon="-0.017645"><ele>6</ele></trkpt>
      <trkpt lat="51.509347" lon="-0.017643"><ele>6</ele></trkpt>
      <trkpt lat="51.509586" lon="-0.017628"><ele>6.25</ele></trkpt>
      <trkpt lat="51.509979" lon="-0.017603"><ele>6</ele></trkpt>
      <trkpt lat="51.509978" lon="-0.017555"><ele>6</ele></trkpt>
      <trkpt lat="51.509977" lon="-0.017544"><ele>6</ele></trkpt>
      <trkpt lat="51.509967" lon="-0.017453"><ele>6</ele></trkpt>
      <trkpt lat="51.510081" lon="-0.017139"><ele>6.25</ele></trkpt>
      <trkpt lat="51.510532" lon="-0.016721"><ele>6.75</ele></trkpt>
      <trkpt lat="51.510544" lon="-0.015965"><ele>6.25</ele></trkpt>
      <trkpt lat="51.510544" lon="-0.015938"><ele>6.25</ele></trkpt>
      <trkpt lat="51.510546" lon="-0.015921"><ele>6.25</ele></trkpt>
      <trkpt lat="51.510545" lon="-0.01589"><ele>6</ele></trkpt>
      <trkpt lat="51.510712" lon="-0.01588"><ele>6</ele></trkpt>
      <trkpt lat="51.510759" lon="-0.015891"><ele>6</ele></trkpt>
      <trkpt lat="51.510893" lon="-0.015934"><ele>6</ele></trkpt>
      <trkpt lat="51.510928" lon="-0.01593"><ele>6</ele></trkpt>
      <trkpt lat="51.510979" lon="-0.015934"><ele>6</ele></trkpt>
      <trkpt lat="51.51098" lon="-0.015919"><ele>6</ele></trkpt>
      <trkpt lat="51.51098" lon="-0.015911"><ele>6</ele></trkpt>
      <trkpt lat="51.510996" lon="-0.015577"><ele>6</ele></trkpt>
      <trkpt lat="51.511049" lon="-0.014429"><ele>6</ele></trkpt>
      <trkpt lat="51.511053" lon="-0.014353"><ele>6</ele></trkpt>
      <trkpt lat="51.511057" lon="-0.014292"><ele>6</ele></trkpt>
      <trkpt lat="51.511091" lon="-0.013592"><ele>5.75</ele></trkpt>
      <trkpt lat="51.511096" lon="-0.013499"><ele>5.5</ele></trkpt>
      <trkpt lat="51.51111" lon="-0.0135"><ele>5.5</ele></trkpt>
      <trkpt lat="51.511188" lon="-0.013385"><ele>5</ele></trkpt>
      <trkpt lat="51.511308" lon="-0.013429"><ele>5.5</ele></trkpt>
      <trkpt lat="51.511331" lon="-0.013435"><ele>5.5</ele></trkpt>
      <trkpt lat="51.511659" lon="-0.013536"><ele>6</ele></trkpt>
      <trkpt lat="51.512187" lon="-0.013738"><ele>6.75</ele></trkpt>
      <trkpt lat="51.512303" lon="-0.013796"><ele>7</ele></trkpt>
      <trkpt lat="51.512742" lon="-0.013969"><ele>6.5</ele></trkpt>
      <trkpt lat="51.512845" lon="-0.014008"><ele>6.5</ele></trkpt>
      <trkpt lat="51.513002" lon="-0.014064"><ele>6.75</ele></trkpt>
      <trkpt lat="51.513048" lon="-0.014081"><ele>6.75</ele></trkpt>
      <trkpt lat="51.513198" lon="-0.014136"><ele>7</ele></trkpt>
      <trkpt lat="51.513577" lon="-0.014282"><ele>6</ele></trkpt>
      <trkpt lat="51.513902" lon="-0.014411"><ele>6</ele></trkpt>
      <trkpt lat="51.513929" lon="-0.014422"><ele>6</ele></trkpt>
      <trkpt lat="51.514144" lon="-0.014506"><ele>6</ele></trkpt>
      <trkpt lat="51.514382" lon="-0.014595"><ele>6</ele></trkpt>
      <trkpt lat="51.51477" lon="-0.01477"><ele>5.75</ele></trkpt>
      <trkpt lat="51.514922" lon="-0.014862"><ele>6</ele></trkpt>
      <trkpt lat="51.51494" lon="-0.014779"><ele>6</ele></trkpt>
      <trkpt lat="51.515106" lon="-0.0149"><ele>6</ele></trkpt>
      <trkpt lat="51.515306" lon="-0.015053"><ele>6</ele></trkpt>
      <trkpt lat="51.515643" lon="-0.015374"><ele>5.25</ele></trkpt>
      <trkpt lat="51.515664" lon="-0.015377"><ele>5.25</ele></trkpt>
      <trkpt lat="51.5157" lon="-0.015408"><ele>5.25</ele></trkpt>
      <trkpt lat="51.515743" lon="-0.015444"><ele>5</ele></trkpt>
      <trkpt lat="51.515757" lon="-0.01548"><ele>5</ele></trkpt>
      <trkpt lat="51.51599" lon="-0.015675"><ele>5</ele></trkpt>
      <trkpt lat="51.516065" lon="-0.015713"><ele>5</ele></trkpt>
      <trkpt lat="51.516062" lon="-0.015732"><ele>5</ele></trkpt>
      <trkpt lat="51.516059" lon="-0.015757"><ele>5</ele></trkpt>
      <trkpt lat="51.516087" lon="-0.015768"><ele>5</ele></trkpt>
      <trkpt lat="51.516334" lon="-0.015844"><ele>5</ele></trkpt>
      <trkpt lat="51.516359" lon="-0.01589"><ele>5</ele></trkpt>
      <trkpt lat="51.516412" lon="-0.015904"><ele>5.25</ele></trkpt>
      <trkpt lat="51.516539" lon="-0.015931"><ele>5.5</ele></trkpt>
      <trkpt lat="51.516575" lon="-0.01594"><ele>5.75</ele></trkpt>
      <trkpt lat="51.516615" lon="-0.015949"><ele>5.75</ele></trkpt>
      <trkpt lat="51.516952" lon="-0.016008"><ele>6</ele></trkpt>
      <trkpt lat="51.517041" lon="-0.016024"><ele>6</ele></trkpt>
      <trkpt lat="51.517127" lon="-0.016042"><ele>6</ele></trkpt>
      <trkpt lat="51.517251" lon="-0.016064"><ele>6</ele></trkpt>
      <trkpt lat="51.517324" lon="-0.016078"><ele>6.25</ele></trkpt>
      <trkpt lat="51.517337" lon="-0.01608"><ele>6.25</ele></trkpt>
      <trkpt lat="51.517813" lon="-0.016156"><ele>7</ele></trkpt>
      <trkpt lat="51.517882" lon="-0.016168"><ele>7</ele></trkpt>
      <trkpt lat="51.517982" lon="-0.016196"><ele>7</ele></trkpt>
      <trkpt lat="51.518429" lon="-0.016471"><ele>5.75</ele></trkpt>
      <trkpt lat="51.518491" lon="-0.016506"><ele>5</ele></trkpt>
      <trkpt lat="51.518767" lon="-0.016668"><ele>5</ele></trkpt>
      <trkpt lat="51.518805" lon="-0.016688"><ele>5.75</ele></trkpt>
      <trkpt lat="51.519184" lon="-0.016891"><ele>7</ele></trkpt>
      <trkpt lat="51.519296" lon="-0.016955"><ele>7</ele></trkpt>
      <trkpt lat="51.519688" lon="-0.01716"><ele>7</ele></trkpt>
      <trkpt lat="51.520437" lon="-0.017554"><ele>7</ele></trkpt>
      <trkpt lat="51.520498" lon="-0.017586"><ele>7</ele></trkpt>
      <trkpt lat="51.520507" lon="-0.017523"><ele>7</ele></trkpt>
      <trkpt lat="51.520526" lon="-0.017533"><ele>7</ele></trkpt>
      <trkpt lat="51.521517" lon="-0.018055"><ele>8</ele></trkpt>
      <trkpt lat="51.521556" lon="-0.018091"><ele>8</ele></trkpt>
      <trkpt lat="51.52161" lon="-0.01812"><ele>8</ele></trkpt>
      <trkpt lat="51.521725" lon="-0.018181"><ele>7.75</ele></trkpt>
      <trkpt lat="51.521935" lon="-0.018305"><ele>8</ele></trkpt>
      <trkpt lat="51.52202" lon="-0.018343"><ele>8</ele></trkpt>
      <trkpt lat="51.522078" lon="-0.01829"><ele>8</ele></trkpt>
      <trkpt lat="51.522191" lon="-0.018159"><ele>8</ele></trkpt>
      <trkpt lat="51.522354" lon="-0.017997"><ele>8.75</ele></trkpt>
      <trkpt lat="51.522419" lon="-0.017909"><ele>9</ele></trkpt>
      <trkpt lat="51.522554" lon="-0.017754"><ele>8.25</ele></trkpt>
      <trkpt lat="51.522574" lon="-0.017721"><ele>8</ele></trkpt>
      <trkpt lat="51.522604" lon="-0.017671"><ele>7.5</ele></trkpt>
      <trkpt lat="51.522613" lon="-0.017684"><ele>7.5</ele></trkpt>
      <trkpt lat="51.522637" lon="-0.017716"><ele>7.5</ele></trkpt>
      <trkpt lat="51.522661" lon="-0.017671"><ele>7.5</ele></trkpt>
      <trkpt lat="51.52268" lon="-0.017623"><ele>7.75</ele></trkpt>
      <trkpt lat="51.522745" lon="-0.017468"><ele>7.75</ele></trkpt>
      <trkpt lat="51.522819" lon="-0.017242"><ele>9.5</ele></trkpt>
      <trkpt lat="51.522879" lon="-0.016963"><ele>9</ele></trkpt>
      <trkpt lat="51.522912" lon="-0.016975"><ele>9</ele></trkpt>
      <trkpt lat="51.522936" lon="-0.01699"><ele>9</ele></trkpt>
      <trkpt lat="51.523053" lon="-0.017064"><ele>9</ele></trkpt>
      <trkpt lat="51.523205" lon="-0.017169"><ele>9</ele></trkpt>
      <trkpt lat="51.523655" lon="-0.017467"><ele>9</ele></trkpt>
      <trkpt lat="51.523685" lon="-0.017484"><ele>9</ele></trkpt>
      <trkpt lat="51.52379" lon="-0.017543"><ele>8.75</ele></trkpt>
      <trkpt lat="51.523942" lon="-0.017648"><ele>9</ele></trkpt>
      <trkpt lat="51.524122" lon="-0.017737"><ele>9.75</ele></trkpt>
      <trkpt lat="51.524347" lon="-0.017814"><ele>10.25</ele></trkpt>
      <trkpt lat="51.524388" lon="-0.017829"><ele>10.25</ele></trkpt>
      <trkpt lat="51.524621" lon="-0.017893"><ele>10</ele></trkpt>
      <trkpt lat="51.524663" lon="-0.017871"><ele>10</ele></trkpt>
      <trkpt lat="51.524693" lon="-0.017852"><ele>10</ele></trkpt>
      <trkpt lat="51.524704" lon="-0.017892"><ele>10</ele></trkpt>
      <trkpt lat="51.524745" lon="-0.017944"><ele>9.75</ele></trkpt>
      <trkpt lat="51.524899" lon="-0.018047"><ele>8.5</ele></trkpt>
      <trkpt lat="51.524978" lon="-0.018098"><ele>8</ele></trkpt>
      <trkpt lat="51.525215" lon="-0.018251"><ele>7.25</ele></trkpt>
      <trkpt lat="51.525277" lon="-0.018292"><ele>7</ele></trkpt>
      <trkpt lat="51.525397" lon="-0.01838"><ele>7</ele></trkpt>
      <trkpt lat="51.52568" lon="-0.018568"><ele>7.25</ele></trkpt>
      <trkpt lat="51.52586" lon="-0.018684"><ele>7.75</ele></trkpt>
      <trkpt lat="51.525891" lon="-0.018703"><ele>7.75</ele></trkpt>
      <trkpt lat="51.526061" lon="-0.018823"><ele>8.5</ele></trkpt>
      <trkpt lat="51.526131" lon="-0.018874"><ele>9</ele></trkpt>
      <trkpt lat="51.526195" lon="-0.018939"><ele>9</ele></trkpt>
      <trkpt lat="51.52625" lon="-0.019013"><ele>9</ele></trkpt>
      <trkpt lat="51.526328" lon="-0.01916"><ele>9.25</ele></trkpt>
      <trkpt lat="51.526353" lon="-0.01925"><ele>8.75</ele></trkpt>
      <trkpt lat="51.526383" lon="-0.019472"><ele>6.75</ele></trkpt>
      <trkpt lat="51.526383" lon="-0.019627"><ele>7</ele></trkpt>
      <trkpt lat="51.526372" lon="-0.019712"><ele>7</ele></trkpt>
      <trkpt lat="51.52642" lon="-0.019736"><ele>7</ele></trkpt>
      <trkpt lat="51.526714" lon="-0.019927"><ele>7.75</ele></trkpt>
      <trkpt lat="51.526947" lon="-0.020022"><ele>8.75</ele></trkpt>
      <trkpt lat="51.527075" lon="-0.02009"><ele>8</ele></trkpt>
      <trkpt lat="51.527252" lon="-0.020194"><ele>8</ele></trkpt>
      <trkpt lat="51.527305" lon="-0.020224"><ele>8</ele></trkpt>
      <trkpt lat="51.527332" lon="-0.020253"><ele>8</ele></trkpt>
      <trkpt lat="51.527426" lon="-0.02031"><ele>8</ele></trkpt>
      <trkpt lat="51.527448" lon="-0.020317"><ele>8</ele></trkpt>
      <trkpt lat="51.527491" lon="-0.020312"><ele>8</ele></trkpt>
      <trkpt lat="51.527539" lon="-0.020433"><ele>8</ele></trkpt>
      <trkpt lat="51.527527" lon="-0.020584"><ele>8</ele></trkpt>
      <trkpt lat="51.527601" lon="-0.020641"><ele>8</ele></trkpt>
      <trkpt lat="51.527673" lon="-0.020697"><ele>8</ele></trkpt>
      <trkpt lat="51.527772" lon="-0.020768"><ele>8</ele></trkpt>
      <trkpt lat="51.527744" lon="-0.020866"><ele>8.25</ele></trkpt>
      <trkpt lat="51.527858" lon="-0.020953"><ele>9</ele></trkpt>
      <trkpt lat="51.527859" lon="-0.020941"><ele>8.75</ele></trkpt>
      <trkpt lat="51.527892" lon="-0.020692"><ele>8.75</ele></trkpt>
      <trkpt lat="51.5279" lon="-0.020558"><ele>9.5</ele></trkpt>
      <trkpt lat="51.527921" lon="-0.020399"><ele>10.25</ele></trkpt>
      <trkpt lat="51.52798" lon="-0.019941"><ele>10.75</ele></trkpt>
      <trkpt lat="51.528027" lon="-0.019586"><ele>11</ele></trkpt>
      <trkpt lat="51.528047" lon="-0.019591"><ele>11</ele></trkpt>
      <trkpt lat="51.528056" lon="-0.019594"><ele>11</ele></trkpt>
      <trkpt lat="51.5281" lon="-0.019609"><ele>11</ele></trkpt>
      <trkpt lat="51.52813" lon="-0.019619"><ele>11</ele></trkpt>
      <trkpt lat="51.528141" lon="-0.019623"><ele>11</ele></trkpt>
      <trkpt lat="51.528157" lon="-0.01951"><ele>11</ele></trkpt>
      <trkpt lat="51.528168" lon="-0.019514"><ele>11</ele></trkpt>
      <trkpt lat="51.528202" lon="-0.019529"><ele>11</ele></trkpt>
      <trkpt lat="51.528239" lon="-0.019459"><ele>11</ele></trkpt>
      <trkpt lat="51.528254" lon="-0.019316"><ele>11</ele></trkpt>
      <trkpt lat="51.528262" lon="-0.019186"><ele>11</ele></trkpt>
      <trkpt lat="51.528254" lon="-0.019099"><ele>11</ele></trkpt>
      <trkpt lat="51.528325" lon="-0.018582"><ele>11</ele></trkpt>
      <trkpt lat="51.528346" lon="-0.0185"><ele>10.75</ele></trkpt>
      <trkpt lat="51.528381" lon="-0.018311"><ele>11</ele></trkpt>
      <trkpt lat="51.528419" lon="-0.018171"><ele>11</ele></trkpt>
      <trkpt lat="51.528496" lon="-0.017988"><ele>10.75</ele></trkpt>
      <trkpt lat="51.528519" lon="-0.017933"><ele>10.5</ele></trkpt>
      <trkpt lat="51.528541" lon="-0.017877"><ele>10.5</ele></trkpt>
      <trkpt lat="51.528556" lon="-0.017843"><ele>10.25</ele></trkpt>
      <trkpt lat="51.528682" lon="-0.017541"><ele>10</ele></trkpt>
      <trkpt lat="51.528712" lon="-0.017483"><ele>10</ele></trkpt>
      <trkpt lat="51.528825" lon="-0.017143"><ele>10</ele></trkpt>
      <trkpt lat="51.528903" lon="-0.016858"><ele>10</ele></trkpt>
      <trkpt lat="51.528944" lon="-0.016708"><ele>10</ele></trkpt>
      <trkpt lat="51.529119" lon="-0.016089"><ele>9</ele></trkpt>
      <trkpt lat="51.529125" lon="-0.016064"><ele>9</ele></trkpt>
      <trkpt lat="51.529226" lon="-0.015912"><ele>9</ele></trkpt>
      <trkpt lat="51.52933" lon="-0.015553"><ele>8.75</ele></trkpt>
      <trkpt lat="51.529465" lon="-0.015092"><ele>7.25</ele></trkpt>
      <trkpt lat="51.529534" lon="-0.014878"><ele>6.5</ele></trkpt>
      <trkpt lat="51.529561" lon="-0.014806"><ele>6.5</ele></trkpt>
      <trkpt lat="51.5296" lon="-0.014717"><ele>6.5</ele></trkpt>
      <trkpt lat="51.52962" lon="-0.014652"><ele>6.5</ele></trkpt>
      <trkpt lat="51.529636" lon="-0.014611"><ele>6.5</ele></trkpt>
      <trkpt lat="51.529692" lon="-0.014507"><ele>6.75</ele></trkpt>
      <trkpt lat="51.529738" lon="-0.014515"><ele>6.75</ele></trkpt>
      <trkpt lat="51.529785" lon="-0.014474"><ele>6.75</ele></trkpt>
      <trkpt lat="51.529868" lon="-0.014417"><ele>7</ele></trkpt>
      <trkpt lat="51.52991" lon="-0.014356"><ele>7</ele></trkpt>
      <trkpt lat="51.529951" lon="-0.014266"><ele>7</ele></trkpt>
      <trkpt lat="51.529963" lon="-0.014183"><ele>6.75</ele></trkpt>
      <trkpt lat="51.529967" lon="-0.014098"><ele>6.75</ele></trkpt>
      <trkpt lat="51.529963" lon="-0.014033"><ele>6.75</ele></trkpt>
      <trkpt lat="51.529996" lon="-0.013625"><ele>6.75</ele></trkpt>
      <trkpt lat="51.530044" lon="-0.013498"><ele>6.75</ele></trkpt>
      <trkpt lat="51.53007" lon="-0.013433"><ele>6.5</ele></trkpt>
      <trkpt lat="51.530093" lon="-0.013377"><ele>6.5</ele></trkpt>
      <trkpt lat="51.530137" lon="-0.013425"><ele>6.5</ele></trkpt>
      <trkpt lat="51.530155" lon="-0.013448"><ele>6.25</ele></trkpt>
      <trkpt lat="51.530219" lon="-0.013305"><ele>6</ele></trkpt>
      <trkpt lat="51.530446" lon="-0.012797"><ele>5</ele></trkpt>
      <trkpt lat="51.530475" lon="-0.012733"><ele>5</ele></trkpt>
      <trkpt lat="51.530497" lon="-0.012686"><ele>5</ele></trkpt>
      <trkpt lat="51.530503" lon="-0.012672"><ele>5</ele></trkpt>
      <trkpt lat="51.53064" lon="-0.012368"><ele>5</ele></trkpt>
      <trkpt lat="51.531008" lon="-0.011665"><ele>5.25</ele></trkpt>
      <trkpt lat="51.531041" lon="-0.011608"><ele>5.25</ele></trkpt>
      <trkpt lat="51.531059" lon="-0.011577"><ele>5</ele></trkpt>
      <trkpt lat="51.53109" lon="-0.011523"><ele>5</ele></trkpt>
      <trkpt lat="51.531134" lon="-0.011473"><ele>5</ele></trkpt>
      <trkpt lat="51.531283" lon="-0.01122"><ele>5</ele></trkpt>
      <trkpt lat="51.531306" lon="-0.011146"><ele>5</ele></trkpt>
      <trkpt lat="51.531397" lon="-0.011"><ele>5</ele></trkpt>
      <trkpt lat="51.531537" lon="-0.010797"><ele>5</ele></trkpt>
      <trkpt lat="51.531559" lon="-0.01079"><ele>5</ele></trkpt>
      <trkpt lat="51.531572" lon="-0.010766"><ele>5</ele></trkpt>
      <trkpt lat="51.531608" lon="-0.010706"><ele>5</ele></trkpt>
      <trkpt lat="51.531678" lon="-0.010793"><ele>5</ele></trkpt>
      <trkpt lat="51.531718" lon="-0.010841"><ele>5</ele></trkpt>
      <trkpt lat="51.531752" lon="-0.010869"><ele>5.25</ele></trkpt>
      <trkpt lat="51.532031" lon="-0.011101"><ele>5</ele></trkpt>
      <trkpt lat="51.53208" lon="-0.011149"><ele>4.5</ele></trkpt>
      <trkpt lat="51.532253" lon="-0.011323"><ele>4.5</ele></trkpt>
      <trkpt lat="51.532263" lon="-0.011334"><ele>4.5</ele></trkpt>
      <trkpt lat="51.532434" lon="-0.011506"><ele>4.75</ele></trkpt>
      <trkpt lat="51.532472" lon="-0.011525"><ele>4.75</ele></trkpt>
      <trkpt lat="51.532508" lon="-0.011525"><ele>5</ele></trkpt>
      <trkpt lat="51.532518" lon="-0.01152"><ele>5</ele></trkpt>
      <trkpt lat="51.532562" lon="-0.011574"><ele>5</ele></trkpt>
      <trkpt lat="51.532562" lon="-0.011584"><ele>5</ele></trkpt>
      <trkpt lat="51.532568" lon="-0.01159"><ele>5</ele></trkpt>
      <trkpt lat="51.532653" lon="-0.011679"><ele>5</ele></trkpt>
      <trkpt lat="51.532734" lon="-0.011733"><ele>5</ele></trkpt>
      <trkpt lat="51.53286" lon="-0.011762"><ele>5</ele></trkpt>
      <trkpt lat="51.532973" lon="-0.011847"><ele>5</ele></trkpt>
      <trkpt lat="51.533203" lon="-0.012055"><ele>5</ele></trkpt>
      <trkpt lat="51.533279" lon="-0.012113"><ele>5</ele></trkpt>
      <trkpt lat="51.533515" lon="-0.012359"><ele>4.5</ele></trkpt>
      <trkpt lat="51.533642" lon="-0.012521"><ele>4.75</ele></trkpt>
      <trkpt lat="51.533787" lon="-0.012725"><ele>4.25</ele></trkpt>
      <trkpt lat="51.533811" lon="-0.012752"><ele>4.25</ele></trkpt>
      <trkpt lat="51.533846" lon="-0.012768"><ele>4</ele></trkpt>
      <trkpt lat="51.53391" lon="-0.012752"><ele>4</ele></trkpt>
      <trkpt lat="51.533955" lon="-0.01271"><ele>4</ele></trkpt>
      <trkpt lat="51.534052" lon="-0.012498"><ele>4</ele></trkpt>
      <trkpt lat="51.53406" lon="-0.012509"><ele>4</ele></trkpt>
      <trkpt lat="51.534091" lon="-0.012553"><ele>4</ele></trkpt>
      <trkpt lat="51.534117" lon="-0.012588"><ele>4</ele></trkpt>
      <trkpt lat="51.534124" lon="-0.012592"><ele>4</ele></trkpt>
      <trkpt lat="51.53419" lon="-0.012628"><ele>4</ele></trkpt>
      <trkpt lat="51.534307" lon="-0.012726"><ele>4</ele></trkpt>
      <trkpt lat="51.53419" lon="-0.012628"><ele>4</ele></trkpt>
      <trkpt lat="51.53428" lon="-0.012519"><ele>4</ele></trkpt>
      <trkpt lat="51.534288" lon="-0.01251"><ele>4</ele></trkpt>
      <trkpt lat="51.534309" lon="-0.012475"><ele>4</ele></trkpt>
      <trkpt lat="51.53433" lon="-0.012442"><ele>4</ele></trkpt>
      <trkpt lat="51.534344" lon="-0.012418"><ele>4</ele></trkpt>
      <trkpt lat="51.534356" lon="-0.012397"><ele>4.25</ele></trkpt>
      <trkpt lat="51.534434" lon="-0.01227"><ele>4.75</ele></trkpt>
      <trkpt lat="51.53447" lon="-0.012207"><ele>4.75</ele></trkpt>
      <trkpt lat="51.535029" lon="-0.011605"><ele>6</ele></trkpt>
      <trkpt lat="51.535067" lon="-0.011561"><ele>6.25</ele></trkpt>
      <trkpt lat="51.535139" lon="-0.01149"><ele>6.25</ele></trkpt>
      <trkpt lat="51.535047" lon="-0.010925"><ele>7</ele></trkpt>
      <trkpt lat="51.534981" lon="-0.010683"><ele>7.25</ele></trkpt>
      <trkpt lat="51.534514" lon="-0.008155"><ele>9.5</ele></trkpt>
      <trkpt lat="51.534508" lon="-0.008117"><ele>9.75</ele></trkpt>
      <trkpt lat="51.534498" lon="-0.008056"><ele>9.75</ele></trkpt>
      <trkpt lat="51.534488" lon="-0.008023"><ele>9.25</ele></trkpt>
      <trkpt lat="51.53443" lon="-0.007841"><ele>5.75</ele></trkpt>
      <trkpt lat="51.534307" lon="-0.007363"><ele>4.75</ele></trkpt>
      <trkpt lat="51.534257" lon="-0.007097"><ele>6.5</ele></trkpt>
      <trkpt lat="51.53425" lon="-0.00704"><ele>6.75</ele></trkpt>
      <trkpt lat="51.534262" lon="-0.007023"><ele>6.75</ele></trkpt>
      <trkpt lat="51.534522" lon="-0.006728"><ele>6.25</ele></trkpt>
      <trkpt lat="51.53468" lon="-0.006543"><ele>6.5</ele></trkpt>
      <trkpt lat="51.534669" lon="-0.006521"><ele>6.5</ele></trkpt>
      <trkpt lat="51.534665" lon="-0.006513"><ele>6.5</ele></trkpt>
      <trkpt lat="51.534706" lon="-0.006462"><ele>6.75</ele></trkpt>
      <trkpt lat="51.534727" lon="-0.006413"><ele>6.75</ele></trkpt>
      <trkpt lat="51.535097" lon="-0.00598"><ele>5.75</ele></trkpt>
      <trkpt lat="51.53512" lon="-0.005867"><ele>5.5</ele></trkpt>
      <trkpt lat="51.535174" lon="-0.005807"><ele>5.25</ele></trkpt>
      <trkpt lat="51.535226" lon="-0.005751"><ele>5</ele></trkpt>
      <trkpt lat="51.535284" lon="-0.005669"><ele>4.75</ele></trkpt>
      <trkpt lat="51.535352" lon="-0.005581"><ele>4.75</ele></trkpt>
      <trkpt lat="51.535465" lon="-0.005464"><ele>5</ele></trkpt>
      <trkpt lat="51.535737" lon="-0.005112"><ele>4.5</ele></trkpt>
      <trkpt lat="51.536087" lon="-0.004639"><ele>4.75</ele></trkpt>
      <trkpt lat="51.536124" lon="-0.004598"><ele>5</ele></trkpt>
      <trkpt lat="51.5362" lon="-0.004493"><ele>5</ele></trkpt>
      <trkpt lat="51.536213" lon="-0.004472"><ele>5</ele></trkpt>
      <trkpt lat="51.536249" lon="-0.004517"><ele>5</ele></trkpt>
      <trkpt lat="51.536273" lon="-0.004503"><ele>5</ele></trkpt>
      <trkpt lat="51.536279" lon="-0.004505"><ele>5</ele></trkpt>
      <trkpt lat="51.536298" lon="-0.004481"><ele>5</ele></trkpt>
      <trkpt lat="51.536333" lon="-0.004438"><ele>5</ele></trkpt>
      <trkpt lat="51.536353" lon="-0.004426"><ele>5</ele></trkpt>
      <trkpt lat="51.536392" lon="-0.004444"><ele>5</ele></trkpt>
      <trkpt lat="51.536424" lon="-0.004494"><ele>4.75</ele></trkpt>
      <trkpt lat="51.536442" lon="-0.004469"><ele>4.75</ele></trkpt>
      <trkpt lat="51.536456" lon="-0.004448"><ele>4.75</ele></trkpt>
      <trkpt lat="51.536475" lon="-0.004478"><ele>4.75</ele></trkpt>
      <trkpt lat="51.536539" lon="-0.004508"><ele>4.75</ele></trkpt>
      <trkpt lat="51.536588" lon="-0.004589"><ele>4.5</ele></trkpt>
      <trkpt lat="51.536703" lon="-0.004748"><ele>4</ele></trkpt>
      <trkpt lat="51.536739" lon="-0.004705"><ele>4</ele></trkpt>
      <trkpt lat="51.53701" lon="-0.004432"><ele>4</ele></trkpt>
      <trkpt lat="51.537375" lon="-0.004079"><ele>4</ele></trkpt>
      <trkpt lat="51.537391" lon="-0.004063"><ele>4</ele></trkpt>
      <trkpt lat="51.537417" lon="-0.004038"><ele>4</ele></trkpt>
      <trkpt lat="51.538049" lon="-0.003931"><ele>4</ele></trkpt>
      <trkpt lat="51.538071" lon="-0.00426"><ele>4</ele></trkpt>
      <trkpt lat="51.538093" lon="-0.004285"><ele>4</ele></trkpt>
      <trkpt lat="51.538103" lon="-0.004344"><ele>4</ele></trkpt>
      <trkpt lat="51.538323" lon="-0.004307"><ele>4</ele></trkpt>
      <trkpt lat="51.538326" lon="-0.004421"><ele>4</ele></trkpt>
      <trkpt lat="51.538355" lon="-0.004439"><ele>3.75</ele></trkpt>
      <trkpt lat="51.538395" lon="-0.004434"><ele>3.75</ele></trkpt>
      <trkpt lat="51.538551" lon="-0.004408"><ele>3.25</ele></trkpt>
      <trkpt lat="51.538807" lon="-0.00437"><ele>3</ele></trkpt>
      <trkpt lat="51.538789" lon="-0.004108"><ele>3.25</ele></trkpt>
      <trkpt lat="51.53886" lon="-0.004098"><ele>3</ele></trkpt>
      <trkpt lat="51.538918" lon="-0.004086"><ele>3</ele></trkpt>
      <trkpt lat="51.539516" lon="-0.00397"><ele>3.25</ele></trkpt>
      <trkpt lat="51.539534" lon="-0.003966"><ele>3.25</ele></trkpt>
      <trkpt lat="51.539555" lon="-0.00402"><ele>3.25</ele></trkpt>
      <trkpt lat="51.539578" lon="-0.004047"><ele>3.25</ele></trkpt>
      <trkpt lat="51.539597" lon="-0.004051"><ele>3.5</ele></trkpt>
      <trkpt lat="51.539851" lon="-0.003993"><ele>4</ele></trkpt>
      <trkpt lat="51.539931" lon="-0.003974"><ele>4</ele></trkpt>
      <trkpt lat="51.540167" lon="-0.00392"><ele>4</ele></trkpt>
      <trkpt lat="51.540259" lon="-0.003958"><ele>4</ele></trkpt>
      <trkpt lat="51.540291" lon="-0.003999"><ele>4</ele></trkpt>
      <trkpt lat="51.540336" lon="-0.00395"><ele>4</ele></trkpt>
      <trkpt lat="51.540379" lon="-0.003909"><ele>4</ele></trkpt>
      <trkpt lat="51.540454" lon="-0.003872"><ele>4</ele></trkpt>
      <trkpt lat="51.540481" lon="-0.00386"><ele>4</ele></trkpt>
      <trkpt lat="51.54049" lon="-0.003857"><ele>4</ele></trkpt>
      <trkpt lat="51.540578" lon="-0.003835"><ele>4</ele></trkpt>
      <trkpt lat="51.540619" lon="-0.003847"><ele>4</ele></trkpt>
      <trkpt lat="51.540702" lon="-0.003829"><ele>4.25</ele></trkpt>
      <trkpt lat="51.540741" lon="-0.003806"><ele>4.25</ele></trkpt>
      <trkpt lat="51.540785" lon="-0.00376"><ele>4.25</ele></trkpt>
      <trkpt lat="51.540835" lon="-0.003691"><ele>4.25</ele></trkpt>
      <trkpt lat="51.540877" lon="-0.003627"><ele>4</ele></trkpt>
      <trkpt lat="51.540939" lon="-0.003533"><ele>4</ele></trkpt>
      <trkpt lat="51.541022" lon="-0.003595"><ele>4</ele></trkpt>
      <trkpt lat="51.541063" lon="-0.003538"><ele>4</ele></trkpt>
      <trkpt lat="51.541086" lon="-0.003506"><ele>4</ele></trkpt>
      <trkpt lat="51.541109" lon="-0.003474"><ele>4</ele></trkpt>
      <trkpt lat="51.541132" lon="-0.003442"><ele>4</ele></trkpt>
      <trkpt lat="51.541155" lon="-0.00341"><ele>4</ele></trkpt>
      <trkpt lat="51.541267" lon="-0.003516"><ele>4.5</ele></trkpt>
      <trkpt lat="51.541279" lon="-0.00354"><ele>4.75</ele></trkpt>
      <trkpt lat="51.541308" lon="-0.0035"><ele>4.75</ele></trkpt>
      <trkpt lat="51.541466" lon="-0.003272"><ele>4.5</ele></trkpt>
      <trkpt lat="51.541488" lon="-0.003242"><ele>4.75</ele></trkpt>
      <trkpt lat="51.54152" lon="-0.003199"><ele>4.75</ele></trkpt>
      <trkpt lat="51.541547" lon="-0.00316"><ele>4.75</ele></trkpt>
      <trkpt lat="51.541536" lon="-0.003138"><ele>4.75</ele></trkpt>
      <trkpt lat="51.54149" lon="-0.002945"><ele>4</ele></trkpt>
      <trkpt lat="51.541571" lon="-0.003089"><ele>4.75</ele></trkpt>
      <trkpt lat="51.541734" lon="-0.003357"><ele>7</ele></trkpt>
      <trkpt lat="51.541767" lon="-0.003304"><ele>6.5</ele></trkpt>
      <trkpt lat="51.541734" lon="-0.003357"><ele>7</ele></trkpt>
      <trkpt lat="51.541832" lon="-0.003519"><ele>7</ele></trkpt>
      <trkpt lat="51.541925" lon="-0.00367"><ele>7</ele></trkpt>
      <trkpt lat="51.542026" lon="-0.003837"><ele>7</ele></trkpt>
      <trkpt lat="51.542071" lon="-0.003911"><ele>7.25</ele></trkpt>
      <trkpt lat="51.54213" lon="-0.004086"><ele>7.75</ele></trkpt>
      <trkpt lat="51.542225" lon="-0.00436"><ele>8.25</ele></trkpt>
      <trkpt lat="51.542305" lon="-0.004468"><ele>8.5</ele></trkpt>
      <trkpt lat="51.542354" lon="-0.004612"><ele>9</ele></trkpt>
      <trkpt lat="51.542377" lon="-0.004679"><ele>9</ele></trkpt>
      <trkpt lat="51.54243" lon="-0.00463"><ele>9</ele></trkpt>
      <trkpt lat="51.54259" lon="-0.004484"><ele>8.5</ele></trkpt>
      <trkpt lat="51.5426" lon="-0.004517"><ele>8.5</ele></trkpt>
      <trkpt lat="51.542606" lon="-0.004536"><ele>8.5</ele></trkpt>
      <trkpt lat="51.542628" lon="-0.004604"><ele>8.5</ele></trkpt>
      <trkpt lat="51.542653" lon="-0.004685"><ele>8.25</ele></trkpt>
      <trkpt lat="51.542654" lon="-0.004722"><ele>8.25</ele></trkpt>
      <trkpt lat="51.542862" lon="-0.004811"><ele>9.25</ele></trkpt>
      <trkpt lat="51.542881" lon="-0.004829"><ele>9.5</ele></trkpt>
      <trkpt lat="51.542932" lon="-0.004883"><ele>10.5</ele></trkpt>
      <trkpt lat="51.543028" lon="-0.004979"><ele>12.25</ele></trkpt>
      <trkpt lat="51.543052" lon="-0.005"><ele>12.75</ele></trkpt>
      <trkpt lat="51.543062" lon="-0.004976"><ele>12.75</ele></trkpt>
      <trkpt lat="51.543121" lon="-0.005038"><ele>13.25</ele></trkpt>
      <trkpt lat="51.543241" lon="-0.005204"><ele>13.75</ele></trkpt>
      <trkpt lat="51.543304" lon="-0.005292"><ele>14</ele></trkpt>
      <trkpt lat="51.543401" lon="-0.005449"><ele>14.25</ele></trkpt>
      <trkpt lat="51.543479" lon="-0.005588"><ele>14.25</ele></trkpt>
      <trkpt lat="51.543557" lon="-0.005747"><ele>14</ele></trkpt>
      <trkpt lat="51.543643" lon="-0.005952"><ele>14</ele></trkpt>
      <trkpt lat="51.543745" lon="-0.006253"><ele>14</ele></trkpt>
      <trkpt lat="51.543782" lon="-0.00639"><ele>14</ele></trkpt>
      <trkpt lat="51.54382" lon="-0.006547"><ele>14</ele></trkpt>
      <trkpt lat="51.543861" lon="-0.00676"><ele>14</ele></trkpt>
      <trkpt lat="51.543897" lon="-0.006992"><ele>13.75</ele></trkpt>
      <trkpt lat="51.543914" lon="-0.007132"><ele>13.5</ele></trkpt>
      <trkpt lat="51.543923" lon="-0.00727"><ele>13.5</ele></trkpt>
      <trkpt lat="51.543934" lon="-0.007453"><ele>13.25</ele></trkpt>
      <trkpt lat="51.543936" lon="-0.007796"><ele>13.5</ele></trkpt>
      <trkpt lat="51.543918" lon="-0.008085"><ele>13.75</ele></trkpt>
      <trkpt lat="51.543864" lon="-0.0085"><ele>13.25</ele></trkpt>
      <trkpt lat="51.544028" lon="-0.008499"><ele>11.5</ele></trkpt>
      <trkpt lat="51.544028" lon="-0.008514"><ele>11.5</ele></trkpt>
      <trkpt lat="51.544087" lon="-0.008511"><ele>10.75</ele></trkpt>
      <trkpt lat="51.544086" lon="-0.008464"><ele>11.25</ele></trkpt>
      <trkpt lat="51.544086" lon="-0.008448"><ele>11.5</ele></trkpt>
      <trkpt lat="51.544296" lon="-0.008437"><ele>9</ele></trkpt>
      <trkpt lat="51.544334" lon="-0.008458"><ele>8</ele></trkpt>
      <trkpt lat="51.544392" lon="-0.008459"><ele>7.75</ele></trkpt>
      <trkpt lat="51.544449" lon="-0.008454"><ele>7.75</ele></trkpt>
      <trkpt lat="51.544767" lon="-0.008451"><ele>7.5</ele></trkpt>
      <trkpt lat="51.544857" lon="-0.008451"><ele>7.5</ele></trkpt>
      <trkpt lat="51.545419" lon="-0.008446"><ele>7</ele></trkpt>
      <trkpt lat="51.545444" lon="-0.008454"><ele>7</ele></trkpt>
      <trkpt lat="51.545463" lon="-0.008454"><ele>7</ele></trkpt>
      <trkpt lat="51.545465" lon="-0.008545"><ele>7</ele></trkpt>
      <trkpt lat="51.545472" lon="-0.009075"><ele>6.5</ele></trkpt>
      <trkpt lat="51.545488" lon="-0.009223"><ele>6</ele></trkpt>
      <trkpt lat="51.545486" lon="-0.009644"><ele>6.25</ele></trkpt>
    </trkseg>
  </trk>
</gpx>
