<?xml version="1.0" encoding="UTF-8"?>
<gpx version="1.1" creator="TubeRun route generator" xmlns="http://www.topografix.com/GPX/1/1">
  <metadata>
    <name>Great Northern — TubeRun</name>
    <desc>Above-ground running route tracing the Great Northern line, station to station. Routed on pavements and footways from OpenStreetMap data (BRouter, shortest).</desc>
    <author><name>TubeRun</name></author>
    <copyright author="OpenStreetMap contributors"><license>https://opendatacommons.org/licenses/odbl/1-0/</license></copyright>
    <link href="https://www.openstreetmap.org/copyright"><text>© OpenStreetMap contributors</text></link>
    <time>2026-07-13T15:18:54.944Z</time>
  </metadata>
  <wpt lat="51.79886" lon="-0.09179"><name>Hertford North</name></wpt>
  <wpt lat="51.75772" lon="-0.09561"><name>Bayford</name></wpt>
  <wpt lat="51.70872" lon="-0.10978"><name>Cuffley</name></wpt>
  <wpt lat="51.68449" lon="-0.10689"><name>Crews Hill</name></wpt>
  <wpt lat="51.66358" lon="-0.09499"><name>Gordon Hill</name></wpt>
  <wpt lat="51.65325" lon="-0.0907"><name>Enfield Chase</name></wpt>
  <wpt lat="51.64261" lon="-0.09736"><name>Grange Park</name></wpt>
  <wpt lat="51.63394" lon="-0.1009"><name>Winchmore Hill</name></wpt>
  <wpt lat="51.61831" lon="-0.11044"><name>Palmers Green</name></wpt>
  <wpt lat="51.60701" lon="-0.12058"><name>Bowes Park</name></wpt>
  <wpt lat="51.59792" lon="-0.12023"><name>Alexandra Palace</name></wpt>
  <wpt lat="51.58646" lon="-0.11197"><name>Hornsey</name></wpt>
  <wpt lat="51.57736" lon="-0.10514"><name>Harringay</name></wpt>
  <wpt lat="51.5643" lon="-0.10628"><name>Finsbury Park</name></wpt>
  <trk>
    <name>Great Northern — TubeRun</name>
    <trkseg>
      <trkpt lat="51.798821" lon="-0.091738"><ele>40</ele></trkpt>
      <trkpt lat="51.798823" lon="-0.091736"><ele>40</ele></trkpt>
      <trkpt lat="51.798873" lon="-0.091643"><ele>40</ele></trkpt>
      <trkpt lat="51.798885" lon="-0.09162"><ele>40</ele></trkpt>
      <trkpt lat="51.798847" lon="-0.091562"><ele>40.75</ele></trkpt>
      <trkpt lat="51.798867" lon="-0.091521"><ele>40.75</ele></trkpt>
      <trkpt lat="51.798883" lon="-0.091489"><ele>40.5</ele></trkpt>
      <trkpt lat="51.798847" lon="-0.091444"><ele>41</ele></trkpt>
      <trkpt lat="51.798678" lon="-0.09122"><ele>41.25</ele></trkpt>
      <trkpt lat="51.798465" lon="-0.090922"><ele>40.75</ele></trkpt>
      <trkpt lat="51.798366" lon="-0.090777"><ele>40.5</ele></trkpt>
      <trkpt lat="51.798135" lon="-0.090372"><ele>40.25</ele></trkpt>
      <trkpt lat="51.797968" lon="-0.090028"><ele>40.75</ele></trkpt>
      <trkpt lat="51.797859" lon="-0.089752"><ele>41.25</ele></trkpt>
      <trkpt lat="51.797596" lon="-0.088951"><ele>40.75</ele></trkpt>
      <trkpt lat="51.797388" lon="-0.088439"><ele>39.75</ele></trkpt>
      <trkpt lat="51.797339" lon="-0.088324"><ele>39.5</ele></trkpt>
      <trkpt lat="51.79726" lon="-0.088139"><ele>39.75</ele></trkpt>
      <trkpt lat="51.797067" lon="-0.087771"><ele>40</ele></trkpt>
      <trkpt lat="51.79694" lon="-0.087547"><ele>40</ele></trkpt>
      <trkpt lat="51.7969" lon="-0.087495"><ele>40</ele></trkpt>
      <trkpt lat="51.796881" lon="-0.08747"><ele>40</ele></trkpt>
      <trkpt lat="51.796868" lon="-0.087454"><ele>40</ele></trkpt>
      <trkpt lat="51.796864" lon="-0.087449"><ele>40</ele></trkpt>
      <trkpt lat="51.796816" lon="-0.087395"><ele>40.25</ele></trkpt>
      <trkpt lat="51.796719" lon="-0.087314"><ele>40.25</ele></trkpt>
      <trkpt lat="51.796692" lon="-0.087071"><ele>40</ele></trkpt>
      <trkpt lat="51.796672" lon="-0.086967"><ele>40</ele></trkpt>
      <trkpt lat="51.79661" lon="-0.086704"><ele>39.25</ele></trkpt>
      <trkpt lat="51.796573" lon="-0.086519"><ele>39.25</ele></trkpt>
      <trkpt lat="51.796549" lon="-0.086336"><ele>39.25</ele></trkpt>
      <trkpt lat="51.796501" lon="-0.085961"><ele>39.5</ele></trkpt>
      <trkpt lat="51.796456" lon="-0.085597"><ele>39.75</ele></trkpt>
      <trkpt lat="51.796404" lon="-0.085177"><ele>39.75</ele></trkpt>
      <trkpt lat="51.796385" lon="-0.085039"><ele>40</ele></trkpt>
      <trkpt lat="51.796345" lon="-0.084807"><ele>40</ele></trkpt>
      <trkpt lat="51.796318" lon="-0.084668"><ele>40</ele></trkpt>
      <trkpt lat="51.796256" lon="-0.084401"><ele>39.75</ele></trkpt>
      <trkpt lat="51.796243" lon="-0.084349"><ele>39.75</ele></trkpt>
      <trkpt lat="51.796155" lon="-0.083995"><ele>39.75</ele></trkpt>
      <trkpt lat="51.796098" lon="-0.083746"><ele>39.75</ele></trkpt>
      <trkpt lat="51.796084" lon="-0.083659"><ele>39.75</ele></trkpt>
      <trkpt lat="51.796076" lon="-0.083472"><ele>40</ele></trkpt>
      <trkpt lat="51.796083" lon="-0.083354"><ele>40</ele></trkpt>
      <trkpt lat="51.796097" lon="-0.083258"><ele>40</ele></trkpt>
      <trkpt lat="51.796122" lon="-0.083152"><ele>39.75</ele></trkpt>
      <trkpt lat="51.795976" lon="-0.083071"><ele>40</ele></trkpt>
      <trkpt lat="51.795796" lon="-0.08301"><ele>40</ele></trkpt>
      <trkpt lat="51.795508" lon="-0.083097"><ele>39.75</ele></trkpt>
      <trkpt lat="51.79541" lon="-0.082963"><ele>39.5</ele></trkpt>
      <trkpt lat="51.795434" lon="-0.082897"><ele>39.75</ele></trkpt>
      <trkpt lat="51.795267" lon="-0.082656"><ele>39.75</ele></trkpt>
      <trkpt lat="51.794962" lon="-0.082238"><ele>39.75</ele></trkpt>
      <trkpt lat="51.79484" lon="-0.082058"><ele>40</ele></trkpt>
      <trkpt lat="51.794394" lon="-0.081443"><ele>41.75</ele></trkpt>
      <trkpt lat="51.794315" lon="-0.081422"><ele>41.75</ele></trkpt>
      <trkpt lat="51.79427" lon="-0.08143"><ele>41.75</ele></trkpt>
      <trkpt lat="51.794251" lon="-0.081446"><ele>41.75</ele></trkpt>
      <trkpt lat="51.79416" lon="-0.081645"><ele>41</ele></trkpt>
      <trkpt lat="51.794088" lon="-0.081802"><ele>41.25</ele></trkpt>
      <trkpt lat="51.794059" lon="-0.081774"><ele>41.5</ele></trkpt>
      <trkpt lat="51.794004" lon="-0.081907"><ele>41.5</ele></trkpt>
      <trkpt lat="51.793912" lon="-0.082163"><ele>41.75</ele></trkpt>
      <trkpt lat="51.793749" lon="-0.082599"><ele>42.5</ele></trkpt>
      <trkpt lat="51.793677" lon="-0.082774"><ele>42.5</ele></trkpt>
      <trkpt lat="51.793641" lon="-0.082867"><ele>42.75</ele></trkpt>
      <trkpt lat="51.793488" lon="-0.083262"><ele>43.75</ele></trkpt>
      <trkpt lat="51.793254" lon="-0.0838"><ele>44.25</ele></trkpt>
      <trkpt lat="51.793091" lon="-0.08423"><ele>45.25</ele></trkpt>
      <trkpt lat="51.792822" lon="-0.085002"><ele>46.5</ele></trkpt>
      <trkpt lat="51.792665" lon="-0.085395"><ele>46</ele></trkpt>
      <trkpt lat="51.792577" lon="-0.085583"><ele>45.75</ele></trkpt>
      <trkpt lat="51.792504" lon="-0.085701"><ele>45.75</ele></trkpt>
      <trkpt lat="51.792436" lon="-0.085786"><ele>45.5</ele></trkpt>
      <trkpt lat="51.792365" lon="-0.085855"><ele>45.25</ele></trkpt>
      <trkpt lat="51.792226" lon="-0.08595"><ele>45</ele></trkpt>
      <trkpt lat="51.79216" lon="-0.085971"><ele>45</ele></trkpt>
      <trkpt lat="51.79195" lon="-0.08599"><ele>45.5</ele></trkpt>
      <trkpt lat="51.791893" lon="-0.085988"><ele>45.75</ele></trkpt>
      <trkpt lat="51.791117" lon="-0.085951"><ele>45.75</ele></trkpt>
      <trkpt lat="51.790667" lon="-0.085886"><ele>43.5</ele></trkpt>
      <trkpt lat="51.790374" lon="-0.085818"><ele>42.5</ele></trkpt>
      <trkpt lat="51.789853" lon="-0.085756"><ele>42</ele></trkpt>
      <trkpt lat="51.789478" lon="-0.085714"><ele>42.25</ele></trkpt>
      <trkpt lat="51.789275" lon="-0.085637"><ele>42.5</ele></trkpt>
      <trkpt lat="51.789148" lon="-0.085603"><ele>42.5</ele></trkpt>
      <trkpt lat="51.789042" lon="-0.085538"><ele>42.75</ele></trkpt>
      <trkpt lat="51.788895" lon="-0.085501"><ele>42.75</ele></trkpt>
      <trkpt lat="51.788745" lon="-0.085478"><ele>42.5</ele></trkpt>
      <trkpt lat="51.788685" lon="-0.085481"><ele>42.25</ele></trkpt>
      <trkpt lat="51.788571" lon="-0.085487"><ele>42</ele></trkpt>
      <trkpt lat="51.788453" lon="-0.085479"><ele>42.25</ele></trkpt>
      <trkpt lat="51.788304" lon="-0.085474"><ele>42.25</ele></trkpt>
      <trkpt lat="51.788191" lon="-0.085509"><ele>42</ele></trkpt>
      <trkpt lat="51.788029" lon="-0.085591"><ele>41.75</ele></trkpt>
      <trkpt lat="51.787798" lon="-0.085729"><ele>41.75</ele></trkpt>
      <trkpt lat="51.7874" lon="-0.085948"><ele>41.75</ele></trkpt>
      <trkpt lat="51.78716" lon="-0.086085"><ele>42</ele></trkpt>
      <trkpt lat="51.786887" lon="-0.086226"><ele>42</ele></trkpt>
      <trkpt lat="51.786796" lon="-0.086276"><ele>42</ele></trkpt>
      <trkpt lat="51.786613" lon="-0.086351"><ele>42</ele></trkpt>
      <trkpt lat="51.786446" lon="-0.08644"><ele>42</ele></trkpt>
      <trkpt lat="51.786428" lon="-0.086386"><ele>42</ele></trkpt>
      <trkpt lat="51.786403" lon="-0.086311"><ele>42.25</ele></trkpt>
      <trkpt lat="51.786342" lon="-0.086342"><ele>42</ele></trkpt>
      <trkpt lat="51.786262" lon="-0.086368"><ele>42</ele></trkpt>
      <trkpt lat="51.786217" lon="-0.086332"><ele>42</ele></trkpt>
      <trkpt lat="51.786183" lon="-0.086279"><ele>42</ele></trkpt>
      <trkpt lat="51.786155" lon="-0.086234"><ele>42</ele></trkpt>
      <trkpt lat="51.786121" lon="-0.086175"><ele>42</ele></trkpt>
      <trkpt lat="51.786051" lon="-0.086055"><ele>42</ele></trkpt>
      <trkpt lat="51.785136" lon="-0.084953"><ele>43.5</ele></trkpt>
      <trkpt lat="51.784695" lon="-0.084455"><ele>44</ele></trkpt>
      <trkpt lat="51.783921" lon="-0.083625"><ele>44.75</ele></trkpt>
      <trkpt lat="51.783428" lon="-0.083003"><ele>46.25</ele></trkpt>
      <trkpt lat="51.783372" lon="-0.083109"><ele>46.5</ele></trkpt>
      <trkpt lat="51.783338" lon="-0.08316"><ele>46.75</ele></trkpt>
      <trkpt lat="51.783299" lon="-0.0832"><ele>47</ele></trkpt>
      <trkpt lat="51.783266" lon="-0.083215"><ele>47</ele></trkpt>
      <trkpt lat="51.783175" lon="-0.083223"><ele>47.5</ele></trkpt>
      <trkpt lat="51.783084" lon="-0.083245"><ele>47.75</ele></trkpt>
      <trkpt lat="51.782985" lon="-0.08331"><ele>48.5</ele></trkpt>
      <trkpt lat="51.782703" lon="-0.083568"><ele>50</ele></trkpt>
      <trkpt lat="51.782676" lon="-0.083607"><ele>50</ele></trkpt>
      <trkpt lat="51.782661" lon="-0.083643"><ele>50</ele></trkpt>
      <trkpt lat="51.782569" lon="-0.083692"><ele>50</ele></trkpt>
      <trkpt lat="51.782526" lon="-0.083649"><ele>50</ele></trkpt>
      <trkpt lat="51.782239" lon="-0.083572"><ele>52.25</ele></trkpt>
      <trkpt lat="51.782136" lon="-0.083292"><ele>55.75</ele></trkpt>
      <trkpt lat="51.782075" lon="-0.083374"><ele>55.75</ele></trkpt>
      <trkpt lat="51.781785" lon="-0.083598"><ele>56.5</ele></trkpt>
      <trkpt lat="51.781636" lon="-0.083723"><ele>56.25</ele></trkpt>
      <trkpt lat="51.781267" lon="-0.083819"><ele>57.5</ele></trkpt>
      <trkpt lat="51.781049" lon="-0.083948"><ele>57.5</ele></trkpt>
      <trkpt lat="51.780907" lon="-0.084069"><ele>57.5</ele></trkpt>
      <trkpt lat="51.7807" lon="-0.0843"><ele>57.5</ele></trkpt>
      <trkpt lat="51.780365" lon="-0.084704"><ele>57.25</ele></trkpt>
      <trkpt lat="51.780091" lon="-0.084976"><ele>58.25</ele></trkpt>
      <trkpt lat="51.779813" lon="-0.085194"><ele>58.75</ele></trkpt>
      <trkpt lat="51.779372" lon="-0.085365"><ele>59.75</ele></trkpt>
      <trkpt lat="51.779027" lon="-0.085477"><ele>60.75</ele></trkpt>
      <trkpt lat="51.778801" lon="-0.085528"><ele>61.25</ele></trkpt>
      <trkpt lat="51.778657" lon="-0.085595"><ele>61.5</ele></trkpt>
      <trkpt lat="51.778656" lon="-0.085608"><ele>61.25</ele></trkpt>
      <trkpt lat="51.778652" lon="-0.085644"><ele>61.25</ele></trkpt>
      <trkpt lat="51.778634" lon="-0.085661"><ele>61</ele></trkpt>
      <trkpt lat="51.778623" lon="-0.085702"><ele>60.75</ele></trkpt>
      <trkpt lat="51.778621" lon="-0.085793"><ele>60.25</ele></trkpt>
      <trkpt lat="51.778614" lon="-0.085981"><ele>59.75</ele></trkpt>
      <trkpt lat="51.778613" lon="-0.086057"><ele>59.75</ele></trkpt>
      <trkpt lat="51.778595" lon="-0.086136"><ele>60</ele></trkpt>
      <trkpt lat="51.777919" lon="-0.086078"><ele>61</ele></trkpt>
      <trkpt lat="51.776664" lon="-0.086026"><ele>62.25</ele></trkpt>
      <trkpt lat="51.77558" lon="-0.086172"><ele>63.25</ele></trkpt>
      <trkpt lat="51.774582" lon="-0.08637"><ele>65.75</ele></trkpt>
      <trkpt lat="51.774008" lon="-0.086473"><ele>65.5</ele></trkpt>
      <trkpt lat="51.773888" lon="-0.086505"><ele>65.25</ele></trkpt>
      <trkpt lat="51.773821" lon="-0.086558"><ele>65.5</ele></trkpt>
      <trkpt lat="51.773707" lon="-0.086554"><ele>65.5</ele></trkpt>
      <trkpt lat="51.773653" lon="-0.086584"><ele>65.75</ele></trkpt>
      <trkpt lat="51.773428" lon="-0.086658"><ele>66.75</ele></trkpt>
      <trkpt lat="51.773273" lon="-0.086732"><ele>66.75</ele></trkpt>
      <trkpt lat="51.773209" lon="-0.086733"><ele>66.5</ele></trkpt>
      <trkpt lat="51.773115" lon="-0.08677"><ele>66.5</ele></trkpt>
      <trkpt lat="51.772876" lon="-0.08683"><ele>66</ele></trkpt>
      <trkpt lat="51.772759" lon="-0.086889"><ele>66.25</ele></trkpt>
      <trkpt lat="51.772562" lon="-0.086968"><ele>67</ele></trkpt>
      <trkpt lat="51.772443" lon="-0.086984"><ele>66.5</ele></trkpt>
      <trkpt lat="51.772307" lon="-0.087048"><ele>66</ele></trkpt>
      <trkpt lat="51.772178" lon="-0.087093"><ele>65.75</ele></trkpt>
      <trkpt lat="51.771996" lon="-0.087138"><ele>65.5</ele></trkpt>
      <trkpt lat="51.771602" lon="-0.087253"><ele>64.5</ele></trkpt>
      <trkpt lat="51.7713" lon="-0.087368"><ele>63.25</ele></trkpt>
      <trkpt lat="51.771177" lon="-0.087459"><ele>62.25</ele></trkpt>
      <trkpt lat="51.771063" lon="-0.087581"><ele>61.5</ele></trkpt>
      <trkpt lat="51.770953" lon="-0.087677"><ele>60.75</ele></trkpt>
      <trkpt lat="51.770667" lon="-0.08782"><ele>59.75</ele></trkpt>
      <trkpt lat="51.770617" lon="-0.087846"><ele>59.75</ele></trkpt>
      <trkpt lat="51.770546" lon="-0.087875"><ele>59.5</ele></trkpt>
      <trkpt lat="51.770453" lon="-0.087946"><ele>59.75</ele></trkpt>
      <trkpt lat="51.770278" lon="-0.087988"><ele>60</ele></trkpt>
      <trkpt lat="51.770128" lon="-0.088004"><ele>62</ele></trkpt>
      <trkpt lat="51.769989" lon="-0.088054"><ele>64</ele></trkpt>
      <trkpt lat="51.769757" lon="-0.088239"><ele>62.5</ele></trkpt>
      <trkpt lat="51.769656" lon="-0.088349"><ele>61.75</ele></trkpt>
      <trkpt lat="51.769581" lon="-0.088499"><ele>59.5</ele></trkpt>
      <trkpt lat="51.76951" lon="-0.088609"><ele>58</ele></trkpt>
      <trkpt lat="51.769457" lon="-0.088643"><ele>57.75</ele></trkpt>
      <trkpt lat="51.769375" lon="-0.088661"><ele>58.25</ele></trkpt>
      <trkpt lat="51.769249" lon="-0.088763"><ele>58.25</ele></trkpt>
      <trkpt lat="51.769193" lon="-0.088781"><ele>58.5</ele></trkpt>
      <trkpt lat="51.768913" lon="-0.089021"><ele>58.75</ele></trkpt>
      <trkpt lat="51.768832" lon="-0.089148"><ele>58.25</ele></trkpt>
      <trkpt lat="51.768815" lon="-0.089202"><ele>58</ele></trkpt>
      <trkpt lat="51.768798" lon="-0.089223"><ele>58.25</ele></trkpt>
      <trkpt lat="51.768801" lon="-0.089368"><ele>58</ele></trkpt>
      <trkpt lat="51.768788" lon="-0.089416"><ele>58</ele></trkpt>
      <trkpt lat="51.768775" lon="-0.089448"><ele>58</ele></trkpt>
      <trkpt lat="51.768712" lon="-0.089472"><ele>58</ele></trkpt>
      <trkpt lat="51.768483" lon="-0.089618"><ele>58.5</ele></trkpt>
      <trkpt lat="51.768286" lon="-0.089772"><ele>59.25</ele></trkpt>
      <trkpt lat="51.76798" lon="-0.089959"><ele>60.5</ele></trkpt>
      <trkpt lat="51.767801" lon="-0.090104"><ele>61</ele></trkpt>
      <trkpt lat="51.76761" lon="-0.090213"><ele>62.25</ele></trkpt>
      <trkpt lat="51.767508" lon="-0.090039"><ele>61.25</ele></trkpt>
      <trkpt lat="51.767466" lon="-0.090056"><ele>61.5</ele></trkpt>
      <trkpt lat="51.767056" lon="-0.090348"><ele>62.5</ele></trkpt>
      <trkpt lat="51.766866" lon="-0.090462"><ele>63</ele></trkpt>
      <trkpt lat="51.766673" lon="-0.090568"><ele>64</ele></trkpt>
      <trkpt lat="51.766523" lon="-0.090639"><ele>64.75</ele></trkpt>
      <trkpt lat="51.766286" lon="-0.09073"><ele>65.75</ele></trkpt>
      <trkpt lat="51.76594" lon="-0.091027"><ele>65.75</ele></trkpt>
      <trkpt lat="51.765613" lon="-0.091207"><ele>66.5</ele></trkpt>
      <trkpt lat="51.76538" lon="-0.091393"><ele>67.5</ele></trkpt>
      <trkpt lat="51.764915" lon="-0.091848"><ele>70.25</ele></trkpt>
      <trkpt lat="51.764043" lon="-0.09266"><ele>73.75</ele></trkpt>
      <trkpt lat="51.763538" lon="-0.093151"><ele>76.75</ele></trkpt>
      <trkpt lat="51.763192" lon="-0.093413"><ele>77.5</ele></trkpt>
      <trkpt lat="51.763035" lon="-0.09354"><ele>77.5</ele></trkpt>
      <trkpt lat="51.763004" lon="-0.093581"><ele>77.75</ele></trkpt>
      <trkpt lat="51.762831" lon="-0.09372"><ele>78</ele></trkpt>
      <trkpt lat="51.762747" lon="-0.09378"><ele>77.5</ele></trkpt>
      <trkpt lat="51.762709" lon="-0.093913"><ele>77.5</ele></trkpt>
      <trkpt lat="51.762742" lon="-0.094214"><ele>78.5</ele></trkpt>
      <trkpt lat="51.762753" lon="-0.094359"><ele>78.75</ele></trkpt>
      <trkpt lat="51.762872" lon="-0.09497"><ele>79.75</ele></trkpt>
      <trkpt lat="51.762944" lon="-0.095453"><ele>80.5</ele></trkpt>
      <trkpt lat="51.763049" lon="-0.096006"><ele>82</ele></trkpt>
      <trkpt lat="51.763086" lon="-0.096241"><ele>82.25</ele></trkpt>
      <trkpt lat="51.763094" lon="-0.096274"><ele>82.5</ele></trkpt>
      <trkpt lat="51.763104" lon="-0.096318"><ele>82.5</ele></trkpt>
      <trkpt lat="51.763075" lon="-0.096364"><ele>82.75</ele></trkpt>
      <trkpt lat="51.76306" lon="-0.096533"><ele>83.5</ele></trkpt>
      <trkpt lat="51.763021" lon="-0.096786"><ele>84</ele></trkpt>
      <trkpt lat="51.762955" lon="-0.097082"><ele>84</ele></trkpt>
      <trkpt lat="51.762923" lon="-0.097272"><ele>84.5</ele></trkpt>
      <trkpt lat="51.762907" lon="-0.097448"><ele>84.75</ele></trkpt>
      <trkpt lat="51.7629" lon="-0.09761"><ele>85</ele></trkpt>
      <trkpt lat="51.762922" lon="-0.098053"><ele>85</ele></trkpt>
      <trkpt lat="51.762909" lon="-0.098129"><ele>85</ele></trkpt>
      <trkpt lat="51.762934" lon="-0.098173"><ele>85</ele></trkpt>
      <trkpt lat="51.762941" lon="-0.098211"><ele>85</ele></trkpt>
      <trkpt lat="51.762601" lon="-0.098574"><ele>85.75</ele></trkpt>
      <trkpt lat="51.762283" lon="-0.098861"><ele>86.75</ele></trkpt>
      <trkpt lat="51.762154" lon="-0.09904"><ele>87.5</ele></trkpt>
      <trkpt lat="51.7621" lon="-0.0991"><ele>87.75</ele></trkpt>
      <trkpt lat="51.761982" lon="-0.099261"><ele>88</ele></trkpt>
      <trkpt lat="51.761875" lon="-0.099672"><ele>88</ele></trkpt>
      <trkpt lat="51.761838" lon="-0.099735"><ele>88.25</ele></trkpt>
      <trkpt lat="51.7617" lon="-0.099858"><ele>88.75</ele></trkpt>
      <trkpt lat="51.761602" lon="-0.099921"><ele>89</ele></trkpt>
      <trkpt lat="51.760996" lon="-0.100372"><ele>90.25</ele></trkpt>
      <trkpt lat="51.760844" lon="-0.100504"><ele>90.75</ele></trkpt>
      <trkpt lat="51.760507" lon="-0.100763"><ele>91.75</ele></trkpt>
      <trkpt lat="51.760313" lon="-0.100893"><ele>92</ele></trkpt>
      <trkpt lat="51.759968" lon="-0.101139"><ele>92.75</ele></trkpt>
      <trkpt lat="51.759915" lon="-0.101233"><ele>92.75</ele></trkpt>
      <trkpt lat="51.759776" lon="-0.101614"><ele>92.75</ele></trkpt>
      <trkpt lat="51.759678" lon="-0.101851"><ele>93.5</ele></trkpt>
      <trkpt lat="51.759623" lon="-0.101953"><ele>94</ele></trkpt>
      <trkpt lat="51.75961" lon="-0.101874"><ele>93.5</ele></trkpt>
      <trkpt lat="51.759579" lon="-0.101799"><ele>93.25</ele></trkpt>
      <trkpt lat="51.759503" lon="-0.101658"><ele>93</ele></trkpt>
      <trkpt lat="51.759399" lon="-0.101525"><ele>92.75</ele></trkpt>
      <trkpt lat="51.759368" lon="-0.101495"><ele>92.75</ele></trkpt>
      <trkpt lat="51.759294" lon="-0.10143"><ele>92.5</ele></trkpt>
      <trkpt lat="51.759244" lon="-0.101409"><ele>92.25</ele></trkpt>
      <trkpt lat="51.759091" lon="-0.101387"><ele>91.5</ele></trkpt>
      <trkpt lat="51.758852" lon="-0.101407"><ele>90.75</ele></trkpt>
      <trkpt lat="51.758605" lon="-0.101395"><ele>90</ele></trkpt>
      <trkpt lat="51.758474" lon="-0.101349"><ele>89.75</ele></trkpt>
      <trkpt lat="51.758383" lon="-0.101296"><ele>89.5</ele></trkpt>
      <trkpt lat="51.758288" lon="-0.101216"><ele>89</ele></trkpt>
      <trkpt lat="51.758132" lon="-0.101025"><ele>87.75</ele></trkpt>
      <trkpt lat="51.758022" lon="-0.100846"><ele>87</ele></trkpt>
      <trkpt lat="51.757987" lon="-0.100767"><ele>86.5</ele></trkpt>
      <trkpt lat="51.757937" lon="-0.100618"><ele>85.75</ele></trkpt>
      <trkpt lat="51.757914" lon="-0.100508"><ele>85.5</ele></trkpt>
      <trkpt lat="51.757895" lon="-0.100359"><ele>85.25</ele></trkpt>
      <trkpt lat="51.757786" lon="-0.0986"><ele>78.75</ele></trkpt>
      <trkpt lat="51.757709" lon="-0.09735"><ele>74.25</ele></trkpt>
      <trkpt lat="51.757606" lon="-0.095968"><ele>73.25</ele></trkpt>
      <trkpt lat="51.757579" lon="-0.095642"><ele>73.75</ele></trkpt>
      <trkpt lat="51.757575" lon="-0.095524"><ele>74.25</ele></trkpt>
      <trkpt lat="51.757653" lon="-0.095541"><ele>73.75</ele></trkpt>
      <trkpt lat="51.757629" lon="-0.095681"><ele>73.5</ele></trkpt>
      <trkpt lat="51.75772" lon="-0.095676"><ele>73</ele></trkpt>
      <trkpt lat="51.757629" lon="-0.095681"><ele>73.5</ele></trkpt>
      <trkpt lat="51.757653" lon="-0.095541"><ele>73.75</ele></trkpt>
      <trkpt lat="51.757575" lon="-0.095524"><ele>74.25</ele></trkpt>
      <trkpt lat="51.757556" lon="-0.094999"><ele>75</ele></trkpt>
      <trkpt lat="51.757533" lon="-0.094554"><ele>74.5</ele></trkpt>
      <trkpt lat="51.757503" lon="-0.094341"><ele>75.25</ele></trkpt>
      <trkpt lat="51.75745" lon="-0.094184"><ele>75.75</ele></trkpt>
      <trkpt lat="51.757361" lon="-0.094055"><ele>76.5</ele></trkpt>
      <trkpt lat="51.756922" lon="-0.093685"><ele>80.5</ele></trkpt>
      <trkpt lat="51.756726" lon="-0.093524"><ele>82</ele></trkpt>
      <trkpt lat="51.756215" lon="-0.09295"><ele>88.25</ele></trkpt>
      <trkpt lat="51.755733" lon="-0.092333"><ele>90.25</ele></trkpt>
      <trkpt lat="51.755115" lon="-0.090978"><ele>98</ele></trkpt>
      <trkpt lat="51.754597" lon="-0.089552"><ele>104.25</ele></trkpt>
      <trkpt lat="51.754524" lon="-0.089347"><ele>104.5</ele></trkpt>
      <trkpt lat="51.754269" lon="-0.088621"><ele>106</ele></trkpt>
      <trkpt lat="51.754241" lon="-0.088538"><ele>105.75</ele></trkpt>
      <trkpt lat="51.754232" lon="-0.088454"><ele>105.75</ele></trkpt>
      <trkpt lat="51.754187" lon="-0.088512"><ele>105.75</ele></trkpt>
      <trkpt lat="51.754048" lon="-0.088752"><ele>106.25</ele></trkpt>
      <trkpt lat="51.753788" lon="-0.089137"><ele>106.25</ele></trkpt>
      <trkpt lat="51.753645" lon="-0.089391"><ele>106</ele></trkpt>
      <trkpt lat="51.753158" lon="-0.089421"><ele>107</ele></trkpt>
      <trkpt lat="51.753049" lon="-0.089443"><ele>106.75</ele></trkpt>
      <trkpt lat="51.752869" lon="-0.089544"><ele>106</ele></trkpt>
      <trkpt lat="51.752493" lon="-0.08992"><ele>106</ele></trkpt>
      <trkpt lat="51.752439" lon="-0.09"><ele>106</ele></trkpt>
      <trkpt lat="51.751634" lon="-0.090082"><ele>106.5</ele></trkpt>
      <trkpt lat="51.751468" lon="-0.090119"><ele>106.75</ele></trkpt>
      <trkpt lat="51.751364" lon="-0.090112"><ele>107</ele></trkpt>
      <trkpt lat="51.751094" lon="-0.090376"><ele>107.5</ele></trkpt>
      <trkpt lat="51.750618" lon="-0.090606"><ele>107.75</ele></trkpt>
      <trkpt lat="51.750571" lon="-0.091744"><ele>105.75</ele></trkpt>
      <trkpt lat="51.750379" lon="-0.091915"><ele>106</ele></trkpt>
      <trkpt lat="51.749597" lon="-0.092093"><ele>104.25</ele></trkpt>
      <trkpt lat="51.749663" lon="-0.093015"><ele>100</ele></trkpt>
      <trkpt lat="51.749698" lon="-0.094571"><ele>92.5</ele></trkpt>
      <trkpt lat="51.74978" lon="-0.094796"><ele>91.75</ele></trkpt>
      <trkpt lat="51.74912" lon="-0.095455"><ele>99.25</ele></trkpt>
      <trkpt lat="51.747651" lon="-0.095867"><ele>104.25</ele></trkpt>
      <trkpt lat="51.74719" lon="-0.096272"><ele>105</ele></trkpt>
      <trkpt lat="51.746412" lon="-0.098395"><ele>106.75</ele></trkpt>
      <trkpt lat="51.744914" lon="-0.100057"><ele>111.25</ele></trkpt>
      <trkpt lat="51.744926" lon="-0.100141"><ele>111.25</ele></trkpt>
      <trkpt lat="51.745053" lon="-0.100724"><ele>110.5</ele></trkpt>
      <trkpt lat="51.745122" lon="-0.101118"><ele>110.5</ele></trkpt>
      <trkpt lat="51.744997" lon="-0.101191"><ele>111</ele></trkpt>
      <trkpt lat="51.744854" lon="-0.10138"><ele>111.5</ele></trkpt>
      <trkpt lat="51.744769" lon="-0.101523"><ele>111.75</ele></trkpt>
      <trkpt lat="51.744736" lon="-0.101554"><ele>111.75</ele></trkpt>
      <trkpt lat="51.744685" lon="-0.101654"><ele>112</ele></trkpt>
      <trkpt lat="51.744111" lon="-0.102511"><ele>112</ele></trkpt>
      <trkpt lat="51.743371" lon="-0.103637"><ele>112.75</ele></trkpt>
      <trkpt lat="51.743113" lon="-0.103911"><ele>112.75</ele></trkpt>
      <trkpt lat="51.742841" lon="-0.104157"><ele>113.5</ele></trkpt>
      <trkpt lat="51.742551" lon="-0.104396"><ele>114</ele></trkpt>
      <trkpt lat="51.741938" lon="-0.104818"><ele>114.25</ele></trkpt>
      <trkpt lat="51.741603" lon="-0.105033"><ele>115</ele></trkpt>
      <trkpt lat="51.740988" lon="-0.105507"><ele>115</ele></trkpt>
      <trkpt lat="51.740261" lon="-0.106057"><ele>114.75</ele></trkpt>
      <trkpt lat="51.739811" lon="-0.106379"><ele>114.25</ele></trkpt>
      <trkpt lat="51.739098" lon="-0.106821"><ele>111.75</ele></trkpt>
      <trkpt lat="51.73901" lon="-0.106936"><ele>111.25</ele></trkpt>
      <trkpt lat="51.738975" lon="-0.1071"><ele>111.25</ele></trkpt>
      <trkpt lat="51.739005" lon="-0.10721"><ele>111.25</ele></trkpt>
      <trkpt lat="51.739098" lon="-0.107543"><ele>112.75</ele></trkpt>
      <trkpt lat="51.739261" lon="-0.107991"><ele>112.75</ele></trkpt>
      <trkpt lat="51.739288" lon="-0.108365"><ele>113.5</ele></trkpt>
      <trkpt lat="51.739229" lon="-0.108879"><ele>114</ele></trkpt>
      <trkpt lat="51.7392" lon="-0.109017"><ele>114</ele></trkpt>
      <trkpt lat="51.739182" lon="-0.109076"><ele>114</ele></trkpt>
      <trkpt lat="51.739158" lon="-0.109104"><ele>113.75</ele></trkpt>
      <trkpt lat="51.739098" lon="-0.109136"><ele>113.75</ele></trkpt>
      <trkpt lat="51.73864" lon="-0.109152"><ele>113</ele></trkpt>
      <trkpt lat="51.738041" lon="-0.109141"><ele>112.75</ele></trkpt>
      <trkpt lat="51.737912" lon="-0.109155"><ele>112.75</ele></trkpt>
      <trkpt lat="51.73753" lon="-0.109195"><ele>112</ele></trkpt>
      <trkpt lat="51.736945" lon="-0.109327"><ele>111</ele></trkpt>
      <trkpt lat="51.736383" lon="-0.109457"><ele>108.75</ele></trkpt>
      <trkpt lat="51.736124" lon="-0.10956"><ele>107.5</ele></trkpt>
      <trkpt lat="51.735898" lon="-0.109645"><ele>106.5</ele></trkpt>
      <trkpt lat="51.73565" lon="-0.109667"><ele>105.25</ele></trkpt>
      <trkpt lat="51.735339" lon="-0.109677"><ele>103.5</ele></trkpt>
      <trkpt lat="51.735241" lon="-0.109655"><ele>103</ele></trkpt>
      <trkpt lat="51.735138" lon="-0.109611"><ele>102.5</ele></trkpt>
      <trkpt lat="51.734955" lon="-0.109464"><ele>101.75</ele></trkpt>
      <trkpt lat="51.734868" lon="-0.109375"><ele>101.5</ele></trkpt>
      <trkpt lat="51.734844" lon="-0.109371"><ele>101.25</ele></trkpt>
      <trkpt lat="51.73478" lon="-0.109364"><ele>101</ele></trkpt>
      <trkpt lat="51.734497" lon="-0.109425"><ele>99.25</ele></trkpt>
      <trkpt lat="51.734256" lon="-0.10951"><ele>97.5</ele></trkpt>
      <trkpt lat="51.734219" lon="-0.109544"><ele>97.25</ele></trkpt>
      <trkpt lat="51.734152" lon="-0.109604"><ele>96.75</ele></trkpt>
      <trkpt lat="51.734" lon="-0.10981"><ele>95.5</ele></trkpt>
      <trkpt lat="51.733915" lon="-0.109934"><ele>94.25</ele></trkpt>
      <trkpt lat="51.733558" lon="-0.110635"><ele>90</ele></trkpt>
      <trkpt lat="51.733482" lon="-0.110783"><ele>88.75</ele></trkpt>
      <trkpt lat="51.733198" lon="-0.111287"><ele>84.5</ele></trkpt>
      <trkpt lat="51.73299" lon="-0.111656"><ele>81.25</ele></trkpt>
      <trkpt lat="51.732427" lon="-0.112573"><ele>78.25</ele></trkpt>
      <trkpt lat="51.732089" lon="-0.113094"><ele>83.5</ele></trkpt>
      <trkpt lat="51.731942" lon="-0.113374"><ele>86.25</ele></trkpt>
      <trkpt lat="51.731823" lon="-0.113698"><ele>89.5</ele></trkpt>
      <trkpt lat="51.731651" lon="-0.114216"><ele>92.25</ele></trkpt>
      <trkpt lat="51.731587" lon="-0.11435"><ele>93</ele></trkpt>
      <trkpt lat="51.731394" lon="-0.114517"><ele>94.25</ele></trkpt>
      <trkpt lat="51.730947" lon="-0.114906"><ele>98</ele></trkpt>
      <trkpt lat="51.7305" lon="-0.115248"><ele>99.75</ele></trkpt>
      <trkpt lat="51.730288" lon="-0.115398"><ele>100.25</ele></trkpt>
      <trkpt lat="51.73017" lon="-0.115482"><ele>100</ele></trkpt>
      <trkpt lat="51.730041" lon="-0.115537"><ele>100</ele></trkpt>
      <trkpt lat="51.729954" lon="-0.115509"><ele>100</ele></trkpt>
      <trkpt lat="51.729698" lon="-0.115377"><ele>101.5</ele></trkpt>
      <trkpt lat="51.729501" lon="-0.115226"><ele>102.25</ele></trkpt>
      <trkpt lat="51.72939" lon="-0.115157"><ele>102.75</ele></trkpt>
      <trkpt lat="51.729253" lon="-0.11512"><ele>103.75</ele></trkpt>
      <trkpt lat="51.729114" lon="-0.115118"><ele>104.75</ele></trkpt>
      <trkpt lat="51.728898" lon="-0.115138"><ele>106.25</ele></trkpt>
      <trkpt lat="51.728681" lon="-0.115201"><ele>106</ele></trkpt>
      <trkpt lat="51.728422" lon="-0.115263"><ele>105.75</ele></trkpt>
      <trkpt lat="51.728513" lon="-0.116051"><ele>108</ele></trkpt>
      <trkpt lat="51.728517" lon="-0.116175"><ele>108</ele></trkpt>
      <trkpt lat="51.728495" lon="-0.116296"><ele>108.5</ele></trkpt>
      <trkpt lat="51.728413" lon="-0.116336"><ele>108.75</ele></trkpt>
      <trkpt lat="51.728352" lon="-0.116383"><ele>108.75</ele></trkpt>
      <trkpt lat="51.72824" lon="-0.116496"><ele>109</ele></trkpt>
      <trkpt lat="51.72803" lon="-0.116728"><ele>109</ele></trkpt>
      <trkpt lat="51.727565" lon="-0.117342"><ele>109</ele></trkpt>
      <trkpt lat="51.727146" lon="-0.117888"><ele>108.5</ele></trkpt>
      <trkpt lat="51.727068" lon="-0.117993"><ele>108.25</ele></trkpt>
      <trkpt lat="51.726905" lon="-0.11821"><ele>107.5</ele></trkpt>
      <trkpt lat="51.726811" lon="-0.118314"><ele>107</ele></trkpt>
      <trkpt lat="51.726254" lon="-0.118763"><ele>101.5</ele></trkpt>
      <trkpt lat="51.726164" lon="-0.118832"><ele>100.75</ele></trkpt>
      <trkpt lat="51.725869" lon="-0.119058"><ele>98.25</ele></trkpt>
      <trkpt lat="51.725599" lon="-0.119239"><ele>96.25</ele></trkpt>
      <trkpt lat="51.725169" lon="-0.119494"><ele>93.25</ele></trkpt>
      <trkpt lat="51.724403" lon="-0.119985"><ele>86.75</ele></trkpt>
      <trkpt lat="51.724294" lon="-0.120088"><ele>85.25</ele></trkpt>
      <trkpt lat="51.723533" lon="-0.121151"><ele>74.5</ele></trkpt>
      <trkpt lat="51.723343" lon="-0.121339"><ele>72.25</ele></trkpt>
      <trkpt lat="51.723053" lon="-0.12157"><ele>69</ele></trkpt>
      <trkpt lat="51.722688" lon="-0.121904"><ele>64.5</ele></trkpt>
      <trkpt lat="51.722228" lon="-0.122479"><ele>63</ele></trkpt>
      <trkpt lat="51.722153" lon="-0.122559"><ele>63</ele></trkpt>
      <trkpt lat="51.722112" lon="-0.122604"><ele>63.25</ele></trkpt>
      <trkpt lat="51.721979" lon="-0.12284"><ele>63.75</ele></trkpt>
      <trkpt lat="51.721713" lon="-0.122561"><ele>65.5</ele></trkpt>
      <trkpt lat="51.721128" lon="-0.122089"><ele>70.25</ele></trkpt>
      <trkpt lat="51.719124" lon="-0.121991"><ele>85</ele></trkpt>
      <trkpt lat="51.718629" lon="-0.121836"><ele>84.25</ele></trkpt>
      <trkpt lat="51.71805" lon="-0.121299"><ele>78.5</ele></trkpt>
      <trkpt lat="51.717696" lon="-0.120867"><ele>73.25</ele></trkpt>
      <trkpt lat="51.717471" lon="-0.120497"><ele>71.75</ele></trkpt>
      <trkpt lat="51.717429" lon="-0.120386"><ele>71.75</ele></trkpt>
      <trkpt lat="51.717387" lon="-0.120182"><ele>71.5</ele></trkpt>
      <trkpt lat="51.717302" lon="-0.119669"><ele>71.25</ele></trkpt>
      <trkpt lat="51.717226" lon="-0.119344"><ele>71.5</ele></trkpt>
      <trkpt lat="51.716938" lon="-0.118118"><ele>74</ele></trkpt>
      <trkpt lat="51.716845" lon="-0.117773"><ele>75.5</ele></trkpt>
      <trkpt lat="51.716742" lon="-0.117458"><ele>76.25</ele></trkpt>
      <trkpt lat="51.716611" lon="-0.11712"><ele>77</ele></trkpt>
      <trkpt lat="51.716397" lon="-0.116641"><ele>75.75</ele></trkpt>
      <trkpt lat="51.716276" lon="-0.116403"><ele>75.25</ele></trkpt>
      <trkpt lat="51.716157" lon="-0.116199"><ele>75</ele></trkpt>
      <trkpt lat="51.716082" lon="-0.116086"><ele>74.75</ele></trkpt>
      <trkpt lat="51.71595" lon="-0.115913"><ele>73.75</ele></trkpt>
      <trkpt lat="51.715757" lon="-0.115727"><ele>73.25</ele></trkpt>
      <trkpt lat="51.715619" lon="-0.115611"><ele>73</ele></trkpt>
      <trkpt lat="51.715353" lon="-0.115415"><ele>73</ele></trkpt>
      <trkpt lat="51.715117" lon="-0.11527"><ele>73.5</ele></trkpt>
      <trkpt lat="51.714583" lon="-0.115017"><ele>71.5</ele></trkpt>
      <trkpt lat="51.714308" lon="-0.114897"><ele>69.75</ele></trkpt>
      <trkpt lat="51.714108" lon="-0.114776"><ele>69</ele></trkpt>
      <trkpt lat="51.714022" lon="-0.114697"><ele>68.75</ele></trkpt>
      <trkpt lat="51.713936" lon="-0.114618"><ele>68.75</ele></trkpt>
      <trkpt lat="51.713889" lon="-0.114563"><ele>68.75</ele></trkpt>
      <trkpt lat="51.713847" lon="-0.114481"><ele>69.25</ele></trkpt>
      <trkpt lat="51.713789" lon="-0.114335"><ele>69.25</ele></trkpt>
      <trkpt lat="51.713723" lon="-0.114131"><ele>69.75</ele></trkpt>
      <trkpt lat="51.713634" lon="-0.113864"><ele>70.75</ele></trkpt>
      <trkpt lat="51.713528" lon="-0.113496"><ele>71.75</ele></trkpt>
      <trkpt lat="51.713485" lon="-0.113386"><ele>71.75</ele></trkpt>
      <trkpt lat="51.713371" lon="-0.113159"><ele>72</ele></trkpt>
      <trkpt lat="51.713292" lon="-0.113037"><ele>72</ele></trkpt>
      <trkpt lat="51.713225" lon="-0.112948"><ele>72.25</ele></trkpt>
      <trkpt lat="51.713122" lon="-0.112817"><ele>72.5</ele></trkpt>
      <trkpt lat="51.71303" lon="-0.112742"><ele>73</ele></trkpt>
      <trkpt lat="51.712945" lon="-0.112676"><ele>73.25</ele></trkpt>
      <trkpt lat="51.712651" lon="-0.112501"><ele>74.25</ele></trkpt>
      <trkpt lat="51.712276" lon="-0.112389"><ele>75.75</ele></trkpt>
      <trkpt lat="51.711577" lon="-0.112344"><ele>77.5</ele></trkpt>
      <trkpt lat="51.711298" lon="-0.11231"><ele>76.75</ele></trkpt>
      <trkpt lat="51.711102" lon="-0.112272"><ele>76</ele></trkpt>
      <trkpt lat="51.710987" lon="-0.112237"><ele>75.5</ele></trkpt>
      <trkpt lat="51.710682" lon="-0.112059"><ele>74.75</ele></trkpt>
      <trkpt lat="51.710197" lon="-0.111673"><ele>71.75</ele></trkpt>
      <trkpt lat="51.709623" lon="-0.111101"><ele>67.5</ele></trkpt>
      <trkpt lat="51.709506" lon="-0.111003"><ele>66.5</ele></trkpt>
      <trkpt lat="51.70927" lon="-0.110881"><ele>64.5</ele></trkpt>
      <trkpt lat="51.708951" lon="-0.11074"><ele>63</ele></trkpt>
      <trkpt lat="51.708829" lon="-0.110678"><ele>63</ele></trkpt>
      <trkpt lat="51.708674" lon="-0.110644"><ele>63</ele></trkpt>
      <trkpt lat="51.708674" lon="-0.110644"><ele>63</ele></trkpt>
      <trkpt lat="51.708562" lon="-0.110637"><ele>63</ele></trkpt>
      <trkpt lat="51.708523" lon="-0.110635"><ele>63</ele></trkpt>
      <trkpt lat="51.70836" lon="-0.110619"><ele>63</ele></trkpt>
      <trkpt lat="51.708344" lon="-0.110616"><ele>63</ele></trkpt>
      <trkpt lat="51.708068" lon="-0.110561"><ele>61</ele></trkpt>
      <trkpt lat="51.708034" lon="-0.110554"><ele>60.75</ele></trkpt>
      <trkpt lat="51.708005" lon="-0.11094"><ele>61.25</ele></trkpt>
      <trkpt lat="51.708003" lon="-0.110967"><ele>61.25</ele></trkpt>
      <trkpt lat="51.707989" lon="-0.111163"><ele>61.75</ele></trkpt>
      <trkpt lat="51.70798" lon="-0.111294"><ele>61.75</ele></trkpt>
      <trkpt lat="51.707974" lon="-0.111379"><ele>61.75</ele></trkpt>
      <trkpt lat="51.70797" lon="-0.111441"><ele>62</ele></trkpt>
      <trkpt lat="51.707965" lon="-0.111501"><ele>62.25</ele></trkpt>
      <trkpt lat="51.707956" lon="-0.111626"><ele>62.75</ele></trkpt>
      <trkpt lat="51.707935" lon="-0.111912"><ele>63.75</ele></trkpt>
      <trkpt lat="51.707922" lon="-0.112121"><ele>64.5</ele></trkpt>
      <trkpt lat="51.707884" lon="-0.112612"><ele>66.25</ele></trkpt>
      <trkpt lat="51.707864" lon="-0.112868"><ele>67.5</ele></trkpt>
      <trkpt lat="51.707844" lon="-0.113121"><ele>69</ele></trkpt>
      <trkpt lat="51.707825" lon="-0.113336"><ele>70</ele></trkpt>
      <trkpt lat="51.70781" lon="-0.113503"><ele>71</ele></trkpt>
      <trkpt lat="51.707786" lon="-0.113548"><ele>71.5</ele></trkpt>
      <trkpt lat="51.707717" lon="-0.113683"><ele>72.5</ele></trkpt>
      <trkpt lat="51.707691" lon="-0.113733"><ele>73</ele></trkpt>
      <trkpt lat="51.707431" lon="-0.113709"><ele>72.5</ele></trkpt>
      <trkpt lat="51.706696" lon="-0.113727"><ele>72.75</ele></trkpt>
      <trkpt lat="51.706263" lon="-0.113775"><ele>73</ele></trkpt>
      <trkpt lat="51.706127" lon="-0.11382"><ele>73.5</ele></trkpt>
      <trkpt lat="51.705958" lon="-0.113897"><ele>73.5</ele></trkpt>
      <trkpt lat="51.705635" lon="-0.114085"><ele>73.5</ele></trkpt>
      <trkpt lat="51.705432" lon="-0.11423"><ele>73.25</ele></trkpt>
      <trkpt lat="51.705166" lon="-0.114445"><ele>72</ele></trkpt>
      <trkpt lat="51.705083" lon="-0.114511"><ele>71.5</ele></trkpt>
      <trkpt lat="51.704763" lon="-0.114834"><ele>70</ele></trkpt>
      <trkpt lat="51.704667" lon="-0.114932"><ele>69.5</ele></trkpt>
      <trkpt lat="51.704651" lon="-0.114948"><ele>69.25</ele></trkpt>
      <trkpt lat="51.70462" lon="-0.114979"><ele>69.25</ele></trkpt>
      <trkpt lat="51.704597" lon="-0.115003"><ele>69</ele></trkpt>
      <trkpt lat="51.704506" lon="-0.115098"><ele>68.5</ele></trkpt>
      <trkpt lat="51.704491" lon="-0.115114"><ele>68.5</ele></trkpt>
      <trkpt lat="51.70445" lon="-0.115156"><ele>68.5</ele></trkpt>
      <trkpt lat="51.70439" lon="-0.11522"><ele>68.25</ele></trkpt>
      <trkpt lat="51.704361" lon="-0.11525"><ele>68.25</ele></trkpt>
      <trkpt lat="51.70435" lon="-0.115261"><ele>68.25</ele></trkpt>
      <trkpt lat="51.704307" lon="-0.115306"><ele>68</ele></trkpt>
      <trkpt lat="51.704248" lon="-0.115367"><ele>67.75</ele></trkpt>
      <trkpt lat="51.704198" lon="-0.115423"><ele>67.5</ele></trkpt>
      <trkpt lat="51.704165" lon="-0.11546"><ele>67.5</ele></trkpt>
      <trkpt lat="51.704094" lon="-0.115541"><ele>67.25</ele></trkpt>
      <trkpt lat="51.704071" lon="-0.115566"><ele>67.25</ele></trkpt>
      <trkpt lat="51.703969" lon="-0.115681"><ele>67</ele></trkpt>
      <trkpt lat="51.703871" lon="-0.115796"><ele>66.5</ele></trkpt>
      <trkpt lat="51.70373" lon="-0.115969"><ele>66.25</ele></trkpt>
      <trkpt lat="51.703476" lon="-0.116285"><ele>66</ele></trkpt>
      <trkpt lat="51.70339" lon="-0.116393"><ele>66</ele></trkpt>
      <trkpt lat="51.703293" lon="-0.116514"><ele>66</ele></trkpt>
      <trkpt lat="51.70319" lon="-0.116646"><ele>65.75</ele></trkpt>
      <trkpt lat="51.703099" lon="-0.116764"><ele>65.25</ele></trkpt>
      <trkpt lat="51.702748" lon="-0.117265"><ele>62.5</ele></trkpt>
      <trkpt lat="51.702243" lon="-0.118049"><ele>60</ele></trkpt>
      <trkpt lat="51.702222" lon="-0.118091"><ele>59.75</ele></trkpt>
      <trkpt lat="51.702195" lon="-0.118143"><ele>59.75</ele></trkpt>
      <trkpt lat="51.701498" lon="-0.11951"><ele>54.75</ele></trkpt>
      <trkpt lat="51.701322" lon="-0.119854"><ele>53.5</ele></trkpt>
      <trkpt lat="51.700807" lon="-0.120914"><ele>51.75</ele></trkpt>
      <trkpt lat="51.700772" lon="-0.120986"><ele>51.75</ele></trkpt>
      <trkpt lat="51.700722" lon="-0.12109"><ele>51.75</ele></trkpt>
      <trkpt lat="51.700627" lon="-0.121287"><ele>52</ele></trkpt>
      <trkpt lat="51.699782" lon="-0.123073"><ele>60</ele></trkpt>
      <trkpt lat="51.699685" lon="-0.123303"><ele>60.75</ele></trkpt>
      <trkpt lat="51.699641" lon="-0.12332"><ele>60.5</ele></trkpt>
      <trkpt lat="51.699559" lon="-0.123351"><ele>60.25</ele></trkpt>
      <trkpt lat="51.699462" lon="-0.123374"><ele>60</ele></trkpt>
      <trkpt lat="51.699382" lon="-0.12336"><ele>59.75</ele></trkpt>
      <trkpt lat="51.697643" lon="-0.122841"><ele>53.75</ele></trkpt>
      <trkpt lat="51.697511" lon="-0.122804"><ele>53.75</ele></trkpt>
      <trkpt lat="51.695403" lon="-0.122174"><ele>71.5</ele></trkpt>
      <trkpt lat="51.694024" lon="-0.121772"><ele>82</ele></trkpt>
      <trkpt lat="51.693685" lon="-0.121696"><ele>83.5</ele></trkpt>
      <trkpt lat="51.693413" lon="-0.121623"><ele>84.5</ele></trkpt>
      <trkpt lat="51.693233" lon="-0.121563"><ele>84.5</ele></trkpt>
      <trkpt lat="51.693023" lon="-0.121472"><ele>83.75</ele></trkpt>
      <trkpt lat="51.692276" lon="-0.121103"><ele>80.25</ele></trkpt>
      <trkpt lat="51.691633" lon="-0.120648"><ele>75.75</ele></trkpt>
      <trkpt lat="51.69139" lon="-0.120507"><ele>74</ele></trkpt>
      <trkpt lat="51.691043" lon="-0.12019"><ele>73.75</ele></trkpt>
      <trkpt lat="51.690867" lon="-0.120017"><ele>73</ele></trkpt>
      <trkpt lat="51.690275" lon="-0.119413"><ele>68.75</ele></trkpt>
      <trkpt lat="51.689553" lon="-0.118715"><ele>63.75</ele></trkpt>
      <trkpt lat="51.689099" lon="-0.118262"><ele>62.5</ele></trkpt>
      <trkpt lat="51.688962" lon="-0.118123"><ele>62</ele></trkpt>
      <trkpt lat="51.688245" lon="-0.117294"><ele>58.75</ele></trkpt>
      <trkpt lat="51.688006" lon="-0.117"><ele>56.75</ele></trkpt>
      <trkpt lat="51.687902" lon="-0.116893"><ele>56.25</ele></trkpt>
      <trkpt lat="51.68733" lon="-0.116199"><ele>55.5</ele></trkpt>
      <trkpt lat="51.686693" lon="-0.115244"><ele>56.5</ele></trkpt>
      <trkpt lat="51.686264" lon="-0.114627"><ele>56.75</ele></trkpt>
      <trkpt lat="51.685953" lon="-0.114202"><ele>56.5</ele></trkpt>
      <trkpt lat="51.685593" lon="-0.113689"><ele>55</ele></trkpt>
      <trkpt lat="51.685197" lon="-0.113032"><ele>52.5</ele></trkpt>
      <trkpt lat="51.685119" lon="-0.112907"><ele>52.75</ele></trkpt>
      <trkpt lat="51.685066" lon="-0.112808"><ele>53.25</ele></trkpt>
      <trkpt lat="51.684576" lon="-0.111744"><ele>60.75</ele></trkpt>
      <trkpt lat="51.684235" lon="-0.110405"><ele>67</ele></trkpt>
      <trkpt lat="51.68413" lon="-0.109641"><ele>69</ele></trkpt>
      <trkpt lat="51.684106" lon="-0.109479"><ele>69</ele></trkpt>
      <trkpt lat="51.684069" lon="-0.109169"><ele>69</ele></trkpt>
      <trkpt lat="51.683925" lon="-0.107643"><ele>59.75</ele></trkpt>
      <trkpt lat="51.6839" lon="-0.107375"><ele>58.5</ele></trkpt>
      <trkpt lat="51.683851" lon="-0.10644"><ele>56.5</ele></trkpt>
      <trkpt lat="51.683844" lon="-0.106313"><ele>55.75</ele></trkpt>
      <trkpt lat="51.683822" lon="-0.105924"><ele>54</ele></trkpt>
      <trkpt lat="51.683801" lon="-0.105549"><ele>53.5</ele></trkpt>
      <trkpt lat="51.683752" lon="-0.104689"><ele>50.25</ele></trkpt>
      <trkpt lat="51.683705" lon="-0.103869"><ele>48.25</ele></trkpt>
      <trkpt lat="51.683696" lon="-0.103712"><ele>48</ele></trkpt>
      <trkpt lat="51.683661" lon="-0.103095"><ele>47.25</ele></trkpt>
      <trkpt lat="51.683647" lon="-0.102852"><ele>47</ele></trkpt>
      <trkpt lat="51.683604" lon="-0.102091"><ele>45.5</ele></trkpt>
      <trkpt lat="51.683585" lon="-0.101761"><ele>45</ele></trkpt>
      <trkpt lat="51.683571" lon="-0.101509"><ele>45</ele></trkpt>
      <trkpt lat="51.683561" lon="-0.101345"><ele>45</ele></trkpt>
      <trkpt lat="51.683555" lon="-0.101177"><ele>45</ele></trkpt>
      <trkpt lat="51.683541" lon="-0.100829"><ele>45</ele></trkpt>
      <trkpt lat="51.683518" lon="-0.10033"><ele>45.25</ele></trkpt>
      <trkpt lat="51.683494" lon="-0.099808"><ele>45</ele></trkpt>
      <trkpt lat="51.683476" lon="-0.099097"><ele>43.75</ele></trkpt>
      <trkpt lat="51.683464" lon="-0.098997"><ele>43.5</ele></trkpt>
      <trkpt lat="51.68344" lon="-0.098927"><ele>43.5</ele></trkpt>
      <trkpt lat="51.683357" lon="-0.09883"><ele>43.75</ele></trkpt>
      <trkpt lat="51.68322" lon="-0.09876"><ele>44</ele></trkpt>
      <trkpt lat="51.682934" lon="-0.098665"><ele>44</ele></trkpt>
      <trkpt lat="51.682347" lon="-0.098442"><ele>41.75</ele></trkpt>
      <trkpt lat="51.681712" lon="-0.098172"><ele>40.25</ele></trkpt>
      <trkpt lat="51.681354" lon="-0.097987"><ele>41.75</ele></trkpt>
      <trkpt lat="51.680656" lon="-0.097542"><ele>45.25</ele></trkpt>
      <trkpt lat="51.680351" lon="-0.097399"><ele>46.25</ele></trkpt>
      <trkpt lat="51.680275" lon="-0.097384"><ele>46.5</ele></trkpt>
      <trkpt lat="51.679767" lon="-0.097283"><ele>47</ele></trkpt>
      <trkpt lat="51.679525" lon="-0.097231"><ele>47</ele></trkpt>
      <trkpt lat="51.679335" lon="-0.097164"><ele>46.75</ele></trkpt>
      <trkpt lat="51.679221" lon="-0.097126"><ele>46.5</ele></trkpt>
      <trkpt lat="51.678887" lon="-0.09699"><ele>45.75</ele></trkpt>
      <trkpt lat="51.678657" lon="-0.096873"><ele>44.75</ele></trkpt>
      <trkpt lat="51.678484" lon="-0.096769"><ele>43.5</ele></trkpt>
      <trkpt lat="51.67786" lon="-0.096397"><ele>42</ele></trkpt>
      <trkpt lat="51.677261" lon="-0.09599"><ele>44.5</ele></trkpt>
      <trkpt lat="51.677027" lon="-0.09583"><ele>46.25</ele></trkpt>
      <trkpt lat="51.676786" lon="-0.095695"><ele>47.75</ele></trkpt>
      <trkpt lat="51.67637" lon="-0.095462"><ele>51</ele></trkpt>
      <trkpt lat="51.676263" lon="-0.095402"><ele>51.75</ele></trkpt>
      <trkpt lat="51.67573" lon="-0.09522"><ele>54</ele></trkpt>
      <trkpt lat="51.675536" lon="-0.095172"><ele>55</ele></trkpt>
      <trkpt lat="51.675295" lon="-0.095122"><ele>55.75</ele></trkpt>
      <trkpt lat="51.675248" lon="-0.095112"><ele>56</ele></trkpt>
      <trkpt lat="51.67515" lon="-0.095094"><ele>56</ele></trkpt>
      <trkpt lat="51.67503" lon="-0.095064"><ele>56</ele></trkpt>
      <trkpt lat="51.674927" lon="-0.095033"><ele>56.25</ele></trkpt>
      <trkpt lat="51.674783" lon="-0.09499"><ele>56.75</ele></trkpt>
      <trkpt lat="51.67463" lon="-0.09493"><ele>57</ele></trkpt>
      <trkpt lat="51.673843" lon="-0.094551"><ele>57.25</ele></trkpt>
      <trkpt lat="51.673255" lon="-0.094279"><ele>56.75</ele></trkpt>
      <trkpt lat="51.673206" lon="-0.094248"><ele>56.75</ele></trkpt>
      <trkpt lat="51.673158" lon="-0.094202"><ele>56.75</ele></trkpt>
      <trkpt lat="51.673085" lon="-0.094106"><ele>57</ele></trkpt>
      <trkpt lat="51.673052" lon="-0.094154"><ele>56.75</ele></trkpt>
      <trkpt lat="51.673006" lon="-0.094257"><ele>56.5</ele></trkpt>
      <trkpt lat="51.672995" lon="-0.094329"><ele>56.25</ele></trkpt>
      <trkpt lat="51.67299" lon="-0.094492"><ele>56</ele></trkpt>
      <trkpt lat="51.673014" lon="-0.094655"><ele>56.5</ele></trkpt>
      <trkpt lat="51.672949" lon="-0.094652"><ele>56.25</ele></trkpt>
      <trkpt lat="51.672155" lon="-0.094723"><ele>53.75</ele></trkpt>
      <trkpt lat="51.672024" lon="-0.094793"><ele>53</ele></trkpt>
      <trkpt lat="51.67193" lon="-0.094828"><ele>52.5</ele></trkpt>
      <trkpt lat="51.671831" lon="-0.094805"><ele>52</ele></trkpt>
      <trkpt lat="51.671699" lon="-0.094704"><ele>51</ele></trkpt>
      <trkpt lat="51.671518" lon="-0.09467"><ele>49.75</ele></trkpt>
      <trkpt lat="51.671249" lon="-0.094691"><ele>47.75</ele></trkpt>
      <trkpt lat="51.670667" lon="-0.094803"><ele>43.25</ele></trkpt>
      <trkpt lat="51.670335" lon="-0.094867"><ele>40.5</ele></trkpt>
      <trkpt lat="51.670055" lon="-0.09483"><ele>37</ele></trkpt>
      <trkpt lat="51.669856" lon="-0.094833"><ele>34.5</ele></trkpt>
      <trkpt lat="51.669826" lon="-0.094834"><ele>34.25</ele></trkpt>
      <trkpt lat="51.669615" lon="-0.094686"><ele>33.25</ele></trkpt>
      <trkpt lat="51.669099" lon="-0.094291"><ele>35.75</ele></trkpt>
      <trkpt lat="51.668704" lon="-0.094005"><ele>39</ele></trkpt>
      <trkpt lat="51.66847" lon="-0.093859"><ele>39</ele></trkpt>
      <trkpt lat="51.668383" lon="-0.093308"><ele>41.25</ele></trkpt>
      <trkpt lat="51.668215" lon="-0.092414"><ele>46.5</ele></trkpt>
      <trkpt lat="51.66815" lon="-0.092441"><ele>47</ele></trkpt>
      <trkpt lat="51.668067" lon="-0.0925"><ele>47.75</ele></trkpt>
      <trkpt lat="51.667846" lon="-0.0927"><ele>49.5</ele></trkpt>
      <trkpt lat="51.667534" lon="-0.092954"><ele>51.75</ele></trkpt>
      <trkpt lat="51.6675" lon="-0.09301"><ele>52</ele></trkpt>
      <trkpt lat="51.667525" lon="-0.093138"><ele>51.25</ele></trkpt>
      <trkpt lat="51.667471" lon="-0.09319"><ele>51.5</ele></trkpt>
      <trkpt lat="51.667315" lon="-0.093302"><ele>52.25</ele></trkpt>
      <trkpt lat="51.667099" lon="-0.093531"><ele>53</ele></trkpt>
      <trkpt lat="51.66702" lon="-0.093306"><ele>54.5</ele></trkpt>
      <trkpt lat="51.666946" lon="-0.093185"><ele>55.5</ele></trkpt>
      <trkpt lat="51.66693" lon="-0.093206"><ele>55.5</ele></trkpt>
      <trkpt lat="51.666912" lon="-0.093214"><ele>55.5</ele></trkpt>
      <trkpt lat="51.666875" lon="-0.0932"><ele>55.75</ele></trkpt>
      <trkpt lat="51.666844" lon="-0.093219"><ele>56</ele></trkpt>
      <trkpt lat="51.666807" lon="-0.093351"><ele>55.75</ele></trkpt>
      <trkpt lat="51.666752" lon="-0.093472"><ele>55.75</ele></trkpt>
      <trkpt lat="51.666705" lon="-0.093649"><ele>55.5</ele></trkpt>
      <trkpt lat="51.666682" lon="-0.093812"><ele>55.75</ele></trkpt>
      <trkpt lat="51.666651" lon="-0.093854"><ele>56</ele></trkpt>
      <trkpt lat="51.666561" lon="-0.093927"><ele>56.5</ele></trkpt>
      <trkpt lat="51.666408" lon="-0.093819"><ele>57.75</ele></trkpt>
      <trkpt lat="51.666324" lon="-0.093771"><ele>58.25</ele></trkpt>
      <trkpt lat="51.666301" lon="-0.093822"><ele>58.5</ele></trkpt>
      <trkpt lat="51.66627" lon="-0.093851"><ele>58.75</ele></trkpt>
      <trkpt lat="51.66623" lon="-0.093873"><ele>59</ele></trkpt>
      <trkpt lat="51.66617" lon="-0.093878"><ele>59.5</ele></trkpt>
      <trkpt lat="51.666135" lon="-0.093846"><ele>59.75</ele></trkpt>
      <trkpt lat="51.666118" lon="-0.093814"><ele>59.75</ele></trkpt>
      <trkpt lat="51.666105" lon="-0.093868"><ele>60</ele></trkpt>
      <trkpt lat="51.666059" lon="-0.093987"><ele>59.75</ele></trkpt>
      <trkpt lat="51.665985" lon="-0.094363"><ele>59.5</ele></trkpt>
      <trkpt lat="51.665987" lon="-0.094418"><ele>59.25</ele></trkpt>
      <trkpt lat="51.66591" lon="-0.094326"><ele>60</ele></trkpt>
      <trkpt lat="51.665861" lon="-0.094273"><ele>60.25</ele></trkpt>
      <trkpt lat="51.665789" lon="-0.094417"><ele>60</ele></trkpt>
      <trkpt lat="51.665729" lon="-0.094473"><ele>60.25</ele></trkpt>
      <trkpt lat="51.665653" lon="-0.094528"><ele>60.5</ele></trkpt>
      <trkpt lat="51.665453" lon="-0.094652"><ele>61.25</ele></trkpt>
      <trkpt lat="51.665297" lon="-0.094703"><ele>61.75</ele></trkpt>
      <trkpt lat="51.665231" lon="-0.09471"><ele>62</ele></trkpt>
      <trkpt lat="51.66516" lon="-0.094699"><ele>62.25</ele></trkpt>
      <trkpt lat="51.665" lon="-0.094638"><ele>62.5</ele></trkpt>
      <trkpt lat="51.664861" lon="-0.094519"><ele>62.25</ele></trkpt>
      <trkpt lat="51.664666" lon="-0.094306"><ele>62</ele></trkpt>
      <trkpt lat="51.664442" lon="-0.094027"><ele>61.25</ele></trkpt>
      <trkpt lat="51.664422" lon="-0.094088"><ele>61.5</ele></trkpt>
      <trkpt lat="51.664346" lon="-0.093986"><ele>60.75</ele></trkpt>
      <trkpt lat="51.664321" lon="-0.094045"><ele>61</ele></trkpt>
      <trkpt lat="51.664314" lon="-0.09412"><ele>61.25</ele></trkpt>
      <trkpt lat="51.664271" lon="-0.0942"><ele>61.25</ele></trkpt>
      <trkpt lat="51.664235" lon="-0.094217"><ele>61.25</ele></trkpt>
      <trkpt lat="51.664165" lon="-0.094193"><ele>61</ele></trkpt>
      <trkpt lat="51.664115" lon="-0.094214"><ele>61</ele></trkpt>
      <trkpt lat="51.664117" lon="-0.094302"><ele>61.25</ele></trkpt>
      <trkpt lat="51.664071" lon="-0.094305"><ele>61.25</ele></trkpt>
      <trkpt lat="51.66403" lon="-0.094308"><ele>61.25</ele></trkpt>
      <trkpt lat="51.664027" lon="-0.094258"><ele>61</ele></trkpt>
      <trkpt lat="51.663932" lon="-0.094265"><ele>61</ele></trkpt>
      <trkpt lat="51.663918" lon="-0.094265"><ele>61</ele></trkpt>
      <trkpt lat="51.663768" lon="-0.094375"><ele>60.5</ele></trkpt>
      <trkpt lat="51.663732" lon="-0.094433"><ele>60.25</ele></trkpt>
      <trkpt lat="51.663503" lon="-0.094191"><ele>58.5</ele></trkpt>
      <trkpt lat="51.663293" lon="-0.093984"><ele>57.75</ele></trkpt>
      <trkpt lat="51.66311" lon="-0.093854"><ele>56.5</ele></trkpt>
      <trkpt lat="51.662931" lon="-0.093627"><ele>56</ele></trkpt>
      <trkpt lat="51.662857" lon="-0.093492"><ele>55.25</ele></trkpt>
      <trkpt lat="51.66286" lon="-0.093398"><ele>55.25</ele></trkpt>
      <trkpt lat="51.662934" lon="-0.093211"><ele>54.75</ele></trkpt>
      <trkpt lat="51.662749" lon="-0.092869"><ele>52.75</ele></trkpt>
      <trkpt lat="51.662571" lon="-0.092965"><ele>52.75</ele></trkpt>
      <trkpt lat="51.662352" lon="-0.092587"><ele>50.75</ele></trkpt>
      <trkpt lat="51.662141" lon="-0.092224"><ele>48.5</ele></trkpt>
      <trkpt lat="51.661873" lon="-0.092578"><ele>49</ele></trkpt>
      <trkpt lat="51.661822" lon="-0.092618"><ele>49.25</ele></trkpt>
      <trkpt lat="51.66177" lon="-0.092621"><ele>49.25</ele></trkpt>
      <trkpt lat="51.661045" lon="-0.091963"><ele>46</ele></trkpt>
      <trkpt lat="51.660971" lon="-0.091909"><ele>45.75</ele></trkpt>
      <trkpt lat="51.660841" lon="-0.091815"><ele>45</ele></trkpt>
      <trkpt lat="51.660777" lon="-0.091788"><ele>45</ele></trkpt>
      <trkpt lat="51.660704" lon="-0.091808"><ele>45.25</ele></trkpt>
      <trkpt lat="51.660611" lon="-0.091869"><ele>46.5</ele></trkpt>
      <trkpt lat="51.660132" lon="-0.090143"><ele>39.5</ele></trkpt>
      <trkpt lat="51.659971" lon="-0.089562"><ele>38</ele></trkpt>
      <trkpt lat="51.659828" lon="-0.089049"><ele>37</ele></trkpt>
      <trkpt lat="51.659631" lon="-0.088363"><ele>36</ele></trkpt>
      <trkpt lat="51.659473" lon="-0.08777"><ele>34.75</ele></trkpt>
      <trkpt lat="51.659466" lon="-0.087744"><ele>34.75</ele></trkpt>
      <trkpt lat="51.659438" lon="-0.087641"><ele>34.5</ele></trkpt>
      <trkpt lat="51.659362" lon="-0.087678"><ele>34.5</ele></trkpt>
      <trkpt lat="51.659327" lon="-0.087694"><ele>34.5</ele></trkpt>
      <trkpt lat="51.658814" lon="-0.087938"><ele>34.75</ele></trkpt>
      <trkpt lat="51.658779" lon="-0.087952"><ele>34.75</ele></trkpt>
      <trkpt lat="51.658286" lon="-0.088162"><ele>35</ele></trkpt>
      <trkpt lat="51.658213" lon="-0.088176"><ele>35</ele></trkpt>
      <trkpt lat="51.658136" lon="-0.088178"><ele>35.25</ele></trkpt>
      <trkpt lat="51.657991" lon="-0.088161"><ele>35.25</ele></trkpt>
      <trkpt lat="51.657689" lon="-0.088075"><ele>35</ele></trkpt>
      <trkpt lat="51.657469" lon="-0.088005"><ele>34.75</ele></trkpt>
      <trkpt lat="51.657273" lon="-0.087985"><ele>34</ele></trkpt>
      <trkpt lat="51.656963" lon="-0.087973"><ele>34</ele></trkpt>
      <trkpt lat="51.656751" lon="-0.087994"><ele>34</ele></trkpt>
      <trkpt lat="51.656377" lon="-0.088068"><ele>34</ele></trkpt>
      <trkpt lat="51.656239" lon="-0.088095"><ele>34</ele></trkpt>
      <trkpt lat="51.656004" lon="-0.088137"><ele>34</ele></trkpt>
      <trkpt lat="51.655552" lon="-0.088213"><ele>34</ele></trkpt>
      <trkpt lat="51.655502" lon="-0.088222"><ele>34</ele></trkpt>
      <trkpt lat="51.655457" lon="-0.08834"><ele>34</ele></trkpt>
      <trkpt lat="51.654806" lon="-0.088693"><ele>35</ele></trkpt>
      <trkpt lat="51.654484" lon="-0.088887"><ele>35</ele></trkpt>
      <trkpt lat="51.654223" lon="-0.089072"><ele>35.5</ele></trkpt>
      <trkpt lat="51.653977" lon="-0.089269"><ele>36.25</ele></trkpt>
      <trkpt lat="51.653927" lon="-0.089352"><ele>36.5</ele></trkpt>
      <trkpt lat="51.653788" lon="-0.089361"><ele>36.5</ele></trkpt>
      <trkpt lat="51.653679" lon="-0.08938"><ele>36.75</ele></trkpt>
      <trkpt lat="51.653621" lon="-0.089386"><ele>36.75</ele></trkpt>
      <trkpt lat="51.653621" lon="-0.089022"><ele>35.25</ele></trkpt>
      <trkpt lat="51.653615" lon="-0.088697"><ele>34.25</ele></trkpt>
      <trkpt lat="51.653576" lon="-0.088507"><ele>34</ele></trkpt>
      <trkpt lat="51.653541" lon="-0.088376"><ele>34</ele></trkpt>
      <trkpt lat="51.653481" lon="-0.08825"><ele>33.5</ele></trkpt>
      <trkpt lat="51.653401" lon="-0.088263"><ele>33.5</ele></trkpt>
      <trkpt lat="51.653337" lon="-0.088294"><ele>33.75</ele></trkpt>
      <trkpt lat="51.653156" lon="-0.088382"><ele>34</ele></trkpt>
      <trkpt lat="51.65281" lon="-0.088562"><ele>34.75</ele></trkpt>
      <trkpt lat="51.652558" lon="-0.088695"><ele>35</ele></trkpt>
      <trkpt lat="51.652359" lon="-0.0888"><ele>35</ele></trkpt>
      <trkpt lat="51.652233" lon="-0.088894"><ele>35.75</ele></trkpt>
      <trkpt lat="51.652032" lon="-0.089324"><ele>36.5</ele></trkpt>
      <trkpt lat="51.651774" lon="-0.089912"><ele>39.25</ele></trkpt>
      <trkpt lat="51.651609" lon="-0.090071"><ele>40</ele></trkpt>
      <trkpt lat="51.651291" lon="-0.09034"><ele>40</ele></trkpt>
      <trkpt lat="51.649962" lon="-0.091248"><ele>38.75</ele></trkpt>
      <trkpt lat="51.649443" lon="-0.091562"><ele>37.5</ele></trkpt>
      <trkpt lat="51.649146" lon="-0.091691"><ele>36.75</ele></trkpt>
      <trkpt lat="51.649026" lon="-0.091737"><ele>36.25</ele></trkpt>
      <trkpt lat="51.648826" lon="-0.091726"><ele>36</ele></trkpt>
      <trkpt lat="51.648433" lon="-0.091633"><ele>36.5</ele></trkpt>
      <trkpt lat="51.647892" lon="-0.091292"><ele>39</ele></trkpt>
      <trkpt lat="51.647507" lon="-0.090949"><ele>41.75</ele></trkpt>
      <trkpt lat="51.647221" lon="-0.090712"><ele>44</ele></trkpt>
      <trkpt lat="51.647125" lon="-0.090726"><ele>44.25</ele></trkpt>
      <trkpt lat="51.646577" lon="-0.091247"><ele>46.5</ele></trkpt>
      <trkpt lat="51.645811" lon="-0.091916"><ele>46</ele></trkpt>
      <trkpt lat="51.644538" lon="-0.09286"><ele>39</ele></trkpt>
      <trkpt lat="51.643664" lon="-0.093375"><ele>30</ele></trkpt>
      <trkpt lat="51.642864" lon="-0.093695"><ele>27</ele></trkpt>
      <trkpt lat="51.642456" lon="-0.093759"><ele>26</ele></trkpt>
      <trkpt lat="51.642336" lon="-0.093778"><ele>26</ele></trkpt>
      <trkpt lat="51.641864" lon="-0.093856"><ele>26</ele></trkpt>
      <trkpt lat="51.641952" lon="-0.095254"><ele>28.75</ele></trkpt>
      <trkpt lat="51.64199" lon="-0.095812"><ele>29.75</ele></trkpt>
      <trkpt lat="51.642052" lon="-0.096198"><ele>31</ele></trkpt>
      <trkpt lat="51.642184" lon="-0.096776"><ele>32</ele></trkpt>
      <trkpt lat="51.642194" lon="-0.09682"><ele>32</ele></trkpt>
      <trkpt lat="51.642303" lon="-0.097229"><ele>35</ele></trkpt>
      <trkpt lat="51.642327" lon="-0.09732"><ele>35.5</ele></trkpt>
      <trkpt lat="51.642355" lon="-0.097491"><ele>35.5</ele></trkpt>
      <trkpt lat="51.642403" lon="-0.09778"><ele>34.25</ele></trkpt>
      <trkpt lat="51.642403" lon="-0.09778"><ele>34.25</ele></trkpt>
      <trkpt lat="51.642484" lon="-0.098139"><ele>34.25</ele></trkpt>
      <trkpt lat="51.642682" lon="-0.09917"><ele>36</ele></trkpt>
      <trkpt lat="51.642216" lon="-0.099363"><ele>38</ele></trkpt>
      <trkpt lat="51.641657" lon="-0.099575"><ele>38.75</ele></trkpt>
      <trkpt lat="51.641036" lon="-0.099874"><ele>37.5</ele></trkpt>
      <trkpt lat="51.640712" lon="-0.100011"><ele>36</ele></trkpt>
      <trkpt lat="51.640616" lon="-0.100123"><ele>35.75</ele></trkpt>
      <trkpt lat="51.640571" lon="-0.100061"><ele>35.25</ele></trkpt>
      <trkpt lat="51.640517" lon="-0.100009"><ele>34.75</ele></trkpt>
      <trkpt lat="51.64046" lon="-0.099773"><ele>34.5</ele></trkpt>
      <trkpt lat="51.640038" lon="-0.098564"><ele>35.25</ele></trkpt>
      <trkpt lat="51.638308" lon="-0.099206"><ele>43.75</ele></trkpt>
      <trkpt lat="51.638164" lon="-0.099452"><ele>43.5</ele></trkpt>
      <trkpt lat="51.638137" lon="-0.099683"><ele>42.5</ele></trkpt>
      <trkpt lat="51.638107" lon="-0.09977"><ele>42.25</ele></trkpt>
      <trkpt lat="51.638053" lon="-0.099822"><ele>42.5</ele></trkpt>
      <trkpt lat="51.637671" lon="-0.100029"><ele>45</ele></trkpt>
      <trkpt lat="51.637582" lon="-0.100032"><ele>45.5</ele></trkpt>
      <trkpt lat="51.637495" lon="-0.1"><ele>45.75</ele></trkpt>
      <trkpt lat="51.637331" lon="-0.099772"><ele>45</ele></trkpt>
      <trkpt lat="51.637231" lon="-0.099705"><ele>45</ele></trkpt>
      <trkpt lat="51.637123" lon="-0.099711"><ele>45</ele></trkpt>
      <trkpt lat="51.636881" lon="-0.099792"><ele>45.5</ele></trkpt>
      <trkpt lat="51.636804" lon="-0.099859"><ele>46.25</ele></trkpt>
      <trkpt lat="51.636692" lon="-0.100033"><ele>48</ele></trkpt>
      <trkpt lat="51.636614" lon="-0.100098"><ele>48.75</ele></trkpt>
      <trkpt lat="51.636164" lon="-0.100305"><ele>51.75</ele></trkpt>
      <trkpt lat="51.63603" lon="-0.10039"><ele>51.75</ele></trkpt>
      <trkpt lat="51.634623" lon="-0.10112"><ele>52</ele></trkpt>
      <trkpt lat="51.634572" lon="-0.101214"><ele>52</ele></trkpt>
      <trkpt lat="51.634209" lon="-0.10147"><ele>52</ele></trkpt>
      <trkpt lat="51.634136" lon="-0.101555"><ele>51.75</ele></trkpt>
      <trkpt lat="51.634008" lon="-0.101747"><ele>51.5</ele></trkpt>
      <trkpt lat="51.633967" lon="-0.101808"><ele>51.75</ele></trkpt>
      <trkpt lat="51.633921" lon="-0.101889"><ele>51.75</ele></trkpt>
      <trkpt lat="51.633918" lon="-0.101905"><ele>51.75</ele></trkpt>
      <trkpt lat="51.633822" lon="-0.102321"><ele>52.25</ele></trkpt>
      <trkpt lat="51.633811" lon="-0.102368"><ele>52.25</ele></trkpt>
      <trkpt lat="51.633796" lon="-0.102525"><ele>52.5</ele></trkpt>
      <trkpt lat="51.633803" lon="-0.102652"><ele>52.75</ele></trkpt>
      <trkpt lat="51.633174" lon="-0.102638"><ele>51.25</ele></trkpt>
      <trkpt lat="51.633105" lon="-0.102652"><ele>51</ele></trkpt>
      <trkpt lat="51.632837" lon="-0.102722"><ele>50</ele></trkpt>
      <trkpt lat="51.63278" lon="-0.102756"><ele>49.75</ele></trkpt>
      <trkpt lat="51.632709" lon="-0.102806"><ele>49.5</ele></trkpt>
      <trkpt lat="51.632606" lon="-0.102848"><ele>48.75</ele></trkpt>
      <trkpt lat="51.632473" lon="-0.102865"><ele>48.25</ele></trkpt>
      <trkpt lat="51.632089" lon="-0.103005"><ele>47.25</ele></trkpt>
      <trkpt lat="51.631798" lon="-0.10311"><ele>46</ele></trkpt>
      <trkpt lat="51.631599" lon="-0.103163"><ele>45.25</ele></trkpt>
      <trkpt lat="51.631599" lon="-0.103227"><ele>45.75</ele></trkpt>
      <trkpt lat="51.631608" lon="-0.103312"><ele>46.25</ele></trkpt>
      <trkpt lat="51.63163" lon="-0.103395"><ele>47</ele></trkpt>
      <trkpt lat="51.631772" lon="-0.10373"><ele>48</ele></trkpt>
      <trkpt lat="51.631967" lon="-0.104243"><ele>50.25</ele></trkpt>
      <trkpt lat="51.631118" lon="-0.104922"><ele>50</ele></trkpt>
      <trkpt lat="51.630438" lon="-0.105372"><ele>49.75</ele></trkpt>
      <trkpt lat="51.62995" lon="-0.105672"><ele>49.25</ele></trkpt>
      <trkpt lat="51.629523" lon="-0.105871"><ele>49.25</ele></trkpt>
      <trkpt lat="51.629296" lon="-0.105966"><ele>49.25</ele></trkpt>
      <trkpt lat="51.628706" lon="-0.106172"><ele>48.25</ele></trkpt>
      <trkpt lat="51.628394" lon="-0.106245"><ele>47</ele></trkpt>
      <trkpt lat="51.627677" lon="-0.106302"><ele>44.5</ele></trkpt>
      <trkpt lat="51.627497" lon="-0.106359"><ele>44</ele></trkpt>
      <trkpt lat="51.62703" lon="-0.106538"><ele>46.5</ele></trkpt>
      <trkpt lat="51.62641" lon="-0.106736"><ele>48</ele></trkpt>
      <trkpt lat="51.626079" lon="-0.106856"><ele>48.75</ele></trkpt>
      <trkpt lat="51.625837" lon="-0.106952"><ele>49</ele></trkpt>
      <trkpt lat="51.625558" lon="-0.107077"><ele>48.75</ele></trkpt>
      <trkpt lat="51.625542" lon="-0.106964"><ele>48.75</ele></trkpt>
      <trkpt lat="51.625342" lon="-0.107059"><ele>49</ele></trkpt>
      <trkpt lat="51.624832" lon="-0.107318"><ele>49</ele></trkpt>
      <trkpt lat="51.624822" lon="-0.107323"><ele>49</ele></trkpt>
      <trkpt lat="51.623764" lon="-0.107855"><ele>48</ele></trkpt>
      <trkpt lat="51.623182" lon="-0.108171"><ele>47.25</ele></trkpt>
      <trkpt lat="51.622845" lon="-0.108354"><ele>47</ele></trkpt>
      <trkpt lat="51.6225" lon="-0.108541"><ele>47</ele></trkpt>
      <trkpt lat="51.622272" lon="-0.108665"><ele>46</ele></trkpt>
      <trkpt lat="51.621947" lon="-0.108841"><ele>45</ele></trkpt>
      <trkpt lat="51.621688" lon="-0.109018"><ele>45</ele></trkpt>
      <trkpt lat="51.621646" lon="-0.109061"><ele>45</ele></trkpt>
      <trkpt lat="51.621631" lon="-0.109073"><ele>45</ele></trkpt>
      <trkpt lat="51.621615" lon="-0.109089"><ele>45</ele></trkpt>
      <trkpt lat="51.621178" lon="-0.109495"><ele>45</ele></trkpt>
      <trkpt lat="51.620633" lon="-0.109986"><ele>44.25</ele></trkpt>
      <trkpt lat="51.620087" lon="-0.110436"><ele>42.25</ele></trkpt>
      <trkpt lat="51.619621" lon="-0.110908"><ele>41.5</ele></trkpt>
      <trkpt lat="51.619168" lon="-0.111488"><ele>41</ele></trkpt>
      <trkpt lat="51.618953" lon="-0.111734"><ele>41</ele></trkpt>
      <trkpt lat="51.618781" lon="-0.111916"><ele>41</ele></trkpt>
      <trkpt lat="51.618756" lon="-0.111838"><ele>41</ele></trkpt>
      <trkpt lat="51.61866" lon="-0.111555"><ele>40.75</ele></trkpt>
      <trkpt lat="51.618539" lon="-0.11123"><ele>40</ele></trkpt>
      <trkpt lat="51.618447" lon="-0.111095"><ele>40</ele></trkpt>
      <trkpt lat="51.618313" lon="-0.110737"><ele>40</ele></trkpt>
      <trkpt lat="51.61827" lon="-0.11067"><ele>39.5</ele></trkpt>
      <trkpt lat="51.618221" lon="-0.110545"><ele>39</ele></trkpt>
      <trkpt lat="51.618239" lon="-0.110531"><ele>38.75</ele></trkpt>
      <trkpt lat="51.618276" lon="-0.1105"><ele>38.5</ele></trkpt>
      <trkpt lat="51.618268" lon="-0.11048"><ele>38.5</ele></trkpt>
      <trkpt lat="51.618276" lon="-0.1105"><ele>38.5</ele></trkpt>
      <trkpt lat="51.618239" lon="-0.110531"><ele>38.5</ele></trkpt>
      <trkpt lat="51.618221" lon="-0.110545"><ele>38.5</ele></trkpt>
      <trkpt lat="51.618175" lon="-0.110382"><ele>38.75</ele></trkpt>
      <trkpt lat="51.61802" lon="-0.109837"><ele>39</ele></trkpt>
      <trkpt lat="51.618008" lon="-0.109797"><ele>39</ele></trkpt>
      <trkpt lat="51.617959" lon="-0.109839"><ele>38.75</ele></trkpt>
      <trkpt lat="51.617899" lon="-0.109573"><ele>38</ele></trkpt>
      <trkpt lat="51.617805" lon="-0.109428"><ele>38</ele></trkpt>
      <trkpt lat="51.617776" lon="-0.109374"><ele>38</ele></trkpt>
      <trkpt lat="51.617754" lon="-0.109331"><ele>38</ele></trkpt>
      <trkpt lat="51.617736" lon="-0.109355"><ele>38</ele></trkpt>
      <trkpt lat="51.617719" lon="-0.109377"><ele>38</ele></trkpt>
      <trkpt lat="51.617641" lon="-0.109291"><ele>38</ele></trkpt>
      <trkpt lat="51.61757" lon="-0.109279"><ele>38</ele></trkpt>
      <trkpt lat="51.61735" lon="-0.109281"><ele>38</ele></trkpt>
      <trkpt lat="51.617156" lon="-0.109291"><ele>38</ele></trkpt>
      <trkpt lat="51.616949" lon="-0.10934"><ele>38</ele></trkpt>
      <trkpt lat="51.616586" lon="-0.109464"><ele>37</ele></trkpt>
      <trkpt lat="51.615963" lon="-0.109658"><ele>35.25</ele></trkpt>
      <trkpt lat="51.615827" lon="-0.109711"><ele>34.75</ele></trkpt>
      <trkpt lat="51.615774" lon="-0.109781"><ele>34.75</ele></trkpt>
      <trkpt lat="51.615761" lon="-0.109805"><ele>34.5</ele></trkpt>
      <trkpt lat="51.61575" lon="-0.109806"><ele>34.5</ele></trkpt>
      <trkpt lat="51.615695" lon="-0.109811"><ele>34.5</ele></trkpt>
      <trkpt lat="51.615705" lon="-0.109874"><ele>34.5</ele></trkpt>
      <trkpt lat="51.615714" lon="-0.109946"><ele>34.5</ele></trkpt>
      <trkpt lat="51.615752" lon="-0.110223"><ele>35.25</ele></trkpt>
      <trkpt lat="51.615796" lon="-0.110519"><ele>35.5</ele></trkpt>
      <trkpt lat="51.615775" lon="-0.110525"><ele>35.25</ele></trkpt>
      <trkpt lat="51.615769" lon="-0.110527"><ele>35.25</ele></trkpt>
      <trkpt lat="51.615754" lon="-0.110531"><ele>35</ele></trkpt>
      <trkpt lat="51.615787" lon="-0.110833"><ele>36.25</ele></trkpt>
      <trkpt lat="51.615771" lon="-0.110959"><ele>36.75</ele></trkpt>
      <trkpt lat="51.615747" lon="-0.111026"><ele>36.75</ele></trkpt>
      <trkpt lat="51.615676" lon="-0.11111"><ele>36.25</ele></trkpt>
      <trkpt lat="51.615629" lon="-0.111136"><ele>35.5</ele></trkpt>
      <trkpt lat="51.615512" lon="-0.111179"><ele>34.75</ele></trkpt>
      <trkpt lat="51.615406" lon="-0.111184"><ele>34.5</ele></trkpt>
      <trkpt lat="51.615325" lon="-0.11122"><ele>34.25</ele></trkpt>
      <trkpt lat="51.615271" lon="-0.111235"><ele>34.25</ele></trkpt>
      <trkpt lat="51.615144" lon="-0.111259"><ele>32.75</ele></trkpt>
      <trkpt lat="51.615062" lon="-0.111656"><ele>31.5</ele></trkpt>
      <trkpt lat="51.614934" lon="-0.112074"><ele>31.75</ele></trkpt>
      <trkpt lat="51.614741" lon="-0.112543"><ele>30.75</ele></trkpt>
      <trkpt lat="51.61453" lon="-0.1129"><ele>29.75</ele></trkpt>
      <trkpt lat="51.613787" lon="-0.113948"><ele>29.25</ele></trkpt>
      <trkpt lat="51.613467" lon="-0.114332"><ele>30.5</ele></trkpt>
      <trkpt lat="51.613132" lon="-0.11467"><ele>31.25</ele></trkpt>
      <trkpt lat="51.612995" lon="-0.114885"><ele>32.25</ele></trkpt>
      <trkpt lat="51.612929" lon="-0.114965"><ele>32.25</ele></trkpt>
      <trkpt lat="51.612797" lon="-0.115"><ele>31</ele></trkpt>
      <trkpt lat="51.612796" lon="-0.114963"><ele>31</ele></trkpt>
      <trkpt lat="51.612726" lon="-0.114941"><ele>31</ele></trkpt>
      <trkpt lat="51.612678" lon="-0.115521"><ele>32.75</ele></trkpt>
      <trkpt lat="51.612616" lon="-0.116115"><ele>30.5</ele></trkpt>
      <trkpt lat="51.612614" lon="-0.116231"><ele>30.75</ele></trkpt>
      <trkpt lat="51.612607" lon="-0.116283"><ele>30.75</ele></trkpt>
      <trkpt lat="51.612578" lon="-0.11629"><ele>30.75</ele></trkpt>
      <trkpt lat="51.612547" lon="-0.116296"><ele>30.75</ele></trkpt>
      <trkpt lat="51.612483" lon="-0.116251"><ele>31</ele></trkpt>
      <trkpt lat="51.612448" lon="-0.1162"><ele>31.25</ele></trkpt>
      <trkpt lat="51.612409" lon="-0.116683"><ele>31</ele></trkpt>
      <trkpt lat="51.612405" lon="-0.116741"><ele>31</ele></trkpt>
      <trkpt lat="51.612383" lon="-0.116735"><ele>31</ele></trkpt>
      <trkpt lat="51.612359" lon="-0.116728"><ele>31</ele></trkpt>
      <trkpt lat="51.612316" lon="-0.117316"><ele>31.5</ele></trkpt>
      <trkpt lat="51.612285" lon="-0.117414"><ele>31.75</ele></trkpt>
      <trkpt lat="51.612284" lon="-0.11745"><ele>31.75</ele></trkpt>
      <trkpt lat="51.612228" lon="-0.11746"><ele>31.75</ele></trkpt>
      <trkpt lat="51.611905" lon="-0.117597"><ele>32</ele></trkpt>
      <trkpt lat="51.611248" lon="-0.11789"><ele>33</ele></trkpt>
      <trkpt lat="51.6111" lon="-0.117954"><ele>33</ele></trkpt>
      <trkpt lat="51.610943" lon="-0.118025"><ele>33.5</ele></trkpt>
      <trkpt lat="51.610945" lon="-0.117961"><ele>33.5</ele></trkpt>
      <trkpt lat="51.610929" lon="-0.117902"><ele>33.5</ele></trkpt>
      <trkpt lat="51.61089" lon="-0.117881"><ele>33.75</ele></trkpt>
      <trkpt lat="51.610538" lon="-0.118109"><ele>34</ele></trkpt>
      <trkpt lat="51.610455" lon="-0.118164"><ele>34</ele></trkpt>
      <trkpt lat="51.610393" lon="-0.118205"><ele>34</ele></trkpt>
      <trkpt lat="51.609745" lon="-0.118627"><ele>35</ele></trkpt>
      <trkpt lat="51.609654" lon="-0.118691"><ele>35</ele></trkpt>
      <trkpt lat="51.609568" lon="-0.118752"><ele>35.25</ele></trkpt>
      <trkpt lat="51.609048" lon="-0.1191"><ele>36.5</ele></trkpt>
      <trkpt lat="51.608838" lon="-0.119201"><ele>37</ele></trkpt>
      <trkpt lat="51.608787" lon="-0.119236"><ele>37.25</ele></trkpt>
      <trkpt lat="51.608457" lon="-0.119466"><ele>37.5</ele></trkpt>
      <trkpt lat="51.608171" lon="-0.119741"><ele>38.5</ele></trkpt>
      <trkpt lat="51.607676" lon="-0.120241"><ele>39.5</ele></trkpt>
      <trkpt lat="51.607017" lon="-0.120959"><ele>39.25</ele></trkpt>
      <trkpt lat="51.606929" lon="-0.120701"><ele>39.25</ele></trkpt>
      <trkpt lat="51.607022" lon="-0.12062"><ele>39.75</ele></trkpt>
      <trkpt lat="51.606929" lon="-0.120701"><ele>40.25</ele></trkpt>
      <trkpt lat="51.607017" lon="-0.120959"><ele>41.5</ele></trkpt>
      <trkpt lat="51.606943" lon="-0.121034"><ele>41.5</ele></trkpt>
      <trkpt lat="51.606484" lon="-0.121528"><ele>42.25</ele></trkpt>
      <trkpt lat="51.606116" lon="-0.12191"><ele>43.75</ele></trkpt>
      <trkpt lat="51.605844" lon="-0.122167"><ele>44.75</ele></trkpt>
      <trkpt lat="51.605703" lon="-0.122329"><ele>45.25</ele></trkpt>
      <trkpt lat="51.605702" lon="-0.122369"><ele>45.5</ele></trkpt>
      <trkpt lat="51.605673" lon="-0.12234"><ele>45.25</ele></trkpt>
      <trkpt lat="51.605528" lon="-0.12221"><ele>44.5</ele></trkpt>
      <trkpt lat="51.605454" lon="-0.122295"><ele>44.75</ele></trkpt>
      <trkpt lat="51.605346" lon="-0.122202"><ele>44</ele></trkpt>
      <trkpt lat="51.605301" lon="-0.12217"><ele>43.75</ele></trkpt>
      <trkpt lat="51.605198" lon="-0.122095"><ele>43.25</ele></trkpt>
      <trkpt lat="51.605101" lon="-0.122033"><ele>43</ele></trkpt>
      <trkpt lat="51.605056" lon="-0.122005"><ele>43</ele></trkpt>
      <trkpt lat="51.604993" lon="-0.122011"><ele>43.25</ele></trkpt>
      <trkpt lat="51.604907" lon="-0.12196"><ele>43.75</ele></trkpt>
      <trkpt lat="51.604879" lon="-0.121944"><ele>43.75</ele></trkpt>
      <trkpt lat="51.604857" lon="-0.121929"><ele>43.75</ele></trkpt>
      <trkpt lat="51.604519" lon="-0.121717"><ele>42.25</ele></trkpt>
      <trkpt lat="51.604314" lon="-0.121606"><ele>41.75</ele></trkpt>
      <trkpt lat="51.603651" lon="-0.121208"><ele>39.25</ele></trkpt>
      <trkpt lat="51.603582" lon="-0.121167"><ele>39</ele></trkpt>
      <trkpt lat="51.603455" lon="-0.121092"><ele>39</ele></trkpt>
      <trkpt lat="51.603418" lon="-0.121071"><ele>39</ele></trkpt>
      <trkpt lat="51.602894" lon="-0.120766"><ele>37.25</ele></trkpt>
      <trkpt lat="51.602862" lon="-0.12074"><ele>37.25</ele></trkpt>
      <trkpt lat="51.602694" lon="-0.120606"><ele>37</ele></trkpt>
      <trkpt lat="51.6026" lon="-0.120522"><ele>37</ele></trkpt>
      <trkpt lat="51.602527" lon="-0.120442"><ele>37</ele></trkpt>
      <trkpt lat="51.602412" lon="-0.120274"><ele>37</ele></trkpt>
      <trkpt lat="51.602272" lon="-0.12002"><ele>37</ele></trkpt>
      <trkpt lat="51.602065" lon="-0.119583"><ele>37</ele></trkpt>
      <trkpt lat="51.601866" lon="-0.119163"><ele>38</ele></trkpt>
      <trkpt lat="51.601702" lon="-0.118801"><ele>37.75</ele></trkpt>
      <trkpt lat="51.601546" lon="-0.11844"><ele>37.25</ele></trkpt>
      <trkpt lat="51.601405" lon="-0.1181"><ele>37</ele></trkpt>
      <trkpt lat="51.601175" lon="-0.117496"><ele>36</ele></trkpt>
      <trkpt lat="51.601107" lon="-0.117321"><ele>36</ele></trkpt>
      <trkpt lat="51.60104" lon="-0.117241"><ele>36</ele></trkpt>
      <trkpt lat="51.600989" lon="-0.117096"><ele>36</ele></trkpt>
      <trkpt lat="51.600973" lon="-0.117107"><ele>36</ele></trkpt>
      <trkpt lat="51.600871" lon="-0.117148"><ele>36</ele></trkpt>
      <trkpt lat="51.600168" lon="-0.117346"><ele>36.25</ele></trkpt>
      <trkpt lat="51.599773" lon="-0.117461"><ele>36</ele></trkpt>
      <trkpt lat="51.599381" lon="-0.117587"><ele>36.25</ele></trkpt>
      <trkpt lat="51.599198" lon="-0.117634"><ele>36.25</ele></trkpt>
      <trkpt lat="51.599107" lon="-0.117656"><ele>36.5</ele></trkpt>
      <trkpt lat="51.598911" lon="-0.117534"><ele>36.75</ele></trkpt>
      <trkpt lat="51.598884" lon="-0.117525"><ele>36.75</ele></trkpt>
      <trkpt lat="51.598839" lon="-0.117535"><ele>36.75</ele></trkpt>
      <trkpt lat="51.598791" lon="-0.117576"><ele>36.5</ele></trkpt>
      <trkpt lat="51.59877" lon="-0.117613"><ele>36.5</ele></trkpt>
      <trkpt lat="51.598652" lon="-0.118014"><ele>37</ele></trkpt>
      <trkpt lat="51.598648" lon="-0.118069"><ele>37</ele></trkpt>
      <trkpt lat="51.598686" lon="-0.118194"><ele>37.25</ele></trkpt>
      <trkpt lat="51.598726" lon="-0.118216"><ele>37.5</ele></trkpt>
      <trkpt lat="51.598703" lon="-0.118341"><ele>38</ele></trkpt>
      <trkpt lat="51.59869" lon="-0.118399"><ele>38</ele></trkpt>
      <trkpt lat="51.598667" lon="-0.11838"><ele>38</ele></trkpt>
      <trkpt lat="51.598647" lon="-0.118384"><ele>38</ele></trkpt>
      <trkpt lat="51.598412" lon="-0.119054"><ele>39</ele></trkpt>
      <trkpt lat="51.598327" lon="-0.11931"><ele>39.5</ele></trkpt>
      <trkpt lat="51.59822" lon="-0.119605"><ele>40.25</ele></trkpt>
      <trkpt lat="51.598147" lon="-0.119712"><ele>40.25</ele></trkpt>
      <trkpt lat="51.598094" lon="-0.119662"><ele>40</ele></trkpt>
      <trkpt lat="51.597883" lon="-0.119383"><ele>39</ele></trkpt>
      <trkpt lat="51.597581" lon="-0.118938"><ele>36.25</ele></trkpt>
      <trkpt lat="51.597505" lon="-0.118814"><ele>35.5</ele></trkpt>
      <trkpt lat="51.597439" lon="-0.11876"><ele>35.75</ele></trkpt>
      <trkpt lat="51.59741" lon="-0.118711"><ele>35.75</ele></trkpt>
      <trkpt lat="51.597253" lon="-0.118409"><ele>34.5</ele></trkpt>
      <trkpt lat="51.597169" lon="-0.118171"><ele>33.5</ele></trkpt>
      <trkpt lat="51.597147" lon="-0.118102"><ele>33</ele></trkpt>
      <trkpt lat="51.59713" lon="-0.118056"><ele>32.5</ele></trkpt>
      <trkpt lat="51.597103" lon="-0.11808"><ele>32.75</ele></trkpt>
      <trkpt lat="51.59709" lon="-0.11809"><ele>32.75</ele></trkpt>
      <trkpt lat="51.597055" lon="-0.117994"><ele>32</ele></trkpt>
      <trkpt lat="51.597022" lon="-0.117901"><ele>31.5</ele></trkpt>
      <trkpt lat="51.59694" lon="-0.117637"><ele>30.5</ele></trkpt>
      <trkpt lat="51.596914" lon="-0.117534"><ele>30</ele></trkpt>
      <trkpt lat="51.596837" lon="-0.117544"><ele>30.25</ele></trkpt>
      <trkpt lat="51.596708" lon="-0.117561"><ele>30.5</ele></trkpt>
      <trkpt lat="51.596596" lon="-0.117534"><ele>30.25</ele></trkpt>
      <trkpt lat="51.596457" lon="-0.117454"><ele>29.75</ele></trkpt>
      <trkpt lat="51.596281" lon="-0.11733"><ele>29</ele></trkpt>
      <trkpt lat="51.59611" lon="-0.117124"><ele>28.5</ele></trkpt>
      <trkpt lat="51.595953" lon="-0.116803"><ele>28</ele></trkpt>
      <trkpt lat="51.595857" lon="-0.116554"><ele>27.5</ele></trkpt>
      <trkpt lat="51.59582" lon="-0.116407"><ele>27</ele></trkpt>
      <trkpt lat="51.595797" lon="-0.116244"><ele>26.25</ele></trkpt>
      <trkpt lat="51.595791" lon="-0.116143"><ele>26</ele></trkpt>
      <trkpt lat="51.59575" lon="-0.116114"><ele>26</ele></trkpt>
      <trkpt lat="51.595768" lon="-0.115825"><ele>25.75</ele></trkpt>
      <trkpt lat="51.595765" lon="-0.115754"><ele>25.75</ele></trkpt>
      <trkpt lat="51.595754" lon="-0.115683"><ele>25.75</ele></trkpt>
      <trkpt lat="51.595727" lon="-0.115614"><ele>25.5</ele></trkpt>
      <trkpt lat="51.595708" lon="-0.115627"><ele>25.5</ele></trkpt>
      <trkpt lat="51.595676" lon="-0.11565"><ele>25.5</ele></trkpt>
      <trkpt lat="51.595658" lon="-0.115664"><ele>25.5</ele></trkpt>
      <trkpt lat="51.595641" lon="-0.115678"><ele>25.5</ele></trkpt>
      <trkpt lat="51.595627" lon="-0.115691"><ele>25.5</ele></trkpt>
      <trkpt lat="51.595608" lon="-0.115705"><ele>25.5</ele></trkpt>
      <trkpt lat="51.595529" lon="-0.115731"><ele>25.5</ele></trkpt>
      <trkpt lat="51.595132" lon="-0.115821"><ele>25</ele></trkpt>
      <trkpt lat="51.594997" lon="-0.115839"><ele>25</ele></trkpt>
      <trkpt lat="51.594973" lon="-0.115842"><ele>25</ele></trkpt>
      <trkpt lat="51.594954" lon="-0.115844"><ele>25</ele></trkpt>
      <trkpt lat="51.594904" lon="-0.115851"><ele>25</ele></trkpt>
      <trkpt lat="51.594875" lon="-0.115854"><ele>25</ele></trkpt>
      <trkpt lat="51.594502" lon="-0.115896"><ele>25</ele></trkpt>
      <trkpt lat="51.594486" lon="-0.115896"><ele>25</ele></trkpt>
      <trkpt lat="51.594473" lon="-0.115897"><ele>25</ele></trkpt>
      <trkpt lat="51.594462" lon="-0.115897"><ele>25</ele></trkpt>
      <trkpt lat="51.59435" lon="-0.115889"><ele>25.5</ele></trkpt>
      <trkpt lat="51.594185" lon="-0.115777"><ele>25.5</ele></trkpt>
      <trkpt lat="51.593414" lon="-0.115243"><ele>25</ele></trkpt>
      <trkpt lat="51.593393" lon="-0.115229"><ele>25</ele></trkpt>
      <trkpt lat="51.593367" lon="-0.115327"><ele>25.25</ele></trkpt>
      <trkpt lat="51.593216" lon="-0.115889"><ele>31</ele></trkpt>
      <trkpt lat="51.593174" lon="-0.116042"><ele>31.25</ele></trkpt>
      <trkpt lat="51.593049" lon="-0.116494"><ele>32.5</ele></trkpt>
      <trkpt lat="51.592998" lon="-0.116562"><ele>32.75</ele></trkpt>
      <trkpt lat="51.592926" lon="-0.116609"><ele>33.25</ele></trkpt>
      <trkpt lat="51.592817" lon="-0.116612"><ele>33.25</ele></trkpt>
      <trkpt lat="51.592657" lon="-0.11651"><ele>32.75</ele></trkpt>
      <trkpt lat="51.592585" lon="-0.116467"><ele>32.75</ele></trkpt>
      <trkpt lat="51.592436" lon="-0.116427"><ele>32.25</ele></trkpt>
      <trkpt lat="51.591794" lon="-0.115978"><ele>32.5</ele></trkpt>
      <trkpt lat="51.59177" lon="-0.115967"><ele>32.5</ele></trkpt>
      <trkpt lat="51.591742" lon="-0.115969"><ele>32.25</ele></trkpt>
      <trkpt lat="51.591706" lon="-0.116011"><ele>31.75</ele></trkpt>
      <trkpt lat="51.591687" lon="-0.115995"><ele>31.75</ele></trkpt>
      <trkpt lat="51.591653" lon="-0.115942"><ele>32</ele></trkpt>
      <trkpt lat="51.591526" lon="-0.115822"><ele>32</ele></trkpt>
      <trkpt lat="51.591427" lon="-0.115695"><ele>32.25</ele></trkpt>
      <trkpt lat="51.590644" lon="-0.115064"><ele>32.25</ele></trkpt>
      <trkpt lat="51.589549" lon="-0.114299"><ele>32.5</ele></trkpt>
      <trkpt lat="51.589313" lon="-0.114182"><ele>31.75</ele></trkpt>
      <trkpt lat="51.589189" lon="-0.114084"><ele>31.75</ele></trkpt>
      <trkpt lat="51.588989" lon="-0.113945"><ele>31.5</ele></trkpt>
      <trkpt lat="51.588895" lon="-0.113801"><ele>31.5</ele></trkpt>
      <trkpt lat="51.588859" lon="-0.113779"><ele>31.5</ele></trkpt>
      <trkpt lat="51.588536" lon="-0.1135"><ele>31</ele></trkpt>
      <trkpt lat="51.588299" lon="-0.113282"><ele>31.25</ele></trkpt>
      <trkpt lat="51.588225" lon="-0.113207"><ele>31.25</ele></trkpt>
      <trkpt lat="51.58817" lon="-0.113109"><ele>31.25</ele></trkpt>
      <trkpt lat="51.588154" lon="-0.113092"><ele>31.25</ele></trkpt>
      <trkpt lat="51.58819" lon="-0.112957"><ele>31.75</ele></trkpt>
      <trkpt lat="51.588135" lon="-0.112904"><ele>32</ele></trkpt>
      <trkpt lat="51.588121" lon="-0.112952"><ele>31.75</ele></trkpt>
      <trkpt lat="51.588049" lon="-0.113058"><ele>31</ele></trkpt>
      <trkpt lat="51.588008" lon="-0.113033"><ele>31.25</ele></trkpt>
      <trkpt lat="51.587943" lon="-0.113047"><ele>31.25</ele></trkpt>
      <trkpt lat="51.587902" lon="-0.113043"><ele>31.5</ele></trkpt>
      <trkpt lat="51.587889" lon="-0.113031"><ele>31.75</ele></trkpt>
      <trkpt lat="51.587899" lon="-0.112991"><ele>32</ele></trkpt>
      <trkpt lat="51.587901" lon="-0.112983"><ele>32</ele></trkpt>
      <trkpt lat="51.587909" lon="-0.112954"><ele>32.25</ele></trkpt>
      <trkpt lat="51.58733" lon="-0.112496"><ele>34.25</ele></trkpt>
      <trkpt lat="51.586928" lon="-0.112268"><ele>34.75</ele></trkpt>
      <trkpt lat="51.586659" lon="-0.11219"><ele>35</ele></trkpt>
      <trkpt lat="51.586371" lon="-0.112177"><ele>36</ele></trkpt>
      <trkpt lat="51.586272" lon="-0.112182"><ele>36</ele></trkpt>
      <trkpt lat="51.586101" lon="-0.112238"><ele>36</ele></trkpt>
      <trkpt lat="51.586107" lon="-0.112323"><ele>36.25</ele></trkpt>
      <trkpt lat="51.586028" lon="-0.112358"><ele>36.75</ele></trkpt>
      <trkpt lat="51.585897" lon="-0.112442"><ele>37.5</ele></trkpt>
      <trkpt lat="51.585822" lon="-0.112503"><ele>38</ele></trkpt>
      <trkpt lat="51.5857" lon="-0.112676"><ele>38.25</ele></trkpt>
      <trkpt lat="51.585612" lon="-0.112871"><ele>38.75</ele></trkpt>
      <trkpt lat="51.585556" lon="-0.11312"><ele>39</ele></trkpt>
      <trkpt lat="51.585527" lon="-0.11332"><ele>40</ele></trkpt>
      <trkpt lat="51.585506" lon="-0.113612"><ele>41</ele></trkpt>
      <trkpt lat="51.585475" lon="-0.113647"><ele>41</ele></trkpt>
      <trkpt lat="51.585445" lon="-0.113651"><ele>41</ele></trkpt>
      <trkpt lat="51.585367" lon="-0.114288"><ele>43.75</ele></trkpt>
      <trkpt lat="51.585289" lon="-0.114584"><ele>44.25</ele></trkpt>
      <trkpt lat="51.585202" lon="-0.114753"><ele>45.25</ele></trkpt>
      <trkpt lat="51.585169" lon="-0.114817"><ele>45.5</ele></trkpt>
      <trkpt lat="51.585157" lon="-0.11484"><ele>45.5</ele></trkpt>
      <trkpt lat="51.584969" lon="-0.115172"><ele>46.5</ele></trkpt>
      <trkpt lat="51.58494" lon="-0.115221"><ele>47</ele></trkpt>
      <trkpt lat="51.583564" lon="-0.113029"><ele>38.5</ele></trkpt>
      <trkpt lat="51.583424" lon="-0.11282"><ele>37.25</ele></trkpt>
      <trkpt lat="51.58229" lon="-0.111694"><ele>33</ele></trkpt>
      <trkpt lat="51.582249" lon="-0.111684"><ele>33</ele></trkpt>
      <trkpt lat="51.582026" lon="-0.112277"><ele>33</ele></trkpt>
      <trkpt lat="51.581978" lon="-0.112233"><ele>33</ele></trkpt>
      <trkpt lat="51.581956" lon="-0.112213"><ele>33</ele></trkpt>
      <trkpt lat="51.581386" lon="-0.111766"><ele>33.5</ele></trkpt>
      <trkpt lat="51.581186" lon="-0.111613"><ele>34</ele></trkpt>
      <trkpt lat="51.580528" lon="-0.111087"><ele>37</ele></trkpt>
      <trkpt lat="51.579941" lon="-0.110657"><ele>42</ele></trkpt>
      <trkpt lat="51.579304" lon="-0.110169"><ele>51</ele></trkpt>
      <trkpt lat="51.57861" lon="-0.109637"><ele>62.25</ele></trkpt>
      <trkpt lat="51.578331" lon="-0.109423"><ele>64</ele></trkpt>
      <trkpt lat="51.578489" lon="-0.109077"><ele>64.25</ele></trkpt>
      <trkpt lat="51.578517" lon="-0.109028"><ele>64.25</ele></trkpt>
      <trkpt lat="51.578547" lon="-0.109024"><ele>64</ele></trkpt>
      <trkpt lat="51.578579" lon="-0.10885"><ele>64</ele></trkpt>
      <trkpt lat="51.578612" lon="-0.108688"><ele>63.75</ele></trkpt>
      <trkpt lat="51.578649" lon="-0.108504"><ele>63.25</ele></trkpt>
      <trkpt lat="51.578689" lon="-0.108303"><ele>62.75</ele></trkpt>
      <trkpt lat="51.578725" lon="-0.108104"><ele>62</ele></trkpt>
      <trkpt lat="51.578782" lon="-0.107796"><ele>60.75</ele></trkpt>
      <trkpt lat="51.578727" lon="-0.107735"><ele>61.75</ele></trkpt>
      <trkpt lat="51.578604" lon="-0.107635"><ele>62.75</ele></trkpt>
      <trkpt lat="51.578481" lon="-0.107483"><ele>62</ele></trkpt>
      <trkpt lat="51.578382" lon="-0.107422"><ele>61.75</ele></trkpt>
      <trkpt lat="51.578294" lon="-0.107412"><ele>61.75</ele></trkpt>
      <trkpt lat="51.578296" lon="-0.107375"><ele>61.75</ele></trkpt>
      <trkpt lat="51.578285" lon="-0.107339"><ele>61.5</ele></trkpt>
      <trkpt lat="51.578176" lon="-0.107286"><ele>60.75</ele></trkpt>
      <trkpt lat="51.577759" lon="-0.106908"><ele>56.75</ele></trkpt>
      <trkpt lat="51.577385" lon="-0.106516"><ele>53.25</ele></trkpt>
      <trkpt lat="51.577517" lon="-0.105981"><ele>49.5</ele></trkpt>
      <trkpt lat="51.577514" lon="-0.10585"><ele>48.75</ele></trkpt>
      <trkpt lat="51.577584" lon="-0.105227"><ele>46.25</ele></trkpt>
      <trkpt lat="51.577562" lon="-0.105221"><ele>46</ele></trkpt>
      <trkpt lat="51.577571" lon="-0.105156"><ele>45.75</ele></trkpt>
      <trkpt lat="51.577577" lon="-0.105105"><ele>45.5</ele></trkpt>
      <trkpt lat="51.577476" lon="-0.105073"><ele>44.75</ele></trkpt>
      <trkpt lat="51.577577" lon="-0.105105"><ele>44.25</ele></trkpt>
      <trkpt lat="51.577571" lon="-0.105156"><ele>44</ele></trkpt>
      <trkpt lat="51.577562" lon="-0.105221"><ele>43.5</ele></trkpt>
      <trkpt lat="51.577584" lon="-0.105227"><ele>43.5</ele></trkpt>
      <trkpt lat="51.577649" lon="-0.104673"><ele>41</ele></trkpt>
      <trkpt lat="51.577659" lon="-0.104593"><ele>41.25</ele></trkpt>
      <trkpt lat="51.577695" lon="-0.1046"><ele>41.5</ele></trkpt>
      <trkpt lat="51.577711" lon="-0.104464"><ele>41.25</ele></trkpt>
      <trkpt lat="51.577744" lon="-0.104167"><ele>39.75</ele></trkpt>
      <trkpt lat="51.577701" lon="-0.10417"><ele>39.5</ele></trkpt>
      <trkpt lat="51.577659" lon="-0.104167"><ele>39.5</ele></trkpt>
      <trkpt lat="51.577618" lon="-0.104164"><ele>39.25</ele></trkpt>
      <trkpt lat="51.577398" lon="-0.104166"><ele>38.5</ele></trkpt>
      <trkpt lat="51.577099" lon="-0.104164"><ele>37.5</ele></trkpt>
      <trkpt lat="51.576948" lon="-0.104161"><ele>36.75</ele></trkpt>
      <trkpt lat="51.576429" lon="-0.10415"><ele>36.75</ele></trkpt>
      <trkpt lat="51.576265" lon="-0.104179"><ele>36.5</ele></trkpt>
      <trkpt lat="51.576178" lon="-0.104216"><ele>36.5</ele></trkpt>
      <trkpt lat="51.576093" lon="-0.104259"><ele>36.75</ele></trkpt>
      <trkpt lat="51.575948" lon="-0.104355"><ele>37.5</ele></trkpt>
      <trkpt lat="51.575786" lon="-0.104486"><ele>37.25</ele></trkpt>
      <trkpt lat="51.575636" lon="-0.104621"><ele>37.25</ele></trkpt>
      <trkpt lat="51.575601" lon="-0.104639"><ele>37.25</ele></trkpt>
      <trkpt lat="51.575344" lon="-0.104658"><ele>37</ele></trkpt>
      <trkpt lat="51.575294" lon="-0.104657"><ele>37</ele></trkpt>
      <trkpt lat="51.575206" lon="-0.104613"><ele>37</ele></trkpt>
      <trkpt lat="51.575163" lon="-0.10457"><ele>37</ele></trkpt>
      <trkpt lat="51.575041" lon="-0.104458"><ele>37</ele></trkpt>
      <trkpt lat="51.574954" lon="-0.104377"><ele>36.75</ele></trkpt>
      <trkpt lat="51.574768" lon="-0.104277"><ele>36.25</ele></trkpt>
      <trkpt lat="51.574542" lon="-0.104165"><ele>36.5</ele></trkpt>
      <trkpt lat="51.57431" lon="-0.104053"><ele>37</ele></trkpt>
      <trkpt lat="51.57424" lon="-0.104032"><ele>37.25</ele></trkpt>
      <trkpt lat="51.574133" lon="-0.104389"><ele>38.5</ele></trkpt>
      <trkpt lat="51.574114" lon="-0.10446"><ele>38.75</ele></trkpt>
      <trkpt lat="51.57407" lon="-0.104551"><ele>38.5</ele></trkpt>
      <trkpt lat="51.573992" lon="-0.104642"><ele>39</ele></trkpt>
      <trkpt lat="51.573909" lon="-0.104691"><ele>39.5</ele></trkpt>
      <trkpt lat="51.57381" lon="-0.104719"><ele>40.25</ele></trkpt>
      <trkpt lat="51.572789" lon="-0.104657"><ele>43.75</ele></trkpt>
      <trkpt lat="51.572567" lon="-0.104644"><ele>44.75</ele></trkpt>
      <trkpt lat="51.572466" lon="-0.104638"><ele>45.25</ele></trkpt>
      <trkpt lat="51.572403" lon="-0.104646"><ele>45.5</ele></trkpt>
      <trkpt lat="51.572359" lon="-0.104669"><ele>45.5</ele></trkpt>
      <trkpt lat="51.572304" lon="-0.104519"><ele>46.25</ele></trkpt>
      <trkpt lat="51.572302" lon="-0.104443"><ele>46.5</ele></trkpt>
      <trkpt lat="51.572272" lon="-0.104388"><ele>46.75</ele></trkpt>
      <trkpt lat="51.572268" lon="-0.104223"><ele>47.5</ele></trkpt>
      <trkpt lat="51.572289" lon="-0.104157"><ele>47.5</ele></trkpt>
      <trkpt lat="51.572276" lon="-0.104086"><ele>47.5</ele></trkpt>
      <trkpt lat="51.57226" lon="-0.104037"><ele>47.5</ele></trkpt>
      <trkpt lat="51.5722" lon="-0.104015"><ele>48</ele></trkpt>
      <trkpt lat="51.571826" lon="-0.103985"><ele>49.25</ele></trkpt>
      <trkpt lat="51.571793" lon="-0.103974"><ele>49.5</ele></trkpt>
      <trkpt lat="51.571561" lon="-0.103906"><ele>50</ele></trkpt>
      <trkpt lat="51.571322" lon="-0.103877"><ele>50</ele></trkpt>
      <trkpt lat="51.570794" lon="-0.10394"><ele>50</ele></trkpt>
      <trkpt lat="51.570132" lon="-0.104052"><ele>48.5</ele></trkpt>
      <trkpt lat="51.569936" lon="-0.104095"><ele>48</ele></trkpt>
      <trkpt lat="51.569907" lon="-0.1041"><ele>47.75</ele></trkpt>
      <trkpt lat="51.56989" lon="-0.104096"><ele>47.75</ele></trkpt>
      <trkpt lat="51.569872" lon="-0.104106"><ele>47.75</ele></trkpt>
      <trkpt lat="51.569638" lon="-0.10417"><ele>46.25</ele></trkpt>
      <trkpt lat="51.569288" lon="-0.104221"><ele>44.25</ele></trkpt>
      <trkpt lat="51.569049" lon="-0.104235"><ele>43.5</ele></trkpt>
      <trkpt lat="51.568828" lon="-0.10421"><ele>42.5</ele></trkpt>
      <trkpt lat="51.568367" lon="-0.103996"><ele>40</ele></trkpt>
      <trkpt lat="51.568325" lon="-0.103975"><ele>39.75</ele></trkpt>
      <trkpt lat="51.568026" lon="-0.103872"><ele>39</ele></trkpt>
      <trkpt lat="51.567712" lon="-0.103832"><ele>38.75</ele></trkpt>
      <trkpt lat="51.567649" lon="-0.103824"><ele>38.5</ele></trkpt>
      <trkpt lat="51.567104" lon="-0.10391"><ele>36</ele></trkpt>
      <trkpt lat="51.566812" lon="-0.10402"><ele>35</ele></trkpt>
      <trkpt lat="51.566437" lon="-0.104266"><ele>33</ele></trkpt>
      <trkpt lat="51.566245" lon="-0.104445"><ele>32.25</ele></trkpt>
      <trkpt lat="51.566186" lon="-0.104773"><ele>33</ele></trkpt>
      <trkpt lat="51.566159" lon="-0.104893"><ele>33</ele></trkpt>
      <trkpt lat="51.566003" lon="-0.105299"><ele>33</ele></trkpt>
      <trkpt lat="51.565884" lon="-0.105447"><ele>33.75</ele></trkpt>
      <trkpt lat="51.565734" lon="-0.105562"><ele>33.25</ele></trkpt>
      <trkpt lat="51.565578" lon="-0.105628"><ele>33</ele></trkpt>
      <trkpt lat="51.565285" lon="-0.105632"><ele>31.25</ele></trkpt>
      <trkpt lat="51.565256" lon="-0.10567"><ele>31.25</ele></trkpt>
      <trkpt lat="51.565238" lon="-0.105645"><ele>31.25</ele></trkpt>
      <trkpt lat="51.565196" lon="-0.105671"><ele>31.5</ele></trkpt>
      <trkpt lat="51.565176" lon="-0.105734"><ele>32</ele></trkpt>
      <trkpt lat="51.565125" lon="-0.105671"><ele>31.75</ele></trkpt>
      <trkpt lat="51.565093" lon="-0.105636"><ele>31.5</ele></trkpt>
      <trkpt lat="51.565039" lon="-0.105697"><ele>32.25</ele></trkpt>
      <trkpt lat="51.564884" lon="-0.105733"><ele>32.25</ele></trkpt>
      <trkpt lat="51.564627" lon="-0.105768"><ele>32</ele></trkpt>
      <trkpt lat="51.564477" lon="-0.105789"><ele>31.75</ele></trkpt>
      <trkpt lat="51.564481" lon="-0.105884"><ele>33</ele></trkpt>
      <trkpt lat="51.564483" lon="-0.105937"/>
      <trkpt lat="51.564503" lon="-0.106446"/>
      <trkpt lat="51.564325" lon="-0.106467"/>
      <trkpt lat="51.564322" lon="-0.106408"/>
    </trkseg>
  </trk>
</gpx>
