<?xml version="1.0" encoding="UTF-8"?>
<gpx version="1.1" creator="TubeRun route generator" xmlns="http://www.topografix.com/GPX/1/1">
  <metadata>
    <name>Heathrow Express — TubeRun</name>
    <desc>Above-ground running route tracing the Heathrow Express line, station to station. Routed on pavements and footways from OpenStreetMap data (BRouter, shortest).</desc>
    <author><name>TubeRun</name></author>
    <copyright author="OpenStreetMap contributors"><license>https://opendatacommons.org/licenses/odbl/1-0/</license></copyright>
    <link href="https://www.openstreetmap.org/copyright"><text>© OpenStreetMap contributors</text></link>
    <time>2026-07-14T08:30:30.260Z</time>
  </metadata>
  <wpt lat="51.47005" lon="-0.49059"><name>Heathrow Terminal 5</name></wpt>
  <wpt lat="51.47199" lon="-0.45479"><name>Heathrow Terminals 2 &amp; 3</name></wpt>
  <wpt lat="51.516" lon="-0.17617"><name>London Paddington</name></wpt>
  <trk>
    <name>Heathrow Express — TubeRun</name>
    <trkseg>
      <trkpt lat="51.470043" lon="-0.490598"><ele>24</ele></trkpt>
      <trkpt lat="51.470058" lon="-0.49063"><ele>24.25</ele></trkpt>
      <trkpt lat="51.470153" lon="-0.490733"><ele>24.5</ele></trkpt>
      <trkpt lat="51.470249" lon="-0.490776"><ele>24.75</ele></trkpt>
      <trkpt lat="51.471138" lon="-0.491062"><ele>26.25</ele></trkpt>
      <trkpt lat="51.4713" lon="-0.491056"><ele>25.25</ele></trkpt>
      <trkpt lat="51.471585" lon="-0.491219"><ele>25.75</ele></trkpt>
      <trkpt lat="51.471844" lon="-0.49141"><ele>25.75</ele></trkpt>
      <trkpt lat="51.472195" lon="-0.491728"><ele>25.75</ele></trkpt>
      <trkpt lat="51.472712" lon="-0.492307"><ele>25.25</ele></trkpt>
      <trkpt lat="51.473216" lon="-0.492927"><ele>25.25</ele></trkpt>
      <trkpt lat="51.473299" lon="-0.493032"><ele>24.25</ele></trkpt>
      <trkpt lat="51.473372" lon="-0.493101"><ele>24.5</ele></trkpt>
      <trkpt lat="51.473464" lon="-0.493162"><ele>24.75</ele></trkpt>
      <trkpt lat="51.473544" lon="-0.493287"><ele>25.25</ele></trkpt>
      <trkpt lat="51.473772" lon="-0.493398"><ele>25.25</ele></trkpt>
      <trkpt lat="51.473875" lon="-0.493476"><ele>24.5</ele></trkpt>
      <trkpt lat="51.473917" lon="-0.49354"><ele>24.75</ele></trkpt>
      <trkpt lat="51.47396" lon="-0.493624"><ele>25.75</ele></trkpt>
      <trkpt lat="51.473991" lon="-0.493716"><ele>26.5</ele></trkpt>
      <trkpt lat="51.47401" lon="-0.493795"><ele>27</ele></trkpt>
      <trkpt lat="51.474019" lon="-0.493902"><ele>27.25</ele></trkpt>
      <trkpt lat="51.474017" lon="-0.493993"><ele>26.5</ele></trkpt>
      <trkpt lat="51.473991" lon="-0.494178"><ele>24.75</ele></trkpt>
      <trkpt lat="51.473976" lon="-0.494236"><ele>24.25</ele></trkpt>
      <trkpt lat="51.47402" lon="-0.494251"><ele>25</ele></trkpt>
      <trkpt lat="51.474031" lon="-0.494286"><ele>24.75</ele></trkpt>
      <trkpt lat="51.474046" lon="-0.494304"><ele>24.75</ele></trkpt>
      <trkpt lat="51.47422" lon="-0.494384"><ele>25.5</ele></trkpt>
      <trkpt lat="51.475213" lon="-0.494795"><ele>27</ele></trkpt>
      <trkpt lat="51.475429" lon="-0.494844"><ele>25.5</ele></trkpt>
      <trkpt lat="51.475743" lon="-0.494893"><ele>23.5</ele></trkpt>
      <trkpt lat="51.476015" lon="-0.494882"><ele>22.25</ele></trkpt>
      <trkpt lat="51.476321" lon="-0.49483"><ele>21.75</ele></trkpt>
      <trkpt lat="51.476315" lon="-0.494743"><ele>21.25</ele></trkpt>
      <trkpt lat="51.476312" lon="-0.4947"><ele>21.25</ele></trkpt>
      <trkpt lat="51.476401" lon="-0.4947"><ele>21</ele></trkpt>
      <trkpt lat="51.476493" lon="-0.494702"><ele>21</ele></trkpt>
      <trkpt lat="51.476966" lon="-0.494625"><ele>22</ele></trkpt>
      <trkpt lat="51.477165" lon="-0.494624"><ele>22</ele></trkpt>
      <trkpt lat="51.477371" lon="-0.494546"><ele>22</ele></trkpt>
      <trkpt lat="51.477684" lon="-0.494398"><ele>22.5</ele></trkpt>
      <trkpt lat="51.477856" lon="-0.494276"><ele>22.5</ele></trkpt>
      <trkpt lat="51.477947" lon="-0.494197"><ele>22.5</ele></trkpt>
      <trkpt lat="51.478025" lon="-0.494104"><ele>22.75</ele></trkpt>
      <trkpt lat="51.47815" lon="-0.493947"><ele>23</ele></trkpt>
      <trkpt lat="51.478246" lon="-0.493795"><ele>22.75</ele></trkpt>
      <trkpt lat="51.4783" lon="-0.493678"><ele>22.25</ele></trkpt>
      <trkpt lat="51.478358" lon="-0.493539"><ele>22.25</ele></trkpt>
      <trkpt lat="51.478372" lon="-0.493506"><ele>22.25</ele></trkpt>
      <trkpt lat="51.47845" lon="-0.493278"><ele>23</ele></trkpt>
      <trkpt lat="51.478498" lon="-0.493092"><ele>23</ele></trkpt>
      <trkpt lat="51.478589" lon="-0.492605"><ele>23</ele></trkpt>
      <trkpt lat="51.478719" lon="-0.49165"><ele>23</ele></trkpt>
      <trkpt lat="51.478808" lon="-0.49094"><ele>23</ele></trkpt>
      <trkpt lat="51.478945" lon="-0.489757"><ele>22.75</ele></trkpt>
      <trkpt lat="51.479126" lon="-0.488093"><ele>23</ele></trkpt>
      <trkpt lat="51.479173" lon="-0.487578"><ele>23</ele></trkpt>
      <trkpt lat="51.479188" lon="-0.487077"><ele>23</ele></trkpt>
      <trkpt lat="51.479259" lon="-0.485799"><ele>24</ele></trkpt>
      <trkpt lat="51.479257" lon="-0.484869"><ele>24</ele></trkpt>
      <trkpt lat="51.47928" lon="-0.484364"><ele>24</ele></trkpt>
      <trkpt lat="51.479263" lon="-0.4832"><ele>24</ele></trkpt>
      <trkpt lat="51.479277" lon="-0.482945"><ele>23.75</ele></trkpt>
      <trkpt lat="51.479296" lon="-0.482697"><ele>24</ele></trkpt>
      <trkpt lat="51.479334" lon="-0.482456"><ele>24</ele></trkpt>
      <trkpt lat="51.479384" lon="-0.482197"><ele>24.75</ele></trkpt>
      <trkpt lat="51.479468" lon="-0.481877"><ele>24</ele></trkpt>
      <trkpt lat="51.479543" lon="-0.481629"><ele>24.25</ele></trkpt>
      <trkpt lat="51.479639" lon="-0.481361"><ele>24.75</ele></trkpt>
      <trkpt lat="51.479785" lon="-0.480899"><ele>24</ele></trkpt>
      <trkpt lat="51.479873" lon="-0.480524"><ele>25</ele></trkpt>
      <trkpt lat="51.479929" lon="-0.480136"><ele>25</ele></trkpt>
      <trkpt lat="51.479949" lon="-0.479212"><ele>25</ele></trkpt>
      <trkpt lat="51.479954" lon="-0.478465"><ele>25</ele></trkpt>
      <trkpt lat="51.479961" lon="-0.477625"><ele>25</ele></trkpt>
      <trkpt lat="51.479962" lon="-0.477521"><ele>25</ele></trkpt>
      <trkpt lat="51.480008" lon="-0.477237"><ele>25</ele></trkpt>
      <trkpt lat="51.480027" lon="-0.477199"><ele>25</ele></trkpt>
      <trkpt lat="51.480036" lon="-0.477152"><ele>25</ele></trkpt>
      <trkpt lat="51.480033" lon="-0.477103"><ele>25</ele></trkpt>
      <trkpt lat="51.480019" lon="-0.47706"><ele>25</ele></trkpt>
      <trkpt lat="51.479995" lon="-0.477028"><ele>25</ele></trkpt>
      <trkpt lat="51.479966" lon="-0.477014"><ele>25</ele></trkpt>
      <trkpt lat="51.47996" lon="-0.475599"><ele>25</ele></trkpt>
      <trkpt lat="51.479955" lon="-0.474292"><ele>25</ele></trkpt>
      <trkpt lat="51.479965" lon="-0.473491"><ele>25</ele></trkpt>
      <trkpt lat="51.480024" lon="-0.473042"><ele>25</ele></trkpt>
      <trkpt lat="51.480041" lon="-0.473002"><ele>25</ele></trkpt>
      <trkpt lat="51.480049" lon="-0.472923"><ele>25</ele></trkpt>
      <trkpt lat="51.480042" lon="-0.472879"><ele>25</ele></trkpt>
      <trkpt lat="51.480029" lon="-0.472844"><ele>25</ele></trkpt>
      <trkpt lat="51.480001" lon="-0.472804"><ele>25</ele></trkpt>
      <trkpt lat="51.479982" lon="-0.472439"><ele>25</ele></trkpt>
      <trkpt lat="51.47998" lon="-0.472274"><ele>25</ele></trkpt>
      <trkpt lat="51.479976" lon="-0.47113"><ele>25</ele></trkpt>
      <trkpt lat="51.479976" lon="-0.471057"><ele>25</ele></trkpt>
      <trkpt lat="51.479981" lon="-0.47053"><ele>25</ele></trkpt>
      <trkpt lat="51.479982" lon="-0.470015"><ele>25</ele></trkpt>
      <trkpt lat="51.479985" lon="-0.469283"><ele>25</ele></trkpt>
      <trkpt lat="51.479987" lon="-0.468983"><ele>25</ele></trkpt>
      <trkpt lat="51.479983" lon="-0.467542"><ele>25</ele></trkpt>
      <trkpt lat="51.479965" lon="-0.467429"><ele>25</ele></trkpt>
      <trkpt lat="51.479964" lon="-0.466841"><ele>25</ele></trkpt>
      <trkpt lat="51.479978" lon="-0.466626"><ele>24.75</ele></trkpt>
      <trkpt lat="51.479989" lon="-0.465827"><ele>25</ele></trkpt>
      <trkpt lat="51.479989" lon="-0.465615"><ele>25</ele></trkpt>
      <trkpt lat="51.479991" lon="-0.462346"><ele>25</ele></trkpt>
      <trkpt lat="51.479993" lon="-0.461657"><ele>25</ele></trkpt>
      <trkpt lat="51.479992" lon="-0.461483"><ele>25</ele></trkpt>
      <trkpt lat="51.479993" lon="-0.461387"><ele>25</ele></trkpt>
      <trkpt lat="51.479994" lon="-0.461279"><ele>25.25</ele></trkpt>
      <trkpt lat="51.479991" lon="-0.460858"><ele>25</ele></trkpt>
      <trkpt lat="51.479991" lon="-0.460433"><ele>25</ele></trkpt>
      <trkpt lat="51.479993" lon="-0.45968"><ele>25</ele></trkpt>
      <trkpt lat="51.479979" lon="-0.459107"><ele>25</ele></trkpt>
      <trkpt lat="51.479976" lon="-0.458719"><ele>25</ele></trkpt>
      <trkpt lat="51.479978" lon="-0.458167"><ele>25</ele></trkpt>
      <trkpt lat="51.479976" lon="-0.458046"><ele>25</ele></trkpt>
      <trkpt lat="51.479984" lon="-0.457963"><ele>25</ele></trkpt>
      <trkpt lat="51.480017" lon="-0.457817"><ele>25</ele></trkpt>
      <trkpt lat="51.480057" lon="-0.457734"><ele>25.25</ele></trkpt>
      <trkpt lat="51.480119" lon="-0.457652"><ele>25.25</ele></trkpt>
      <trkpt lat="51.480261" lon="-0.457562"><ele>25.25</ele></trkpt>
      <trkpt lat="51.480326" lon="-0.457567"><ele>25</ele></trkpt>
      <trkpt lat="51.480377" lon="-0.457501"><ele>25</ele></trkpt>
      <trkpt lat="51.480439" lon="-0.457426"><ele>24.75</ele></trkpt>
      <trkpt lat="51.480495" lon="-0.457316"><ele>24.25</ele></trkpt>
      <trkpt lat="51.48056" lon="-0.457111"><ele>24</ele></trkpt>
      <trkpt lat="51.480556" lon="-0.456838"><ele>23.5</ele></trkpt>
      <trkpt lat="51.480554" lon="-0.455367"><ele>20</ele></trkpt>
      <trkpt lat="51.480517" lon="-0.455109"><ele>20.5</ele></trkpt>
      <trkpt lat="51.480513" lon="-0.454992"><ele>20.75</ele></trkpt>
      <trkpt lat="51.480518" lon="-0.454677"><ele>20.5</ele></trkpt>
      <trkpt lat="51.480545" lon="-0.453862"><ele>19</ele></trkpt>
      <trkpt lat="51.480528" lon="-0.453712"><ele>19.5</ele></trkpt>
      <trkpt lat="51.480491" lon="-0.453557"><ele>19.75</ele></trkpt>
      <trkpt lat="51.48046" lon="-0.453484"><ele>19.5</ele></trkpt>
      <trkpt lat="51.480428" lon="-0.453415"><ele>19.25</ele></trkpt>
      <trkpt lat="51.480363" lon="-0.453303"><ele>18.5</ele></trkpt>
      <trkpt lat="51.480311" lon="-0.453236"><ele>18.5</ele></trkpt>
      <trkpt lat="51.480263" lon="-0.453194"><ele>18.5</ele></trkpt>
      <trkpt lat="51.480194" lon="-0.453158"><ele>18.5</ele></trkpt>
      <trkpt lat="51.480086" lon="-0.453134"><ele>18.5</ele></trkpt>
      <trkpt lat="51.479771" lon="-0.453141"><ele>18.5</ele></trkpt>
      <trkpt lat="51.479601" lon="-0.453127"><ele>18.75</ele></trkpt>
      <trkpt lat="51.474094" lon="-0.453106"><ele>22.5</ele></trkpt>
      <trkpt lat="51.474167" lon="-0.453041"><ele>24.75</ele></trkpt>
      <trkpt lat="51.474172" lon="-0.452949"><ele>24.75</ele></trkpt>
      <trkpt lat="51.474158" lon="-0.452832"><ele>24.75</ele></trkpt>
      <trkpt lat="51.474087" lon="-0.452797"><ele>23.75</ele></trkpt>
      <trkpt lat="51.479771" lon="-0.452846"><ele>23.75</ele></trkpt>
      <trkpt lat="51.480197" lon="-0.452816"><ele>18</ele></trkpt>
      <trkpt lat="51.480245" lon="-0.452801"><ele>18</ele></trkpt>
      <trkpt lat="51.480286" lon="-0.452774"><ele>18</ele></trkpt>
      <trkpt lat="51.48033" lon="-0.452731"><ele>18.5</ele></trkpt>
      <trkpt lat="51.480454" lon="-0.452567"><ele>19.25</ele></trkpt>
      <trkpt lat="51.48069" lon="-0.452407"><ele>19</ele></trkpt>
      <trkpt lat="51.480719" lon="-0.452271"><ele>19.25</ele></trkpt>
      <trkpt lat="51.480734" lon="-0.452148"><ele>19.5</ele></trkpt>
      <trkpt lat="51.480736" lon="-0.451738"><ele>21.25</ele></trkpt>
      <trkpt lat="51.48074" lon="-0.451627"><ele>22.25</ele></trkpt>
      <trkpt lat="51.480624" lon="-0.451215"><ele>23.75</ele></trkpt>
      <trkpt lat="51.480583" lon="-0.450978"><ele>24.5</ele></trkpt>
      <trkpt lat="51.480553" lon="-0.45069"><ele>25</ele></trkpt>
      <trkpt lat="51.480584" lon="-0.450619"><ele>25</ele></trkpt>
      <trkpt lat="51.480582" lon="-0.450159"><ele>25.25</ele></trkpt>
      <trkpt lat="51.480613" lon="-0.449889"><ele>26</ele></trkpt>
      <trkpt lat="51.480642" lon="-0.449873"><ele>26</ele></trkpt>
      <trkpt lat="51.480703" lon="-0.44982"><ele>26</ele></trkpt>
      <trkpt lat="51.48075" lon="-0.449722"><ele>26</ele></trkpt>
      <trkpt lat="51.480763" lon="-0.449638"><ele>26</ele></trkpt>
      <trkpt lat="51.480768" lon="-0.44955"><ele>26</ele></trkpt>
      <trkpt lat="51.480754" lon="-0.449428"><ele>26</ele></trkpt>
      <trkpt lat="51.480755" lon="-0.449224"><ele>26</ele></trkpt>
      <trkpt lat="51.480787" lon="-0.449031"><ele>26</ele></trkpt>
      <trkpt lat="51.480942" lon="-0.448656"><ele>26</ele></trkpt>
      <trkpt lat="51.480989" lon="-0.448492"><ele>26</ele></trkpt>
      <trkpt lat="51.480997" lon="-0.448355"><ele>26</ele></trkpt>
      <trkpt lat="51.480993" lon="-0.448185"><ele>26</ele></trkpt>
      <trkpt lat="51.481029" lon="-0.44817"><ele>26</ele></trkpt>
      <trkpt lat="51.481081" lon="-0.448068"><ele>26</ele></trkpt>
      <trkpt lat="51.481089" lon="-0.448037"><ele>26</ele></trkpt>
      <trkpt lat="51.481093" lon="-0.447975"><ele>26</ele></trkpt>
      <trkpt lat="51.481146" lon="-0.447847"><ele>26</ele></trkpt>
      <trkpt lat="51.481067" lon="-0.446298"><ele>26</ele></trkpt>
      <trkpt lat="51.481065" lon="-0.446252"><ele>26</ele></trkpt>
      <trkpt lat="51.481051" lon="-0.445954"><ele>26</ele></trkpt>
      <trkpt lat="51.481046" lon="-0.445826"><ele>26</ele></trkpt>
      <trkpt lat="51.481005" lon="-0.444614"><ele>26</ele></trkpt>
      <trkpt lat="51.480977" lon="-0.443896"><ele>26</ele></trkpt>
      <trkpt lat="51.480974" lon="-0.443819"><ele>25.75</ele></trkpt>
      <trkpt lat="51.48076" lon="-0.437918"><ele>25</ele></trkpt>
      <trkpt lat="51.480689" lon="-0.436196"><ele>25</ele></trkpt>
      <trkpt lat="51.480688" lon="-0.436146"><ele>25</ele></trkpt>
      <trkpt lat="51.480672" lon="-0.435621"><ele>25</ele></trkpt>
      <trkpt lat="51.480643" lon="-0.434881"><ele>24.75</ele></trkpt>
      <trkpt lat="51.480642" lon="-0.434826"><ele>25</ele></trkpt>
      <trkpt lat="51.48063" lon="-0.434358"><ele>25</ele></trkpt>
      <trkpt lat="51.480625" lon="-0.434187"><ele>24.75</ele></trkpt>
      <trkpt lat="51.480616" lon="-0.433962"><ele>25</ele></trkpt>
      <trkpt lat="51.480614" lon="-0.433897"><ele>25</ele></trkpt>
      <trkpt lat="51.480603" lon="-0.433622"><ele>25</ele></trkpt>
      <trkpt lat="51.480581" lon="-0.433"><ele>24.75</ele></trkpt>
      <trkpt lat="51.480519" lon="-0.430899"><ele>24</ele></trkpt>
      <trkpt lat="51.480516" lon="-0.430268"><ele>23.75</ele></trkpt>
      <trkpt lat="51.480515" lon="-0.428892"><ele>24</ele></trkpt>
      <trkpt lat="51.480522" lon="-0.428685"><ele>24</ele></trkpt>
      <trkpt lat="51.48052" lon="-0.428478"><ele>24</ele></trkpt>
      <trkpt lat="51.48058" lon="-0.427576"><ele>24</ele></trkpt>
      <trkpt lat="51.480652" lon="-0.426392"><ele>24</ele></trkpt>
      <trkpt lat="51.480689" lon="-0.425835"><ele>24</ele></trkpt>
      <trkpt lat="51.48081" lon="-0.424104"><ele>24</ele></trkpt>
      <trkpt lat="51.480845" lon="-0.423538"><ele>24</ele></trkpt>
      <trkpt lat="51.480967" lon="-0.421819"><ele>24</ele></trkpt>
      <trkpt lat="51.481016" lon="-0.421255"><ele>24</ele></trkpt>
      <trkpt lat="51.481047" lon="-0.420925"><ele>23.75</ele></trkpt>
      <trkpt lat="51.481128" lon="-0.420325"><ele>24</ele></trkpt>
      <trkpt lat="51.481174" lon="-0.419999"><ele>24</ele></trkpt>
      <trkpt lat="51.481211" lon="-0.419681"><ele>23.75</ele></trkpt>
      <trkpt lat="51.481243" lon="-0.419307"><ele>23</ele></trkpt>
      <trkpt lat="51.481255" lon="-0.419118"><ele>23</ele></trkpt>
      <trkpt lat="51.481275" lon="-0.418285"><ele>23</ele></trkpt>
      <trkpt lat="51.481253" lon="-0.41762"><ele>23.5</ele></trkpt>
      <trkpt lat="51.481162" lon="-0.416864"><ele>23.5</ele></trkpt>
      <trkpt lat="51.481106" lon="-0.416518"><ele>24</ele></trkpt>
      <trkpt lat="51.481026" lon="-0.416137"><ele>24</ele></trkpt>
      <trkpt lat="51.480936" lon="-0.415796"><ele>23.75</ele></trkpt>
      <trkpt lat="51.480867" lon="-0.415539"><ele>23.75</ele></trkpt>
      <trkpt lat="51.480712" lon="-0.414955"><ele>24</ele></trkpt>
      <trkpt lat="51.480165" lon="-0.412896"><ele>23.75</ele></trkpt>
      <trkpt lat="51.480192" lon="-0.412875"><ele>23.75</ele></trkpt>
      <trkpt lat="51.480223" lon="-0.412814"><ele>23.75</ele></trkpt>
      <trkpt lat="51.480239" lon="-0.412731"><ele>24</ele></trkpt>
      <trkpt lat="51.480189" lon="-0.412557"><ele>24</ele></trkpt>
      <trkpt lat="51.480168" lon="-0.412485"><ele>24</ele></trkpt>
      <trkpt lat="51.479952" lon="-0.411656"><ele>24</ele></trkpt>
      <trkpt lat="51.479866" lon="-0.411368"><ele>24</ele></trkpt>
      <trkpt lat="51.479766" lon="-0.411037"><ele>24</ele></trkpt>
      <trkpt lat="51.479717" lon="-0.410861"><ele>24</ele></trkpt>
      <trkpt lat="51.479675" lon="-0.410709"><ele>24</ele></trkpt>
      <trkpt lat="51.479657" lon="-0.410645"><ele>24</ele></trkpt>
      <trkpt lat="51.479618" lon="-0.410473"><ele>24</ele></trkpt>
      <trkpt lat="51.479587" lon="-0.410324"><ele>24</ele></trkpt>
      <trkpt lat="51.479174" lon="-0.408895"><ele>23.75</ele></trkpt>
      <trkpt lat="51.478866" lon="-0.407845"><ele>23.75</ele></trkpt>
      <trkpt lat="51.478854" lon="-0.407805"><ele>23.75</ele></trkpt>
      <trkpt lat="51.478683" lon="-0.40721"><ele>23.5</ele></trkpt>
      <trkpt lat="51.478298" lon="-0.405865"><ele>23.75</ele></trkpt>
      <trkpt lat="51.478091" lon="-0.405183"><ele>23.5</ele></trkpt>
      <trkpt lat="51.477945" lon="-0.404631"><ele>23.5</ele></trkpt>
      <trkpt lat="51.477934" lon="-0.404572"><ele>23.5</ele></trkpt>
      <trkpt lat="51.477923" lon="-0.404342"><ele>24</ele></trkpt>
      <trkpt lat="51.477953" lon="-0.404253"><ele>24.25</ele></trkpt>
      <trkpt lat="51.477959" lon="-0.404111"><ele>24.25</ele></trkpt>
      <trkpt lat="51.477945" lon="-0.403984"><ele>24</ele></trkpt>
      <trkpt lat="51.477926" lon="-0.403919"><ele>24</ele></trkpt>
      <trkpt lat="51.477873" lon="-0.403823"><ele>23.75</ele></trkpt>
      <trkpt lat="51.477817" lon="-0.403769"><ele>23.75</ele></trkpt>
      <trkpt lat="51.477727" lon="-0.403659"><ele>24</ele></trkpt>
      <trkpt lat="51.477666" lon="-0.403562"><ele>23.75</ele></trkpt>
      <trkpt lat="51.477611" lon="-0.403433"><ele>23.5</ele></trkpt>
      <trkpt lat="51.477581" lon="-0.403326"><ele>23.5</ele></trkpt>
      <trkpt lat="51.477047" lon="-0.401445"><ele>24</ele></trkpt>
      <trkpt lat="51.476862" lon="-0.400744"><ele>24</ele></trkpt>
      <trkpt lat="51.476414" lon="-0.399162"><ele>23.75</ele></trkpt>
      <trkpt lat="51.476008" lon="-0.397514"><ele>24</ele></trkpt>
      <trkpt lat="51.475797" lon="-0.396698"><ele>24</ele></trkpt>
      <trkpt lat="51.475766" lon="-0.396574"><ele>23.75</ele></trkpt>
      <trkpt lat="51.475735" lon="-0.39645"><ele>24</ele></trkpt>
      <trkpt lat="51.47571" lon="-0.396301"><ele>24</ele></trkpt>
      <trkpt lat="51.475703" lon="-0.396215"><ele>24</ele></trkpt>
      <trkpt lat="51.475708" lon="-0.396083"><ele>24</ele></trkpt>
      <trkpt lat="51.475722" lon="-0.395942"><ele>24</ele></trkpt>
      <trkpt lat="51.475757" lon="-0.395845"><ele>24.25</ele></trkpt>
      <trkpt lat="51.475764" lon="-0.395799"><ele>24</ele></trkpt>
      <trkpt lat="51.475764" lon="-0.395679"><ele>24</ele></trkpt>
      <trkpt lat="51.475753" lon="-0.395609"><ele>24.25</ele></trkpt>
      <trkpt lat="51.475719" lon="-0.395507"><ele>24.25</ele></trkpt>
      <trkpt lat="51.475673" lon="-0.395446"><ele>24.25</ele></trkpt>
      <trkpt lat="51.475557" lon="-0.395354"><ele>24.25</ele></trkpt>
      <trkpt lat="51.475507" lon="-0.395275"><ele>24</ele></trkpt>
      <trkpt lat="51.475476" lon="-0.395206"><ele>24</ele></trkpt>
      <trkpt lat="51.475414" lon="-0.394991"><ele>24</ele></trkpt>
      <trkpt lat="51.475319" lon="-0.394585"><ele>24</ele></trkpt>
      <trkpt lat="51.475292" lon="-0.394432"><ele>24</ele></trkpt>
      <trkpt lat="51.47525" lon="-0.3941"><ele>24</ele></trkpt>
      <trkpt lat="51.47524" lon="-0.393779"><ele>24</ele></trkpt>
      <trkpt lat="51.475248" lon="-0.393591"><ele>24</ele></trkpt>
      <trkpt lat="51.475267" lon="-0.393396"><ele>24</ele></trkpt>
      <trkpt lat="51.475454" lon="-0.392051"><ele>24</ele></trkpt>
      <trkpt lat="51.475486" lon="-0.391802"><ele>24</ele></trkpt>
      <trkpt lat="51.475559" lon="-0.391242"><ele>24</ele></trkpt>
      <trkpt lat="51.475567" lon="-0.391177"><ele>24</ele></trkpt>
      <trkpt lat="51.475634" lon="-0.390506"><ele>24</ele></trkpt>
      <trkpt lat="51.476287" lon="-0.385502"><ele>24</ele></trkpt>
      <trkpt lat="51.476436" lon="-0.38447"><ele>24</ele></trkpt>
      <trkpt lat="51.476446" lon="-0.384396"><ele>24</ele></trkpt>
      <trkpt lat="51.47648" lon="-0.384161"><ele>24</ele></trkpt>
      <trkpt lat="51.476533" lon="-0.383796"><ele>24</ele></trkpt>
      <trkpt lat="51.476539" lon="-0.383737"><ele>24</ele></trkpt>
      <trkpt lat="51.476581" lon="-0.383374"><ele>24</ele></trkpt>
      <trkpt lat="51.476616" lon="-0.383105"><ele>24</ele></trkpt>
      <trkpt lat="51.476644" lon="-0.382821"><ele>24</ele></trkpt>
      <trkpt lat="51.476727" lon="-0.382139"><ele>24</ele></trkpt>
      <trkpt lat="51.476947" lon="-0.380442"><ele>24.75</ele></trkpt>
      <trkpt lat="51.47728" lon="-0.377873"><ele>25.5</ele></trkpt>
      <trkpt lat="51.477641" lon="-0.375111"><ele>27</ele></trkpt>
      <trkpt lat="51.477772" lon="-0.374158"><ele>27</ele></trkpt>
      <trkpt lat="51.477799" lon="-0.374061"><ele>27</ele></trkpt>
      <trkpt lat="51.477849" lon="-0.373683"><ele>27.25</ele></trkpt>
      <trkpt lat="51.47793" lon="-0.372986"><ele>27.5</ele></trkpt>
      <trkpt lat="51.477954" lon="-0.372801"><ele>27.75</ele></trkpt>
      <trkpt lat="51.477975" lon="-0.3726"><ele>27.75</ele></trkpt>
      <trkpt lat="51.477999" lon="-0.372427"><ele>27.75</ele></trkpt>
      <trkpt lat="51.478016" lon="-0.372273"><ele>27.75</ele></trkpt>
      <trkpt lat="51.478028" lon="-0.372208"><ele>28</ele></trkpt>
      <trkpt lat="51.478075" lon="-0.371821"><ele>28</ele></trkpt>
      <trkpt lat="51.47847" lon="-0.368837"><ele>29</ele></trkpt>
      <trkpt lat="51.478677" lon="-0.367393"><ele>29</ele></trkpt>
      <trkpt lat="51.478686" lon="-0.367326"><ele>29</ele></trkpt>
      <trkpt lat="51.478751" lon="-0.366837"><ele>28.75</ele></trkpt>
      <trkpt lat="51.47889" lon="-0.36564"><ele>28</ele></trkpt>
      <trkpt lat="51.478998" lon="-0.364767"><ele>28</ele></trkpt>
      <trkpt lat="51.479011" lon="-0.364665"><ele>28</ele></trkpt>
      <trkpt lat="51.479027" lon="-0.364538"><ele>28</ele></trkpt>
      <trkpt lat="51.479075" lon="-0.3642"><ele>28</ele></trkpt>
      <trkpt lat="51.47909" lon="-0.36411"><ele>28</ele></trkpt>
      <trkpt lat="51.479223" lon="-0.36318"><ele>28</ele></trkpt>
      <trkpt lat="51.479232" lon="-0.363117"><ele>28</ele></trkpt>
      <trkpt lat="51.479318" lon="-0.362509"><ele>28</ele></trkpt>
      <trkpt lat="51.479329" lon="-0.362431"><ele>28</ele></trkpt>
      <trkpt lat="51.479359" lon="-0.362219"><ele>28</ele></trkpt>
      <trkpt lat="51.479492" lon="-0.361003"><ele>28</ele></trkpt>
      <trkpt lat="51.47987" lon="-0.358057"><ele>27.5</ele></trkpt>
      <trkpt lat="51.480067" lon="-0.356529"><ele>28</ele></trkpt>
      <trkpt lat="51.480174" lon="-0.355748"><ele>28</ele></trkpt>
      <trkpt lat="51.480348" lon="-0.354564"><ele>28.5</ele></trkpt>
      <trkpt lat="51.480403" lon="-0.35419"><ele>28.5</ele></trkpt>
      <trkpt lat="51.48058" lon="-0.352999"><ele>28.75</ele></trkpt>
      <trkpt lat="51.48068" lon="-0.352398"><ele>28.25</ele></trkpt>
      <trkpt lat="51.480978" lon="-0.350863"><ele>27.75</ele></trkpt>
      <trkpt lat="51.48129" lon="-0.34942"><ele>27</ele></trkpt>
      <trkpt lat="51.481737" lon="-0.347541"><ele>27</ele></trkpt>
      <trkpt lat="51.48175" lon="-0.347483"><ele>27</ele></trkpt>
      <trkpt lat="51.481796" lon="-0.347273"><ele>27</ele></trkpt>
      <trkpt lat="51.481888" lon="-0.346854"><ele>27</ele></trkpt>
      <trkpt lat="51.482011" lon="-0.34615"><ele>26.75</ele></trkpt>
      <trkpt lat="51.482107" lon="-0.345509"><ele>26</ele></trkpt>
      <trkpt lat="51.48224" lon="-0.344493"><ele>26</ele></trkpt>
      <trkpt lat="51.482327" lon="-0.343542"><ele>26</ele></trkpt>
      <trkpt lat="51.482415" lon="-0.34253"><ele>26</ele></trkpt>
      <trkpt lat="51.48244" lon="-0.342114"><ele>26</ele></trkpt>
      <trkpt lat="51.482444" lon="-0.342042"><ele>26</ele></trkpt>
      <trkpt lat="51.482502" lon="-0.340474"><ele>25</ele></trkpt>
      <trkpt lat="51.482526" lon="-0.339871"><ele>25</ele></trkpt>
      <trkpt lat="51.482634" lon="-0.337739"><ele>25</ele></trkpt>
      <trkpt lat="51.482674" lon="-0.337073"><ele>25</ele></trkpt>
      <trkpt lat="51.482678" lon="-0.337003"><ele>25</ele></trkpt>
      <trkpt lat="51.482691" lon="-0.336782"><ele>25</ele></trkpt>
      <trkpt lat="51.482709" lon="-0.336401"><ele>25</ele></trkpt>
      <trkpt lat="51.482713" lon="-0.336328"><ele>25</ele></trkpt>
      <trkpt lat="51.482748" lon="-0.335606"><ele>24</ele></trkpt>
      <trkpt lat="51.482942" lon="-0.331629"><ele>23</ele></trkpt>
      <trkpt lat="51.482958" lon="-0.331295"><ele>23</ele></trkpt>
      <trkpt lat="51.483044" lon="-0.32967"><ele>22.75</ele></trkpt>
      <trkpt lat="51.483079" lon="-0.329202"><ele>22</ele></trkpt>
      <trkpt lat="51.483122" lon="-0.328846"><ele>22</ele></trkpt>
      <trkpt lat="51.483167" lon="-0.328535"><ele>22.25</ele></trkpt>
      <trkpt lat="51.483201" lon="-0.328303"><ele>22</ele></trkpt>
      <trkpt lat="51.483211" lon="-0.328236"><ele>22</ele></trkpt>
      <trkpt lat="51.483233" lon="-0.328091"><ele>22</ele></trkpt>
      <trkpt lat="51.483278" lon="-0.327773"><ele>22</ele></trkpt>
      <trkpt lat="51.483294" lon="-0.327651"><ele>22</ele></trkpt>
      <trkpt lat="51.483305" lon="-0.327593"><ele>22</ele></trkpt>
      <trkpt lat="51.483317" lon="-0.32752"><ele>22</ele></trkpt>
      <trkpt lat="51.483389" lon="-0.327089"><ele>22</ele></trkpt>
      <trkpt lat="51.483551" lon="-0.326218"><ele>20.25</ele></trkpt>
      <trkpt lat="51.483739" lon="-0.325246"><ele>19.25</ele></trkpt>
      <trkpt lat="51.483753" lon="-0.325177"><ele>19</ele></trkpt>
      <trkpt lat="51.483792" lon="-0.325015"><ele>18.25</ele></trkpt>
      <trkpt lat="51.483955" lon="-0.324429"><ele>18</ele></trkpt>
      <trkpt lat="51.484187" lon="-0.32368"><ele>16</ele></trkpt>
      <trkpt lat="51.484399" lon="-0.32308"><ele>15</ele></trkpt>
      <trkpt lat="51.48467" lon="-0.322367"><ele>14</ele></trkpt>
      <trkpt lat="51.485382" lon="-0.32062"><ele>11.25</ele></trkpt>
      <trkpt lat="51.485759" lon="-0.319693"><ele>9.5</ele></trkpt>
      <trkpt lat="51.485871" lon="-0.319419"><ele>9</ele></trkpt>
      <trkpt lat="51.486242" lon="-0.31855"><ele>9</ele></trkpt>
      <trkpt lat="51.48644" lon="-0.31807"><ele>9.5</ele></trkpt>
      <trkpt lat="51.486669" lon="-0.317516"><ele>9</ele></trkpt>
      <trkpt lat="51.486966" lon="-0.316788"><ele>9</ele></trkpt>
      <trkpt lat="51.487125" lon="-0.316414"><ele>10</ele></trkpt>
      <trkpt lat="51.487355" lon="-0.315833"><ele>10</ele></trkpt>
      <trkpt lat="51.487386" lon="-0.31575"><ele>10</ele></trkpt>
      <trkpt lat="51.487449" lon="-0.315583"><ele>10</ele></trkpt>
      <trkpt lat="51.487641" lon="-0.315069"><ele>10.25</ele></trkpt>
      <trkpt lat="51.487884" lon="-0.31445"><ele>11</ele></trkpt>
      <trkpt lat="51.488116" lon="-0.313832"><ele>11</ele></trkpt>
      <trkpt lat="51.488214" lon="-0.313539"><ele>11.5</ele></trkpt>
      <trkpt lat="51.488232" lon="-0.313495"><ele>11.75</ele></trkpt>
      <trkpt lat="51.488289" lon="-0.313355"><ele>11.75</ele></trkpt>
      <trkpt lat="51.488411" lon="-0.313057"><ele>12</ele></trkpt>
      <trkpt lat="51.488431" lon="-0.31301"><ele>12</ele></trkpt>
      <trkpt lat="51.488854" lon="-0.312023"><ele>12</ele></trkpt>
      <trkpt lat="51.488929" lon="-0.311842"><ele>11.75</ele></trkpt>
      <trkpt lat="51.489036" lon="-0.311589"><ele>12</ele></trkpt>
      <trkpt lat="51.489303" lon="-0.31093"><ele>11.75</ele></trkpt>
      <trkpt lat="51.489445" lon="-0.310639"><ele>11.75</ele></trkpt>
      <trkpt lat="51.489604" lon="-0.310345"><ele>11.75</ele></trkpt>
      <trkpt lat="51.489812" lon="-0.309894"><ele>11.25</ele></trkpt>
      <trkpt lat="51.48987" lon="-0.309709"><ele>11.25</ele></trkpt>
      <trkpt lat="51.489887" lon="-0.30963"><ele>11.5</ele></trkpt>
      <trkpt lat="51.489977" lon="-0.30926"><ele>12.5</ele></trkpt>
      <trkpt lat="51.489994" lon="-0.309202"><ele>12.75</ele></trkpt>
      <trkpt lat="51.490054" lon="-0.309"><ele>12.25</ele></trkpt>
      <trkpt lat="51.490148" lon="-0.308683"><ele>12</ele></trkpt>
      <trkpt lat="51.490251" lon="-0.308361"><ele>12</ele></trkpt>
      <trkpt lat="51.490875" lon="-0.306549"><ele>10.75</ele></trkpt>
      <trkpt lat="51.490916" lon="-0.306432"><ele>11</ele></trkpt>
      <trkpt lat="51.490936" lon="-0.306348"><ele>11</ele></trkpt>
      <trkpt lat="51.490994" lon="-0.306152"><ele>11</ele></trkpt>
      <trkpt lat="51.491067" lon="-0.305841"><ele>11</ele></trkpt>
      <trkpt lat="51.491127" lon="-0.305606"><ele>11</ele></trkpt>
      <trkpt lat="51.491219" lon="-0.305144"><ele>11.25</ele></trkpt>
      <trkpt lat="51.491311" lon="-0.304624"><ele>12</ele></trkpt>
      <trkpt lat="51.491328" lon="-0.304539"><ele>12</ele></trkpt>
      <trkpt lat="51.491366" lon="-0.304379"><ele>12</ele></trkpt>
      <trkpt lat="51.491403" lon="-0.304327"><ele>12</ele></trkpt>
      <trkpt lat="51.491435" lon="-0.304253"><ele>12</ele></trkpt>
      <trkpt lat="51.491452" lon="-0.304166"><ele>11.75</ele></trkpt>
      <trkpt lat="51.491452" lon="-0.304067"><ele>11.75</ele></trkpt>
      <trkpt lat="51.491435" lon="-0.303989"><ele>11.75</ele></trkpt>
      <trkpt lat="51.491408" lon="-0.303912"><ele>11.75</ele></trkpt>
      <trkpt lat="51.49141" lon="-0.303865"><ele>11.75</ele></trkpt>
      <trkpt lat="51.491421" lon="-0.303527"><ele>11.75</ele></trkpt>
      <trkpt lat="51.491444" lon="-0.302701"><ele>11</ele></trkpt>
      <trkpt lat="51.491464" lon="-0.30189"><ele>10.75</ele></trkpt>
      <trkpt lat="51.491464" lon="-0.301631"><ele>10.5</ele></trkpt>
      <trkpt lat="51.49147" lon="-0.301314"><ele>10.5</ele></trkpt>
      <trkpt lat="51.491483" lon="-0.300361"><ele>10.5</ele></trkpt>
      <trkpt lat="51.491487" lon="-0.300025"><ele>10</ele></trkpt>
      <trkpt lat="51.491491" lon="-0.299405"><ele>10.25</ele></trkpt>
      <trkpt lat="51.491492" lon="-0.299342"><ele>10</ele></trkpt>
      <trkpt lat="51.491506" lon="-0.298964"><ele>10.25</ele></trkpt>
      <trkpt lat="51.491525" lon="-0.298444"><ele>10</ele></trkpt>
      <trkpt lat="51.491518" lon="-0.298111"><ele>10</ele></trkpt>
      <trkpt lat="51.49147" lon="-0.297577"><ele>9.25</ele></trkpt>
      <trkpt lat="51.491442" lon="-0.297053"><ele>9</ele></trkpt>
      <trkpt lat="51.491419" lon="-0.295456"><ele>9</ele></trkpt>
      <trkpt lat="51.491419" lon="-0.294922"><ele>9</ele></trkpt>
      <trkpt lat="51.491449" lon="-0.29419"><ele>9</ele></trkpt>
      <trkpt lat="51.491473" lon="-0.293816"><ele>9.25</ele></trkpt>
      <trkpt lat="51.491485" lon="-0.292874"><ele>10</ele></trkpt>
      <trkpt lat="51.491492" lon="-0.292652"><ele>10</ele></trkpt>
      <trkpt lat="51.491493" lon="-0.292626"><ele>10</ele></trkpt>
      <trkpt lat="51.491514" lon="-0.292422"><ele>10</ele></trkpt>
      <trkpt lat="51.49153" lon="-0.292202"><ele>10</ele></trkpt>
      <trkpt lat="51.491552" lon="-0.292043"><ele>10</ele></trkpt>
      <trkpt lat="51.491561" lon="-0.291991"><ele>10</ele></trkpt>
      <trkpt lat="51.491612" lon="-0.291713"><ele>10</ele></trkpt>
      <trkpt lat="51.491671" lon="-0.291465"><ele>10</ele></trkpt>
      <trkpt lat="51.491711" lon="-0.291316"><ele>10</ele></trkpt>
      <trkpt lat="51.49183" lon="-0.290964"><ele>10.25</ele></trkpt>
      <trkpt lat="51.491959" lon="-0.290617"><ele>10</ele></trkpt>
      <trkpt lat="51.492124" lon="-0.290172"><ele>10.25</ele></trkpt>
      <trkpt lat="51.492372" lon="-0.289497"><ele>11</ele></trkpt>
      <trkpt lat="51.49241" lon="-0.289393"><ele>11</ele></trkpt>
      <trkpt lat="51.492715" lon="-0.288564"><ele>11.75</ele></trkpt>
      <trkpt lat="51.492797" lon="-0.288322"><ele>11.75</ele></trkpt>
      <trkpt lat="51.492866" lon="-0.288073"><ele>11.75</ele></trkpt>
      <trkpt lat="51.492895" lon="-0.28794"><ele>12</ele></trkpt>
      <trkpt lat="51.492919" lon="-0.287803"><ele>12</ele></trkpt>
      <trkpt lat="51.49295" lon="-0.287532"><ele>12.75</ele></trkpt>
      <trkpt lat="51.492963" lon="-0.287254"><ele>13</ele></trkpt>
      <trkpt lat="51.492959" lon="-0.286976"><ele>13.5</ele></trkpt>
      <trkpt lat="51.492937" lon="-0.2867"><ele>13.25</ele></trkpt>
      <trkpt lat="51.492854" lon="-0.286187"><ele>10.75</ele></trkpt>
      <trkpt lat="51.492702" lon="-0.285362"><ele>11</ele></trkpt>
      <trkpt lat="51.492613" lon="-0.284858"><ele>13.25</ele></trkpt>
      <trkpt lat="51.492561" lon="-0.284584"><ele>13.25</ele></trkpt>
      <trkpt lat="51.492499" lon="-0.284332"><ele>13.5</ele></trkpt>
      <trkpt lat="51.492386" lon="-0.283958"><ele>12</ele></trkpt>
      <trkpt lat="51.492256" lon="-0.283617"><ele>11.75</ele></trkpt>
      <trkpt lat="51.49211" lon="-0.283237"><ele>11.5</ele></trkpt>
      <trkpt lat="51.491842" lon="-0.282636"><ele>11</ele></trkpt>
      <trkpt lat="51.491818" lon="-0.282563"><ele>11</ele></trkpt>
      <trkpt lat="51.491791" lon="-0.282433"><ele>11</ele></trkpt>
      <trkpt lat="51.491846" lon="-0.28235"><ele>11</ele></trkpt>
      <trkpt lat="51.491877" lon="-0.282134"><ele>11</ele></trkpt>
      <trkpt lat="51.491882" lon="-0.282043"><ele>11</ele></trkpt>
      <trkpt lat="51.491883" lon="-0.281976"><ele>11</ele></trkpt>
      <trkpt lat="51.491887" lon="-0.28186"><ele>11</ele></trkpt>
      <trkpt lat="51.491883" lon="-0.281777"><ele>11</ele></trkpt>
      <trkpt lat="51.491865" lon="-0.281651"><ele>11</ele></trkpt>
      <trkpt lat="51.491836" lon="-0.281427"><ele>11</ele></trkpt>
      <trkpt lat="51.491846" lon="-0.281176"><ele>10</ele></trkpt>
      <trkpt lat="51.491869" lon="-0.28104"><ele>10</ele></trkpt>
      <trkpt lat="51.491889" lon="-0.280969"><ele>10</ele></trkpt>
      <trkpt lat="51.491927" lon="-0.280802"><ele>10</ele></trkpt>
      <trkpt lat="51.491936" lon="-0.280687"><ele>10</ele></trkpt>
      <trkpt lat="51.491953" lon="-0.280547"><ele>9.75</ele></trkpt>
      <trkpt lat="51.491956" lon="-0.280521"><ele>9.75</ele></trkpt>
      <trkpt lat="51.492008" lon="-0.280004"><ele>9.75</ele></trkpt>
      <trkpt lat="51.492031" lon="-0.279783"><ele>10</ele></trkpt>
      <trkpt lat="51.492098" lon="-0.279039"><ele>10</ele></trkpt>
      <trkpt lat="51.492111" lon="-0.278894"><ele>10</ele></trkpt>
      <trkpt lat="51.492121" lon="-0.278785"><ele>9.75</ele></trkpt>
      <trkpt lat="51.492173" lon="-0.278327"><ele>9.75</ele></trkpt>
      <trkpt lat="51.492233" lon="-0.277722"><ele>10</ele></trkpt>
      <trkpt lat="51.492297" lon="-0.276886"><ele>10</ele></trkpt>
      <trkpt lat="51.492326" lon="-0.276507"><ele>10</ele></trkpt>
      <trkpt lat="51.492337" lon="-0.27634"><ele>9.75</ele></trkpt>
      <trkpt lat="51.492344" lon="-0.276233"><ele>9.75</ele></trkpt>
      <trkpt lat="51.492383" lon="-0.276009"><ele>9.5</ele></trkpt>
      <trkpt lat="51.492411" lon="-0.275682"><ele>10</ele></trkpt>
      <trkpt lat="51.492422" lon="-0.275558"><ele>10</ele></trkpt>
      <trkpt lat="51.492444" lon="-0.275323"><ele>10</ele></trkpt>
      <trkpt lat="51.49245" lon="-0.275271"><ele>10</ele></trkpt>
      <trkpt lat="51.492492" lon="-0.274835"><ele>9.75</ele></trkpt>
      <trkpt lat="51.492499" lon="-0.274756"><ele>9.75</ele></trkpt>
      <trkpt lat="51.492515" lon="-0.274595"><ele>10</ele></trkpt>
      <trkpt lat="51.492521" lon="-0.274516"><ele>10</ele></trkpt>
      <trkpt lat="51.492533" lon="-0.274381"><ele>9.5</ele></trkpt>
      <trkpt lat="51.492549" lon="-0.274198"><ele>8.75</ele></trkpt>
      <trkpt lat="51.4926" lon="-0.274208"><ele>9.5</ele></trkpt>
      <trkpt lat="51.492607" lon="-0.274116"><ele>9</ele></trkpt>
      <trkpt lat="51.492678" lon="-0.27324"><ele>7.5</ele></trkpt>
      <trkpt lat="51.49289" lon="-0.271482"><ele>8</ele></trkpt>
      <trkpt lat="51.492937" lon="-0.271054"><ele>7.75</ele></trkpt>
      <trkpt lat="51.492951" lon="-0.270933"><ele>7.75</ele></trkpt>
      <trkpt lat="51.492967" lon="-0.270652"><ele>7.5</ele></trkpt>
      <trkpt lat="51.493023" lon="-0.26978"><ele>7</ele></trkpt>
      <trkpt lat="51.493022" lon="-0.269709"><ele>7</ele></trkpt>
      <trkpt lat="51.493091" lon="-0.269701"><ele>6.75</ele></trkpt>
      <trkpt lat="51.493136" lon="-0.26969"><ele>6.5</ele></trkpt>
      <trkpt lat="51.493172" lon="-0.269633"><ele>6.5</ele></trkpt>
      <trkpt lat="51.493186" lon="-0.26956"><ele>6.75</ele></trkpt>
      <trkpt lat="51.493319" lon="-0.268356"><ele>6</ele></trkpt>
      <trkpt lat="51.49337" lon="-0.267672"><ele>6</ele></trkpt>
      <trkpt lat="51.493404" lon="-0.267593"><ele>6</ele></trkpt>
      <trkpt lat="51.493415" lon="-0.267487"><ele>6.25</ele></trkpt>
      <trkpt lat="51.493461" lon="-0.267438"><ele>6.25</ele></trkpt>
      <trkpt lat="51.493483" lon="-0.267425"><ele>6.5</ele></trkpt>
      <trkpt lat="51.493503" lon="-0.267379"><ele>6.5</ele></trkpt>
      <trkpt lat="51.49358" lon="-0.267377"><ele>6.75</ele></trkpt>
      <trkpt lat="51.49365" lon="-0.2674"><ele>7</ele></trkpt>
      <trkpt lat="51.493715" lon="-0.267438"><ele>7.25</ele></trkpt>
      <trkpt lat="51.493724" lon="-0.267394"><ele>7.25</ele></trkpt>
      <trkpt lat="51.493938" lon="-0.267505"><ele>7.5</ele></trkpt>
      <trkpt lat="51.494009" lon="-0.267531"><ele>7.5</ele></trkpt>
      <trkpt lat="51.494098" lon="-0.267535"><ele>7.75</ele></trkpt>
      <trkpt lat="51.494148" lon="-0.26749"><ele>7.75</ele></trkpt>
      <trkpt lat="51.494217" lon="-0.267349"><ele>7.25</ele></trkpt>
      <trkpt lat="51.494386" lon="-0.267003"><ele>6.75</ele></trkpt>
      <trkpt lat="51.494545" lon="-0.266598"><ele>6</ele></trkpt>
      <trkpt lat="51.494577" lon="-0.266517"><ele>6</ele></trkpt>
      <trkpt lat="51.49465" lon="-0.266488"><ele>6</ele></trkpt>
      <trkpt lat="51.494888" lon="-0.265682"><ele>6</ele></trkpt>
      <trkpt lat="51.49507" lon="-0.265028"><ele>6</ele></trkpt>
      <trkpt lat="51.495295" lon="-0.264124"><ele>6</ele></trkpt>
      <trkpt lat="51.49539" lon="-0.263413"><ele>6</ele></trkpt>
      <trkpt lat="51.495404" lon="-0.263305"><ele>6</ele></trkpt>
      <trkpt lat="51.495342" lon="-0.262487"><ele>5</ele></trkpt>
      <trkpt lat="51.495255" lon="-0.261311"><ele>5.25</ele></trkpt>
      <trkpt lat="51.495207" lon="-0.260399"><ele>6</ele></trkpt>
      <trkpt lat="51.495212" lon="-0.260348"><ele>5.75</ele></trkpt>
      <trkpt lat="51.495221" lon="-0.260317"><ele>5.5</ele></trkpt>
      <trkpt lat="51.495227" lon="-0.260293"><ele>5.5</ele></trkpt>
      <trkpt lat="51.495228" lon="-0.26023"><ele>5.5</ele></trkpt>
      <trkpt lat="51.495231" lon="-0.260172"><ele>5.75</ele></trkpt>
      <trkpt lat="51.495232" lon="-0.260143"><ele>5.75</ele></trkpt>
      <trkpt lat="51.495224" lon="-0.260142"><ele>5.75</ele></trkpt>
      <trkpt lat="51.495253" lon="-0.259591"><ele>5.25</ele></trkpt>
      <trkpt lat="51.49536" lon="-0.25731"><ele>7</ele></trkpt>
      <trkpt lat="51.495379" lon="-0.257122"><ele>6.75</ele></trkpt>
      <trkpt lat="51.495449" lon="-0.256675"><ele>6</ele></trkpt>
      <trkpt lat="51.495542" lon="-0.256041"><ele>5</ele></trkpt>
      <trkpt lat="51.495642" lon="-0.255385"><ele>5</ele></trkpt>
      <trkpt lat="51.495753" lon="-0.255403"><ele>5</ele></trkpt>
      <trkpt lat="51.495782" lon="-0.255421"><ele>5</ele></trkpt>
      <trkpt lat="51.495788" lon="-0.255387"><ele>5</ele></trkpt>
      <trkpt lat="51.495803" lon="-0.255311"><ele>5</ele></trkpt>
      <trkpt lat="51.495695" lon="-0.255238"><ele>5</ele></trkpt>
      <trkpt lat="51.495729" lon="-0.255067"><ele>5.25</ele></trkpt>
      <trkpt lat="51.495908" lon="-0.254155"><ele>5</ele></trkpt>
      <trkpt lat="51.495963" lon="-0.25391"><ele>5</ele></trkpt>
      <trkpt lat="51.496295" lon="-0.252429"><ele>5</ele></trkpt>
      <trkpt lat="51.496347" lon="-0.252198"><ele>5</ele></trkpt>
      <trkpt lat="51.496404" lon="-0.25194"><ele>5</ele></trkpt>
      <trkpt lat="51.496549" lon="-0.251296"><ele>5</ele></trkpt>
      <trkpt lat="51.496782" lon="-0.250257"><ele>5</ele></trkpt>
      <trkpt lat="51.496827" lon="-0.250058"><ele>5</ele></trkpt>
      <trkpt lat="51.496884" lon="-0.2498"><ele>4.75</ele></trkpt>
      <trkpt lat="51.496956" lon="-0.249528"><ele>4.75</ele></trkpt>
      <trkpt lat="51.49704" lon="-0.249204"><ele>5</ele></trkpt>
      <trkpt lat="51.497069" lon="-0.249101"><ele>5</ele></trkpt>
      <trkpt lat="51.497091" lon="-0.249021"><ele>5</ele></trkpt>
      <trkpt lat="51.497114" lon="-0.248959"><ele>5</ele></trkpt>
      <trkpt lat="51.497157" lon="-0.248807"><ele>5</ele></trkpt>
      <trkpt lat="51.497176" lon="-0.248741"><ele>5</ele></trkpt>
      <trkpt lat="51.497309" lon="-0.248382"><ele>5</ele></trkpt>
      <trkpt lat="51.497371" lon="-0.248223"><ele>5</ele></trkpt>
      <trkpt lat="51.497415" lon="-0.24812"><ele>5</ele></trkpt>
      <trkpt lat="51.497645" lon="-0.247594"><ele>5</ele></trkpt>
      <trkpt lat="51.497842" lon="-0.24706"><ele>5</ele></trkpt>
      <trkpt lat="51.498036" lon="-0.246506"><ele>5</ele></trkpt>
      <trkpt lat="51.498142" lon="-0.246175"><ele>5</ele></trkpt>
      <trkpt lat="51.498166" lon="-0.246092"><ele>5</ele></trkpt>
      <trkpt lat="51.49819" lon="-0.24602"><ele>5</ele></trkpt>
      <trkpt lat="51.498387" lon="-0.245382"><ele>5</ele></trkpt>
      <trkpt lat="51.498479" lon="-0.245014"><ele>5</ele></trkpt>
      <trkpt lat="51.498514" lon="-0.244829"><ele>5</ele></trkpt>
      <trkpt lat="51.498702" lon="-0.243844"><ele>5</ele></trkpt>
      <trkpt lat="51.498717" lon="-0.243765"><ele>5</ele></trkpt>
      <trkpt lat="51.498719" lon="-0.243675"><ele>5</ele></trkpt>
      <trkpt lat="51.498709" lon="-0.243589"><ele>5</ele></trkpt>
      <trkpt lat="51.498675" lon="-0.243489"><ele>5</ele></trkpt>
      <trkpt lat="51.498679" lon="-0.243352"><ele>5</ele></trkpt>
      <trkpt lat="51.498767" lon="-0.242927"><ele>5</ele></trkpt>
      <trkpt lat="51.498808" lon="-0.242884"><ele>5</ele></trkpt>
      <trkpt lat="51.498822" lon="-0.242824"><ele>5</ele></trkpt>
      <trkpt lat="51.498845" lon="-0.242723"><ele>5</ele></trkpt>
      <trkpt lat="51.4991" lon="-0.241603"><ele>5</ele></trkpt>
      <trkpt lat="51.499166" lon="-0.24132"><ele>5</ele></trkpt>
      <trkpt lat="51.49931" lon="-0.240741"><ele>5</ele></trkpt>
      <trkpt lat="51.499324" lon="-0.240692"><ele>5</ele></trkpt>
      <trkpt lat="51.499375" lon="-0.240515"><ele>5</ele></trkpt>
      <trkpt lat="51.499413" lon="-0.240406"><ele>5</ele></trkpt>
      <trkpt lat="51.499504" lon="-0.240203"><ele>5</ele></trkpt>
      <trkpt lat="51.499552" lon="-0.240054"><ele>5</ele></trkpt>
      <trkpt lat="51.499695" lon="-0.239509"><ele>5</ele></trkpt>
      <trkpt lat="51.499694" lon="-0.239424"><ele>5</ele></trkpt>
      <trkpt lat="51.499724" lon="-0.239296"><ele>4.75</ele></trkpt>
      <trkpt lat="51.499758" lon="-0.239191"><ele>5</ele></trkpt>
      <trkpt lat="51.499783" lon="-0.239143"><ele>5</ele></trkpt>
      <trkpt lat="51.499784" lon="-0.239082"><ele>5</ele></trkpt>
      <trkpt lat="51.499802" lon="-0.239039"><ele>5</ele></trkpt>
      <trkpt lat="51.499815" lon="-0.238968"><ele>5</ele></trkpt>
      <trkpt lat="51.49984" lon="-0.238789"><ele>5</ele></trkpt>
      <trkpt lat="51.499879" lon="-0.238658"><ele>5</ele></trkpt>
      <trkpt lat="51.499882" lon="-0.238581"><ele>5</ele></trkpt>
      <trkpt lat="51.499889" lon="-0.238379"><ele>5</ele></trkpt>
      <trkpt lat="51.499898" lon="-0.238237"><ele>5</ele></trkpt>
      <trkpt lat="51.499941" lon="-0.238166"><ele>5</ele></trkpt>
      <trkpt lat="51.499969" lon="-0.237991"><ele>5</ele></trkpt>
      <trkpt lat="51.499974" lon="-0.237966"><ele>5</ele></trkpt>
      <trkpt lat="51.500024" lon="-0.237816"><ele>5</ele></trkpt>
      <trkpt lat="51.50004" lon="-0.237761"><ele>5</ele></trkpt>
      <trkpt lat="51.500055" lon="-0.237699"><ele>5</ele></trkpt>
      <trkpt lat="51.500074" lon="-0.237587"><ele>5.25</ele></trkpt>
      <trkpt lat="51.500079" lon="-0.237539"><ele>5.25</ele></trkpt>
      <trkpt lat="51.500062" lon="-0.237464"><ele>5</ele></trkpt>
      <trkpt lat="51.500097" lon="-0.237273"><ele>5.25</ele></trkpt>
      <trkpt lat="51.500133" lon="-0.237082"><ele>5.25</ele></trkpt>
      <trkpt lat="51.500141" lon="-0.237039"><ele>5.5</ele></trkpt>
      <trkpt lat="51.500181" lon="-0.236825"><ele>5.25</ele></trkpt>
      <trkpt lat="51.500203" lon="-0.236706"><ele>5</ele></trkpt>
      <trkpt lat="51.500219" lon="-0.236604"><ele>5</ele></trkpt>
      <trkpt lat="51.500225" lon="-0.236566"><ele>5</ele></trkpt>
      <trkpt lat="51.500254" lon="-0.236374"><ele>5</ele></trkpt>
      <trkpt lat="51.500265" lon="-0.236305"><ele>5</ele></trkpt>
      <trkpt lat="51.500273" lon="-0.236249"><ele>5</ele></trkpt>
      <trkpt lat="51.500301" lon="-0.236065"><ele>5</ele></trkpt>
      <trkpt lat="51.500322" lon="-0.235922"><ele>4.75</ele></trkpt>
      <trkpt lat="51.500325" lon="-0.235906"><ele>4.75</ele></trkpt>
      <trkpt lat="51.500327" lon="-0.235889"><ele>4.75</ele></trkpt>
      <trkpt lat="51.500397" lon="-0.235426"><ele>5</ele></trkpt>
      <trkpt lat="51.500403" lon="-0.235383"><ele>5.25</ele></trkpt>
      <trkpt lat="51.500421" lon="-0.235264"><ele>5.5</ele></trkpt>
      <trkpt lat="51.500469" lon="-0.234988"><ele>5.5</ele></trkpt>
      <trkpt lat="51.500554" lon="-0.23456"><ele>5.75</ele></trkpt>
      <trkpt lat="51.500583" lon="-0.234445"><ele>6</ele></trkpt>
      <trkpt lat="51.500608" lon="-0.234339"><ele>5.75</ele></trkpt>
      <trkpt lat="51.500633" lon="-0.234268"><ele>5.75</ele></trkpt>
      <trkpt lat="51.500654" lon="-0.234205"><ele>5.5</ele></trkpt>
      <trkpt lat="51.500724" lon="-0.234025"><ele>5</ele></trkpt>
      <trkpt lat="51.500744" lon="-0.233973"><ele>5</ele></trkpt>
      <trkpt lat="51.500729" lon="-0.233877"><ele>5</ele></trkpt>
      <trkpt lat="51.500801" lon="-0.233672"><ele>5.5</ele></trkpt>
      <trkpt lat="51.500808" lon="-0.233652"><ele>5.75</ele></trkpt>
      <trkpt lat="51.500844" lon="-0.233549"><ele>5.75</ele></trkpt>
      <trkpt lat="51.500861" lon="-0.233499"><ele>5.5</ele></trkpt>
      <trkpt lat="51.500877" lon="-0.23345"><ele>5.5</ele></trkpt>
      <trkpt lat="51.500927" lon="-0.233413"><ele>5.5</ele></trkpt>
      <trkpt lat="51.500975" lon="-0.233283"><ele>5.5</ele></trkpt>
      <trkpt lat="51.501022" lon="-0.233149"><ele>5.75</ele></trkpt>
      <trkpt lat="51.501029" lon="-0.23313"><ele>5.75</ele></trkpt>
      <trkpt lat="51.501105" lon="-0.232897"><ele>6</ele></trkpt>
      <trkpt lat="51.501098" lon="-0.2328"><ele>6</ele></trkpt>
      <trkpt lat="51.501144" lon="-0.232637"><ele>5.75</ele></trkpt>
      <trkpt lat="51.501212" lon="-0.232399"><ele>5.5</ele></trkpt>
      <trkpt lat="51.501238" lon="-0.232306"><ele>5.25</ele></trkpt>
      <trkpt lat="51.501289" lon="-0.232278"><ele>5.5</ele></trkpt>
      <trkpt lat="51.501373" lon="-0.23193"><ele>5.75</ele></trkpt>
      <trkpt lat="51.501354" lon="-0.231852"><ele>5.5</ele></trkpt>
      <trkpt lat="51.50139" lon="-0.231682"><ele>5</ele></trkpt>
      <trkpt lat="51.5014" lon="-0.231632"><ele>5</ele></trkpt>
      <trkpt lat="51.501447" lon="-0.231597"><ele>5</ele></trkpt>
      <trkpt lat="51.501539" lon="-0.231145"><ele>5</ele></trkpt>
      <trkpt lat="51.501578" lon="-0.231111"><ele>5</ele></trkpt>
      <trkpt lat="51.501592" lon="-0.231038"><ele>5</ele></trkpt>
      <trkpt lat="51.501616" lon="-0.230911"><ele>5</ele></trkpt>
      <trkpt lat="51.501677" lon="-0.230611"><ele>5</ele></trkpt>
      <trkpt lat="51.501687" lon="-0.23055"><ele>5</ele></trkpt>
      <trkpt lat="51.501765" lon="-0.230166"><ele>5</ele></trkpt>
      <trkpt lat="51.501777" lon="-0.230107"><ele>5</ele></trkpt>
      <trkpt lat="51.501913" lon="-0.229416"><ele>5.75</ele></trkpt>
      <trkpt lat="51.501974" lon="-0.229086"><ele>5</ele></trkpt>
      <trkpt lat="51.501985" lon="-0.229017"><ele>5</ele></trkpt>
      <trkpt lat="51.501999" lon="-0.228942"><ele>4.75</ele></trkpt>
      <trkpt lat="51.501981" lon="-0.228828"><ele>5</ele></trkpt>
      <trkpt lat="51.502006" lon="-0.228705"><ele>5</ele></trkpt>
      <trkpt lat="51.502014" lon="-0.228666"><ele>5</ele></trkpt>
      <trkpt lat="51.502022" lon="-0.228631"><ele>5</ele></trkpt>
      <trkpt lat="51.502029" lon="-0.228595"><ele>5</ele></trkpt>
      <trkpt lat="51.502037" lon="-0.228559"><ele>5</ele></trkpt>
      <trkpt lat="51.50204" lon="-0.228547"><ele>5</ele></trkpt>
      <trkpt lat="51.502158" lon="-0.227924"><ele>5</ele></trkpt>
      <trkpt lat="51.502176" lon="-0.22783"><ele>5</ele></trkpt>
      <trkpt lat="51.502196" lon="-0.227721"><ele>5</ele></trkpt>
      <trkpt lat="51.502222" lon="-0.227581"><ele>5</ele></trkpt>
      <trkpt lat="51.502357" lon="-0.226909"><ele>5.25</ele></trkpt>
      <trkpt lat="51.502377" lon="-0.226799"><ele>5.25</ele></trkpt>
      <trkpt lat="51.502409" lon="-0.226621"><ele>5</ele></trkpt>
      <trkpt lat="51.502426" lon="-0.226526"><ele>5</ele></trkpt>
      <trkpt lat="51.502431" lon="-0.226498"><ele>5</ele></trkpt>
      <trkpt lat="51.502445" lon="-0.226423"><ele>5</ele></trkpt>
      <trkpt lat="51.502467" lon="-0.226301"><ele>4.75</ele></trkpt>
      <trkpt lat="51.502486" lon="-0.226193"><ele>4.75</ele></trkpt>
      <trkpt lat="51.502506" lon="-0.226081"><ele>5</ele></trkpt>
      <trkpt lat="51.502524" lon="-0.225982"><ele>5.25</ele></trkpt>
      <trkpt lat="51.502611" lon="-0.225559"><ele>5.25</ele></trkpt>
      <trkpt lat="51.502729" lon="-0.225087"><ele>5.75</ele></trkpt>
      <trkpt lat="51.502777" lon="-0.224903"><ele>5.75</ele></trkpt>
      <trkpt lat="51.502983" lon="-0.224206"><ele>5.5</ele></trkpt>
      <trkpt lat="51.503067" lon="-0.223914"><ele>6</ele></trkpt>
      <trkpt lat="51.503082" lon="-0.223866"><ele>5.75</ele></trkpt>
      <trkpt lat="51.503082" lon="-0.223799"><ele>5.5</ele></trkpt>
      <trkpt lat="51.503129" lon="-0.223643"><ele>5.25</ele></trkpt>
      <trkpt lat="51.503155" lon="-0.223586"><ele>5.25</ele></trkpt>
      <trkpt lat="51.503247" lon="-0.223402"><ele>5.5</ele></trkpt>
      <trkpt lat="51.503294" lon="-0.223315"><ele>5.75</ele></trkpt>
      <trkpt lat="51.503323" lon="-0.223258"><ele>5.75</ele></trkpt>
      <trkpt lat="51.503391" lon="-0.223121"><ele>6</ele></trkpt>
      <trkpt lat="51.503407" lon="-0.223078"><ele>6</ele></trkpt>
      <trkpt lat="51.503434" lon="-0.223"><ele>5.75</ele></trkpt>
      <trkpt lat="51.503454" lon="-0.222936"><ele>5.75</ele></trkpt>
      <trkpt lat="51.503459" lon="-0.222878"><ele>5.5</ele></trkpt>
      <trkpt lat="51.503453" lon="-0.222839"><ele>5.5</ele></trkpt>
      <trkpt lat="51.503464" lon="-0.222786"><ele>5.25</ele></trkpt>
      <trkpt lat="51.50355" lon="-0.222382"><ele>5.25</ele></trkpt>
      <trkpt lat="51.503605" lon="-0.222084"><ele>5.25</ele></trkpt>
      <trkpt lat="51.503668" lon="-0.221741"><ele>6</ele></trkpt>
      <trkpt lat="51.503711" lon="-0.221528"><ele>6</ele></trkpt>
      <trkpt lat="51.503774" lon="-0.221203"><ele>6</ele></trkpt>
      <trkpt lat="51.503782" lon="-0.221035"><ele>6</ele></trkpt>
      <trkpt lat="51.503821" lon="-0.220839"><ele>6</ele></trkpt>
      <trkpt lat="51.503869" lon="-0.220755"><ele>6</ele></trkpt>
      <trkpt lat="51.5039" lon="-0.2206"><ele>6</ele></trkpt>
      <trkpt lat="51.503933" lon="-0.220413"><ele>6</ele></trkpt>
      <trkpt lat="51.503948" lon="-0.220335"><ele>5.75</ele></trkpt>
      <trkpt lat="51.503958" lon="-0.220283"><ele>6</ele></trkpt>
      <trkpt lat="51.503945" lon="-0.220213"><ele>6</ele></trkpt>
      <trkpt lat="51.503994" lon="-0.219966"><ele>6</ele></trkpt>
      <trkpt lat="51.504051" lon="-0.219645"><ele>6</ele></trkpt>
      <trkpt lat="51.504085" lon="-0.219437"><ele>6</ele></trkpt>
      <trkpt lat="51.504117" lon="-0.219239"><ele>6</ele></trkpt>
      <trkpt lat="51.504145" lon="-0.21906"><ele>6</ele></trkpt>
      <trkpt lat="51.504162" lon="-0.218952"><ele>6</ele></trkpt>
      <trkpt lat="51.504174" lon="-0.218877"><ele>6</ele></trkpt>
      <trkpt lat="51.504241" lon="-0.218458"><ele>6.25</ele></trkpt>
      <trkpt lat="51.504283" lon="-0.217835"><ele>7.25</ele></trkpt>
      <trkpt lat="51.504293" lon="-0.217486"><ele>7.75</ele></trkpt>
      <trkpt lat="51.504311" lon="-0.217202"><ele>8.5</ele></trkpt>
      <trkpt lat="51.504194" lon="-0.216641"><ele>8.75</ele></trkpt>
      <trkpt lat="51.504163" lon="-0.216466"><ele>8.25</ele></trkpt>
      <trkpt lat="51.504218" lon="-0.216231"><ele>7.75</ele></trkpt>
      <trkpt lat="51.504228" lon="-0.216215"><ele>7.75</ele></trkpt>
      <trkpt lat="51.504295" lon="-0.216135"><ele>7.5</ele></trkpt>
      <trkpt lat="51.50446" lon="-0.216"><ele>6.75</ele></trkpt>
      <trkpt lat="51.504662" lon="-0.215897"><ele>7</ele></trkpt>
      <trkpt lat="51.504739" lon="-0.215703"><ele>7</ele></trkpt>
      <trkpt lat="51.504763" lon="-0.215632"><ele>7</ele></trkpt>
      <trkpt lat="51.50486" lon="-0.215318"><ele>7</ele></trkpt>
      <trkpt lat="51.504888" lon="-0.215239"><ele>6.75</ele></trkpt>
      <trkpt lat="51.504945" lon="-0.215025"><ele>6.75</ele></trkpt>
      <trkpt lat="51.50497" lon="-0.214923"><ele>6.75</ele></trkpt>
      <trkpt lat="51.50502" lon="-0.214876"><ele>7</ele></trkpt>
      <trkpt lat="51.505049" lon="-0.214728"><ele>7</ele></trkpt>
      <trkpt lat="51.505159" lon="-0.214193"><ele>7</ele></trkpt>
      <trkpt lat="51.505192" lon="-0.214027"><ele>7</ele></trkpt>
      <trkpt lat="51.505243" lon="-0.213777"><ele>6.75</ele></trkpt>
      <trkpt lat="51.505321" lon="-0.213396"><ele>7</ele></trkpt>
      <trkpt lat="51.505358" lon="-0.213204"><ele>7</ele></trkpt>
      <trkpt lat="51.50537" lon="-0.21314"><ele>7</ele></trkpt>
      <trkpt lat="51.505378" lon="-0.213099"><ele>7</ele></trkpt>
      <trkpt lat="51.505396" lon="-0.213008"><ele>7</ele></trkpt>
      <trkpt lat="51.505434" lon="-0.212802"><ele>7</ele></trkpt>
      <trkpt lat="51.505459" lon="-0.212672"><ele>6.75</ele></trkpt>
      <trkpt lat="51.505478" lon="-0.212568"><ele>6.75</ele></trkpt>
      <trkpt lat="51.505576" lon="-0.212077"><ele>7</ele></trkpt>
      <trkpt lat="51.505586" lon="-0.212027"><ele>7</ele></trkpt>
      <trkpt lat="51.505609" lon="-0.211913"><ele>7</ele></trkpt>
      <trkpt lat="51.505638" lon="-0.211781"><ele>7</ele></trkpt>
      <trkpt lat="51.505679" lon="-0.211585"><ele>7</ele></trkpt>
      <trkpt lat="51.50569" lon="-0.211532"><ele>7</ele></trkpt>
      <trkpt lat="51.5057" lon="-0.211485"><ele>7.25</ele></trkpt>
      <trkpt lat="51.505706" lon="-0.211458"><ele>7.25</ele></trkpt>
      <trkpt lat="51.505777" lon="-0.21112"><ele>7.75</ele></trkpt>
      <trkpt lat="51.505907" lon="-0.210515"><ele>8</ele></trkpt>
      <trkpt lat="51.505937" lon="-0.210371"><ele>8</ele></trkpt>
      <trkpt lat="51.506034" lon="-0.20992"><ele>8</ele></trkpt>
      <trkpt lat="51.506133" lon="-0.209489"><ele>8.75</ele></trkpt>
      <trkpt lat="51.506163" lon="-0.209358"><ele>9</ele></trkpt>
      <trkpt lat="51.506177" lon="-0.209297"><ele>9</ele></trkpt>
      <trkpt lat="51.506183" lon="-0.20927"><ele>9</ele></trkpt>
      <trkpt lat="51.506227" lon="-0.209087"><ele>9</ele></trkpt>
      <trkpt lat="51.506257" lon="-0.20896"><ele>9</ele></trkpt>
      <trkpt lat="51.506264" lon="-0.208928"><ele>9</ele></trkpt>
      <trkpt lat="51.506281" lon="-0.208856"><ele>8.75</ele></trkpt>
      <trkpt lat="51.506484" lon="-0.208098"><ele>10</ele></trkpt>
      <trkpt lat="51.506551" lon="-0.207845"><ele>10.25</ele></trkpt>
      <trkpt lat="51.506567" lon="-0.207786"><ele>10.25</ele></trkpt>
      <trkpt lat="51.506577" lon="-0.207751"><ele>10.25</ele></trkpt>
      <trkpt lat="51.506611" lon="-0.207633"><ele>10.5</ele></trkpt>
      <trkpt lat="51.506653" lon="-0.207487"><ele>11</ele></trkpt>
      <trkpt lat="51.506659" lon="-0.207464"><ele>11</ele></trkpt>
      <trkpt lat="51.506678" lon="-0.207398"><ele>11</ele></trkpt>
      <trkpt lat="51.506774" lon="-0.207049"><ele>11.5</ele></trkpt>
      <trkpt lat="51.506792" lon="-0.206978"><ele>11.75</ele></trkpt>
      <trkpt lat="51.506803" lon="-0.206935"><ele>12</ele></trkpt>
      <trkpt lat="51.506847" lon="-0.206769"><ele>12</ele></trkpt>
      <trkpt lat="51.506879" lon="-0.206646"><ele>12</ele></trkpt>
      <trkpt lat="51.506891" lon="-0.206601"><ele>12</ele></trkpt>
      <trkpt lat="51.506903" lon="-0.206554"><ele>12</ele></trkpt>
      <trkpt lat="51.507176" lon="-0.205584"><ele>14</ele></trkpt>
      <trkpt lat="51.507185" lon="-0.205551"><ele>14</ele></trkpt>
      <trkpt lat="51.507199" lon="-0.205505"><ele>14</ele></trkpt>
      <trkpt lat="51.507237" lon="-0.205381"><ele>14</ele></trkpt>
      <trkpt lat="51.507458" lon="-0.20457"><ele>16.5</ele></trkpt>
      <trkpt lat="51.50753" lon="-0.204308"><ele>16.75</ele></trkpt>
      <trkpt lat="51.507538" lon="-0.204183"><ele>17</ele></trkpt>
      <trkpt lat="51.507647" lon="-0.203786"><ele>18.5</ele></trkpt>
      <trkpt lat="51.507682" lon="-0.203662"><ele>19</ele></trkpt>
      <trkpt lat="51.507734" lon="-0.203473"><ele>19.25</ele></trkpt>
      <trkpt lat="51.507789" lon="-0.20327"><ele>19.25</ele></trkpt>
      <trkpt lat="51.507807" lon="-0.203206"><ele>19.75</ele></trkpt>
      <trkpt lat="51.507882" lon="-0.20305"><ele>20.5</ele></trkpt>
      <trkpt lat="51.507923" lon="-0.202901"><ele>21</ele></trkpt>
      <trkpt lat="51.507934" lon="-0.202862"><ele>21</ele></trkpt>
      <trkpt lat="51.507947" lon="-0.202818"><ele>21</ele></trkpt>
      <trkpt lat="51.508131" lon="-0.202203"><ele>22.25</ele></trkpt>
      <trkpt lat="51.50835" lon="-0.201461"><ele>24.5</ele></trkpt>
      <trkpt lat="51.508428" lon="-0.201195"><ele>25.25</ele></trkpt>
      <trkpt lat="51.508468" lon="-0.201058"><ele>25.75</ele></trkpt>
      <trkpt lat="51.508545" lon="-0.200937"><ele>26</ele></trkpt>
      <trkpt lat="51.508561" lon="-0.20087"><ele>26</ele></trkpt>
      <trkpt lat="51.508583" lon="-0.200775"><ele>26.25</ele></trkpt>
      <trkpt lat="51.508618" lon="-0.200574"><ele>26.75</ele></trkpt>
      <trkpt lat="51.508634" lon="-0.200431"><ele>26.75</ele></trkpt>
      <trkpt lat="51.50866" lon="-0.200033"><ele>27.5</ele></trkpt>
      <trkpt lat="51.508663" lon="-0.199972"><ele>27.75</ele></trkpt>
      <trkpt lat="51.508669" lon="-0.199871"><ele>27.75</ele></trkpt>
      <trkpt lat="51.508688" lon="-0.199594"><ele>28.25</ele></trkpt>
      <trkpt lat="51.508714" lon="-0.199146"><ele>29</ele></trkpt>
      <trkpt lat="51.50873" lon="-0.198934"><ele>29</ele></trkpt>
      <trkpt lat="51.508736" lon="-0.198845"><ele>29</ele></trkpt>
      <trkpt lat="51.508783" lon="-0.198356"><ele>29</ele></trkpt>
      <trkpt lat="51.508854" lon="-0.197839"><ele>28</ele></trkpt>
      <trkpt lat="51.508934" lon="-0.197391"><ele>28</ele></trkpt>
      <trkpt lat="51.508943" lon="-0.197339"><ele>28</ele></trkpt>
      <trkpt lat="51.508954" lon="-0.197271"><ele>28</ele></trkpt>
      <trkpt lat="51.508974" lon="-0.19714"><ele>28</ele></trkpt>
      <trkpt lat="51.508988" lon="-0.19702"><ele>28</ele></trkpt>
      <trkpt lat="51.509107" lon="-0.196358"><ele>27.75</ele></trkpt>
      <trkpt lat="51.509264" lon="-0.195489"><ele>27.25</ele></trkpt>
      <trkpt lat="51.509272" lon="-0.195436"><ele>27.25</ele></trkpt>
      <trkpt lat="51.509284" lon="-0.195364"><ele>27</ele></trkpt>
      <trkpt lat="51.509315" lon="-0.195199"><ele>27</ele></trkpt>
      <trkpt lat="51.509336" lon="-0.195087"><ele>27</ele></trkpt>
      <trkpt lat="51.509316" lon="-0.194967"><ele>26.75</ele></trkpt>
      <trkpt lat="51.509384" lon="-0.194593"><ele>26.75</ele></trkpt>
      <trkpt lat="51.509404" lon="-0.194483"><ele>26.75</ele></trkpt>
      <trkpt lat="51.509473" lon="-0.194413"><ele>26.75</ele></trkpt>
      <trkpt lat="51.509484" lon="-0.194357"><ele>26.75</ele></trkpt>
      <trkpt lat="51.509496" lon="-0.19429"><ele>26.75</ele></trkpt>
      <trkpt lat="51.509528" lon="-0.194135"><ele>26.75</ele></trkpt>
      <trkpt lat="51.50956" lon="-0.193987"><ele>26.5</ele></trkpt>
      <trkpt lat="51.509571" lon="-0.193929"><ele>26.5</ele></trkpt>
      <trkpt lat="51.509645" lon="-0.193497"><ele>27</ele></trkpt>
      <trkpt lat="51.509622" lon="-0.193416"><ele>27.25</ele></trkpt>
      <trkpt lat="51.509664" lon="-0.193184"><ele>27.5</ele></trkpt>
      <trkpt lat="51.509688" lon="-0.193053"><ele>28</ele></trkpt>
      <trkpt lat="51.509774" lon="-0.192642"><ele>27.5</ele></trkpt>
      <trkpt lat="51.509804" lon="-0.192495"><ele>27.25</ele></trkpt>
      <trkpt lat="51.50985" lon="-0.192257"><ele>27.75</ele></trkpt>
      <trkpt lat="51.509876" lon="-0.192125"><ele>28</ele></trkpt>
      <trkpt lat="51.509903" lon="-0.191949"><ele>28.25</ele></trkpt>
      <trkpt lat="51.509908" lon="-0.191919"><ele>28.25</ele></trkpt>
      <trkpt lat="51.509915" lon="-0.191877"><ele>28.25</ele></trkpt>
      <trkpt lat="51.509925" lon="-0.191809"><ele>28.5</ele></trkpt>
      <trkpt lat="51.509949" lon="-0.191579"><ele>29</ele></trkpt>
      <trkpt lat="51.509958" lon="-0.191489"><ele>29</ele></trkpt>
      <trkpt lat="51.509962" lon="-0.191447"><ele>29</ele></trkpt>
      <trkpt lat="51.509986" lon="-0.191149"><ele>29</ele></trkpt>
      <trkpt lat="51.510003" lon="-0.190941"><ele>28.75</ele></trkpt>
      <trkpt lat="51.510034" lon="-0.190554"><ele>29</ele></trkpt>
      <trkpt lat="51.510058" lon="-0.190254"><ele>28.75</ele></trkpt>
      <trkpt lat="51.510061" lon="-0.190206"><ele>29</ele></trkpt>
      <trkpt lat="51.510075" lon="-0.189971"><ele>29</ele></trkpt>
      <trkpt lat="51.510079" lon="-0.189906"><ele>29</ele></trkpt>
      <trkpt lat="51.510083" lon="-0.189835"><ele>29</ele></trkpt>
      <trkpt lat="51.510085" lon="-0.189799"><ele>29</ele></trkpt>
      <trkpt lat="51.510097" lon="-0.189586"><ele>28.75</ele></trkpt>
      <trkpt lat="51.510099" lon="-0.189551"><ele>28.75</ele></trkpt>
      <trkpt lat="51.510101" lon="-0.189509"><ele>28.5</ele></trkpt>
      <trkpt lat="51.510125" lon="-0.189075"><ele>28.5</ele></trkpt>
      <trkpt lat="51.510179" lon="-0.188284"><ele>28</ele></trkpt>
      <trkpt lat="51.510204" lon="-0.187907"><ele>27.5</ele></trkpt>
      <trkpt lat="51.51021" lon="-0.187834"><ele>27.25</ele></trkpt>
      <trkpt lat="51.510213" lon="-0.187757"><ele>27</ele></trkpt>
      <trkpt lat="51.510247" lon="-0.187285"><ele>27</ele></trkpt>
      <trkpt lat="51.510248" lon="-0.187272"><ele>27</ele></trkpt>
      <trkpt lat="51.510284" lon="-0.187222"><ele>27</ele></trkpt>
      <trkpt lat="51.510288" lon="-0.187182"><ele>27</ele></trkpt>
      <trkpt lat="51.510296" lon="-0.187032"><ele>27</ele></trkpt>
      <trkpt lat="51.5103" lon="-0.186934"><ele>26.75</ele></trkpt>
      <trkpt lat="51.510308" lon="-0.186844"><ele>26</ele></trkpt>
      <trkpt lat="51.510283" lon="-0.18679"><ele>26.25</ele></trkpt>
      <trkpt lat="51.510305" lon="-0.18652"><ele>25</ele></trkpt>
      <trkpt lat="51.510346" lon="-0.186097"><ele>24.5</ele></trkpt>
      <trkpt lat="51.510362" lon="-0.185928"><ele>25.75</ele></trkpt>
      <trkpt lat="51.510363" lon="-0.185901"><ele>26</ele></trkpt>
      <trkpt lat="51.510374" lon="-0.185768"><ele>26.25</ele></trkpt>
      <trkpt lat="51.510381" lon="-0.185697"><ele>26.25</ele></trkpt>
      <trkpt lat="51.510387" lon="-0.185639"><ele>26</ele></trkpt>
      <trkpt lat="51.510443" lon="-0.185652"><ele>26</ele></trkpt>
      <trkpt lat="51.510451" lon="-0.185654"><ele>26</ele></trkpt>
      <trkpt lat="51.510463" lon="-0.185657"><ele>26</ele></trkpt>
      <trkpt lat="51.510481" lon="-0.185458"><ele>26</ele></trkpt>
      <trkpt lat="51.510504" lon="-0.18521"><ele>26</ele></trkpt>
      <trkpt lat="51.510523" lon="-0.185006"><ele>26</ele></trkpt>
      <trkpt lat="51.510532" lon="-0.184917"><ele>26</ele></trkpt>
      <trkpt lat="51.510539" lon="-0.184836"><ele>26</ele></trkpt>
      <trkpt lat="51.51058" lon="-0.18385"><ele>25</ele></trkpt>
      <trkpt lat="51.510591" lon="-0.18381"><ele>25</ele></trkpt>
      <trkpt lat="51.510619" lon="-0.183809"><ele>25</ele></trkpt>
      <trkpt lat="51.510937" lon="-0.183911"><ele>25</ele></trkpt>
      <trkpt lat="51.511575" lon="-0.184115"><ele>24.25</ele></trkpt>
      <trkpt lat="51.511588" lon="-0.184009"><ele>24.75</ele></trkpt>
      <trkpt lat="51.512145" lon="-0.184185"><ele>25</ele></trkpt>
      <trkpt lat="51.512152" lon="-0.184121"><ele>24.75</ele></trkpt>
      <trkpt lat="51.51216" lon="-0.184094"><ele>24.75</ele></trkpt>
      <trkpt lat="51.512212" lon="-0.183619"><ele>24.75</ele></trkpt>
      <trkpt lat="51.512239" lon="-0.183295"><ele>24.75</ele></trkpt>
      <trkpt lat="51.512245" lon="-0.183264"><ele>24.5</ele></trkpt>
      <trkpt lat="51.512273" lon="-0.183273"><ele>24.5</ele></trkpt>
      <trkpt lat="51.512286" lon="-0.18322"><ele>24.25</ele></trkpt>
      <trkpt lat="51.512482" lon="-0.18242"><ele>24</ele></trkpt>
      <trkpt lat="51.512715" lon="-0.181716"><ele>22.75</ele></trkpt>
      <trkpt lat="51.512769" lon="-0.181554"><ele>22.5</ele></trkpt>
      <trkpt lat="51.513434" lon="-0.179585"><ele>20</ele></trkpt>
      <trkpt lat="51.513492" lon="-0.179448"><ele>20</ele></trkpt>
      <trkpt lat="51.513678" lon="-0.179048"><ele>19.75</ele></trkpt>
      <trkpt lat="51.513686" lon="-0.179032"><ele>19.75</ele></trkpt>
      <trkpt lat="51.513803" lon="-0.178803"><ele>20</ele></trkpt>
      <trkpt lat="51.513835" lon="-0.178748"><ele>20</ele></trkpt>
      <trkpt lat="51.513862" lon="-0.178704"><ele>20.25</ele></trkpt>
      <trkpt lat="51.513905" lon="-0.178626"><ele>20.75</ele></trkpt>
      <trkpt lat="51.513951" lon="-0.178541"><ele>20.75</ele></trkpt>
      <trkpt lat="51.513971" lon="-0.178507"><ele>20.75</ele></trkpt>
      <trkpt lat="51.514" lon="-0.178454"><ele>20.75</ele></trkpt>
      <trkpt lat="51.514085" lon="-0.178301"><ele>21.25</ele></trkpt>
      <trkpt lat="51.514229" lon="-0.178043"><ele>21</ele></trkpt>
      <trkpt lat="51.514351" lon="-0.17783"><ele>21.75</ele></trkpt>
      <trkpt lat="51.514379" lon="-0.177781"><ele>22.25</ele></trkpt>
      <trkpt lat="51.514413" lon="-0.177718"><ele>22.5</ele></trkpt>
      <trkpt lat="51.514466" lon="-0.177623"><ele>23</ele></trkpt>
      <trkpt lat="51.514512" lon="-0.177544"><ele>23</ele></trkpt>
      <trkpt lat="51.514593" lon="-0.177402"><ele>23</ele></trkpt>
      <trkpt lat="51.514681" lon="-0.177242"><ele>23.75</ele></trkpt>
      <trkpt lat="51.514851" lon="-0.176942"><ele>23.75</ele></trkpt>
      <trkpt lat="51.514892" lon="-0.176867"><ele>24</ele></trkpt>
      <trkpt lat="51.515027" lon="-0.176637"><ele>25</ele></trkpt>
      <trkpt lat="51.51506" lon="-0.176581"><ele>25</ele></trkpt>
      <trkpt lat="51.515083" lon="-0.17654"><ele>25</ele></trkpt>
      <trkpt lat="51.515183" lon="-0.17636"><ele>25.5</ele></trkpt>
      <trkpt lat="51.51522" lon="-0.176293"><ele>25.5</ele></trkpt>
      <trkpt lat="51.515183" lon="-0.176243"><ele>25.25</ele></trkpt>
      <trkpt lat="51.515165" lon="-0.176221"><ele>25</ele></trkpt>
      <trkpt lat="51.515482" lon="-0.175661"><ele>25.25</ele></trkpt>
      <trkpt lat="51.515474" lon="-0.17565"><ele>25</ele></trkpt>
      <trkpt lat="51.515433" lon="-0.175588"><ele>25</ele></trkpt>
      <trkpt lat="51.515475" lon="-0.175516"><ele>24.75</ele></trkpt>
      <trkpt lat="51.515498" lon="-0.17555"><ele>24.75</ele></trkpt>
      <trkpt lat="51.515478" lon="-0.175587"><ele>24.75</ele></trkpt>
      <trkpt lat="51.515703" lon="-0.175918"><ele>24</ele></trkpt>
      <trkpt lat="51.515945" lon="-0.176268"><ele>24</ele></trkpt>
    </trkseg>
  </trk>
</gpx>
