<?xml version="1.0" encoding="UTF-8"?>
<gpx version="1.1" creator="TubeRun route generator" xmlns="http://www.topografix.com/GPX/1/1">
  <metadata>
    <name>Liberty line — TubeRun</name>
    <desc>Above-ground running route tracing the Liberty Overground line, station to station. Routed on pavements and footways from OpenStreetMap data (BRouter, hiking-beta).</desc>
    <author><name>TubeRun</name></author>
    <copyright author="OpenStreetMap contributors"><license>https://opendatacommons.org/licenses/odbl/1-0/</license></copyright>
    <link href="https://www.openstreetmap.org/copyright"><text>© OpenStreetMap contributors</text></link>
    <time>2026-07-06T08:30:05.816Z</time>
  </metadata>
  <wpt lat="51.574829" lon="0.183237"><name>Romford</name></wpt>
  <wpt lat="51.568642" lon="0.220113"><name>Emerson Park</name></wpt>
  <wpt lat="51.559018" lon="0.25088"><name>Upminster</name></wpt>
  <trk>
    <name>Liberty line</name>
    <trkseg>
      <trkpt lat="51.574669" lon="0.183363"><ele>18.5</ele></trkpt>
      <trkpt lat="51.574698" lon="0.183455"><ele>18.5</ele></trkpt>
      <trkpt lat="51.574744" lon="0.183622"><ele>17</ele></trkpt>
      <trkpt lat="51.574761" lon="0.183687"><ele>17</ele></trkpt>
      <trkpt lat="51.57469" lon="0.183712"><ele>17</ele></trkpt>
      <trkpt lat="51.574603" lon="0.183734"><ele>17</ele></trkpt>
      <trkpt lat="51.574548" lon="0.183748"><ele>17</ele></trkpt>
      <trkpt lat="51.574352" lon="0.183798"><ele>16.5</ele></trkpt>
      <trkpt lat="51.574321" lon="0.183806"><ele>16.5</ele></trkpt>
      <trkpt lat="51.574285" lon="0.183818"><ele>16.25</ele></trkpt>
      <trkpt lat="51.574257" lon="0.18383"><ele>16.25</ele></trkpt>
      <trkpt lat="51.574173" lon="0.183869"><ele>16</ele></trkpt>
      <trkpt lat="51.574173" lon="0.183971"><ele>16.25</ele></trkpt>
      <trkpt lat="51.574192" lon="0.184127"><ele>16.75</ele></trkpt>
      <trkpt lat="51.574201" lon="0.184174"><ele>17</ele></trkpt>
      <trkpt lat="51.57422" lon="0.18424"><ele>17</ele></trkpt>
      <trkpt lat="51.574483" lon="0.185122"><ele>16.75</ele></trkpt>
      <trkpt lat="51.574538" lon="0.185309"><ele>17</ele></trkpt>
      <trkpt lat="51.574624" lon="0.185599"><ele>17</ele></trkpt>
      <trkpt lat="51.574777" lon="0.186119"><ele>18</ele></trkpt>
      <trkpt lat="51.57482" lon="0.186264"><ele>18</ele></trkpt>
      <trkpt lat="51.574918" lon="0.186594"><ele>18</ele></trkpt>
      <trkpt lat="51.574941" lon="0.186664"><ele>18</ele></trkpt>
      <trkpt lat="51.575031" lon="0.186941"><ele>18</ele></trkpt>
      <trkpt lat="51.575082" lon="0.187094"><ele>18</ele></trkpt>
      <trkpt lat="51.575116" lon="0.187229"><ele>18</ele></trkpt>
      <trkpt lat="51.575128" lon="0.187271"><ele>18</ele></trkpt>
      <trkpt lat="51.575137" lon="0.187304"><ele>18</ele></trkpt>
      <trkpt lat="51.575087" lon="0.187344"><ele>18</ele></trkpt>
      <trkpt lat="51.575093" lon="0.187359"><ele>18</ele></trkpt>
      <trkpt lat="51.575106" lon="0.187408"><ele>18</ele></trkpt>
      <trkpt lat="51.575119" lon="0.187458"><ele>18</ele></trkpt>
      <trkpt lat="51.575125" lon="0.187483"><ele>18</ele></trkpt>
      <trkpt lat="51.575139" lon="0.187538"><ele>18</ele></trkpt>
      <trkpt lat="51.57515" lon="0.187581"><ele>18</ele></trkpt>
      <trkpt lat="51.575151" lon="0.187624"><ele>18</ele></trkpt>
      <trkpt lat="51.575145" lon="0.187656"><ele>18</ele></trkpt>
      <trkpt lat="51.575135" lon="0.187703"><ele>18</ele></trkpt>
      <trkpt lat="51.575093" lon="0.18769"><ele>18</ele></trkpt>
      <trkpt lat="51.57496" lon="0.187692"><ele>18</ele></trkpt>
      <trkpt lat="51.574917" lon="0.187712"><ele>18</ele></trkpt>
      <trkpt lat="51.574836" lon="0.187753"><ele>18</ele></trkpt>
      <trkpt lat="51.574655" lon="0.187879"><ele>18</ele></trkpt>
      <trkpt lat="51.574632" lon="0.187895"><ele>18</ele></trkpt>
      <trkpt lat="51.574495" lon="0.187993"><ele>18</ele></trkpt>
      <trkpt lat="51.573087" lon="0.188994"><ele>16</ele></trkpt>
      <trkpt lat="51.572558" lon="0.189381"><ele>16</ele></trkpt>
      <trkpt lat="51.572005" lon="0.189802"><ele>16</ele></trkpt>
      <trkpt lat="51.571968" lon="0.189819"><ele>16</ele></trkpt>
      <trkpt lat="51.572078" lon="0.190334"><ele>16</ele></trkpt>
      <trkpt lat="51.572043" lon="0.190353"><ele>16</ele></trkpt>
      <trkpt lat="51.572034" lon="0.190359"><ele>16</ele></trkpt>
      <trkpt lat="51.571651" lon="0.19058"><ele>15</ele></trkpt>
      <trkpt lat="51.570617" lon="0.191138"><ele>14.25</ele></trkpt>
      <trkpt lat="51.570719" lon="0.191689"><ele>15</ele></trkpt>
      <trkpt lat="51.570285" lon="0.191946"><ele>15</ele></trkpt>
      <trkpt lat="51.570415" lon="0.192486"><ele>15.75</ele></trkpt>
      <trkpt lat="51.570341" lon="0.192537"><ele>16</ele></trkpt>
      <trkpt lat="51.570355" lon="0.192594"><ele>16</ele></trkpt>
      <trkpt lat="51.570481" lon="0.193112"><ele>16</ele></trkpt>
      <trkpt lat="51.571039" lon="0.195421"><ele>22.25</ele></trkpt>
      <trkpt lat="51.571198" lon="0.196114"><ele>24</ele></trkpt>
      <trkpt lat="51.571004" lon="0.196253"><ele>24.25</ele></trkpt>
      <trkpt lat="51.570898" lon="0.196329"><ele>24</ele></trkpt>
      <trkpt lat="51.570987" lon="0.196988"><ele>26</ele></trkpt>
      <trkpt lat="51.571323" lon="0.199447"><ele>30.75</ele></trkpt>
      <trkpt lat="51.571372" lon="0.199528"><ele>30.75</ele></trkpt>
      <trkpt lat="51.5715" lon="0.2"><ele>31.25</ele></trkpt>
      <trkpt lat="51.571777" lon="0.201571"><ele>32</ele></trkpt>
      <trkpt lat="51.571799" lon="0.201966"><ele>32</ele></trkpt>
      <trkpt lat="51.571761" lon="0.202258"><ele>32</ele></trkpt>
      <trkpt lat="51.57172" lon="0.202449"><ele>32</ele></trkpt>
      <trkpt lat="51.571803" lon="0.20252"><ele>32</ele></trkpt>
      <trkpt lat="51.572215" lon="0.202867"><ele>32</ele></trkpt>
      <trkpt lat="51.572283" lon="0.202924"><ele>31.75</ele></trkpt>
      <trkpt lat="51.572147" lon="0.203362"><ele>32</ele></trkpt>
      <trkpt lat="51.572014" lon="0.203812"><ele>31.25</ele></trkpt>
      <trkpt lat="51.57184" lon="0.20436"><ele>31</ele></trkpt>
      <trkpt lat="51.571794" lon="0.204497"><ele>31</ele></trkpt>
      <trkpt lat="51.571658" lon="0.2049"><ele>31</ele></trkpt>
      <trkpt lat="51.571552" lon="0.205234"><ele>31</ele></trkpt>
      <trkpt lat="51.57141" lon="0.205689"><ele>30</ele></trkpt>
      <trkpt lat="51.571309" lon="0.206048"><ele>30</ele></trkpt>
      <trkpt lat="51.571224" lon="0.206376"><ele>30</ele></trkpt>
      <trkpt lat="51.570777" lon="0.208166"><ele>28</ele></trkpt>
      <trkpt lat="51.571409" lon="0.20858"><ele>29</ele></trkpt>
      <trkpt lat="51.571421" lon="0.20856"><ele>29</ele></trkpt>
      <trkpt lat="51.571433" lon="0.20856"><ele>29</ele></trkpt>
      <trkpt lat="51.571489" lon="0.208563"><ele>29</ele></trkpt>
      <trkpt lat="51.5715" lon="0.208571"><ele>29</ele></trkpt>
      <trkpt lat="51.571511" lon="0.20858"><ele>29</ele></trkpt>
      <trkpt lat="51.571541" lon="0.208601"><ele>29</ele></trkpt>
      <trkpt lat="51.571532" lon="0.208631"><ele>29</ele></trkpt>
      <trkpt lat="51.571541" lon="0.208637"><ele>29</ele></trkpt>
      <trkpt lat="51.571563" lon="0.208655"><ele>29</ele></trkpt>
      <trkpt lat="51.571461" lon="0.209027"><ele>29</ele></trkpt>
      <trkpt lat="51.571381" lon="0.209416"><ele>28</ele></trkpt>
      <trkpt lat="51.571296" lon="0.209797"><ele>27</ele></trkpt>
      <trkpt lat="51.571618" lon="0.210101"><ele>27</ele></trkpt>
      <trkpt lat="51.571553" lon="0.210284"><ele>26.75</ele></trkpt>
      <trkpt lat="51.571484" lon="0.210651"><ele>26</ele></trkpt>
      <trkpt lat="51.571166" lon="0.212337"><ele>22</ele></trkpt>
      <trkpt lat="51.571086" lon="0.212712"><ele>21</ele></trkpt>
      <trkpt lat="51.570855" lon="0.213788"><ele>23.5</ele></trkpt>
      <trkpt lat="51.570503" lon="0.21485"><ele>27.75</ele></trkpt>
      <trkpt lat="51.570356" lon="0.215364"><ele>29</ele></trkpt>
      <trkpt lat="51.569511" lon="0.219137"><ele>32</ele></trkpt>
      <trkpt lat="51.569521" lon="0.21967"><ele>32</ele></trkpt>
      <trkpt lat="51.569521" lon="0.219715"><ele>32</ele></trkpt>
      <trkpt lat="51.56943" lon="0.219713"><ele>32</ele></trkpt>
      <trkpt lat="51.569113" lon="0.219708"><ele>31.5</ele></trkpt>
      <trkpt lat="51.568931" lon="0.219698"><ele>30</ele></trkpt>
      <trkpt lat="51.568908" lon="0.219752"><ele>30.25</ele></trkpt>
      <trkpt lat="51.568899" lon="0.219774"><ele>30.25</ele></trkpt>
      <trkpt lat="51.568707" lon="0.220242"><ele>28.75</ele></trkpt>
      <trkpt lat="51.568697" lon="0.220255"><ele>28.5</ele></trkpt>
      <trkpt lat="51.568676" lon="0.220259"><ele>28</ele></trkpt>
      <trkpt lat="51.568697" lon="0.220255"><ele>28.5</ele></trkpt>
      <trkpt lat="51.568707" lon="0.220242"><ele>28.75</ele></trkpt>
      <trkpt lat="51.568899" lon="0.219774"><ele>30.25</ele></trkpt>
      <trkpt lat="51.568908" lon="0.219752"><ele>30.25</ele></trkpt>
      <trkpt lat="51.568895" lon="0.219739"><ele>30</ele></trkpt>
      <trkpt lat="51.568611" lon="0.21973"><ele>30.75</ele></trkpt>
      <trkpt lat="51.568514" lon="0.219771"><ele>30.5</ele></trkpt>
      <trkpt lat="51.568476" lon="0.219747"><ele>30.75</ele></trkpt>
      <trkpt lat="51.568463" lon="0.219718"><ele>31</ele></trkpt>
      <trkpt lat="51.56846" lon="0.21968"><ele>31</ele></trkpt>
      <trkpt lat="51.568322" lon="0.21969"><ele>31</ele></trkpt>
      <trkpt lat="51.568083" lon="0.21973"><ele>31</ele></trkpt>
      <trkpt lat="51.568009" lon="0.219744"><ele>31</ele></trkpt>
      <trkpt lat="51.567905" lon="0.219846"><ele>31</ele></trkpt>
      <trkpt lat="51.5678" lon="0.219889"><ele>31</ele></trkpt>
      <trkpt lat="51.567572" lon="0.220006"><ele>31</ele></trkpt>
      <trkpt lat="51.567534" lon="0.220017"><ele>31</ele></trkpt>
      <trkpt lat="51.567542" lon="0.220069"><ele>31</ele></trkpt>
      <trkpt lat="51.567565" lon="0.220211"><ele>31</ele></trkpt>
      <trkpt lat="51.567288" lon="0.220261"><ele>31</ele></trkpt>
      <trkpt lat="51.5672" lon="0.220275"><ele>31</ele></trkpt>
      <trkpt lat="51.566813" lon="0.220303"><ele>31</ele></trkpt>
      <trkpt lat="51.566693" lon="0.221589"><ele>31</ele></trkpt>
      <trkpt lat="51.566581" lon="0.222494"><ele>31</ele></trkpt>
      <trkpt lat="51.566462" lon="0.223183"><ele>30.5</ele></trkpt>
      <trkpt lat="51.566371" lon="0.223563"><ele>30</ele></trkpt>
      <trkpt lat="51.566293" lon="0.223831"><ele>30</ele></trkpt>
      <trkpt lat="51.566056" lon="0.224521"><ele>28.75</ele></trkpt>
      <trkpt lat="51.56582" lon="0.225054"><ele>27.75</ele></trkpt>
      <trkpt lat="51.565343" lon="0.226002"><ele>26</ele></trkpt>
      <trkpt lat="51.564536" lon="0.227756"><ele>28.75</ele></trkpt>
      <trkpt lat="51.564332" lon="0.228214"><ele>30.5</ele></trkpt>
      <trkpt lat="51.564647" lon="0.228444"><ele>29.75</ele></trkpt>
      <trkpt lat="51.564936" lon="0.228641"><ele>30.5</ele></trkpt>
      <trkpt lat="51.565103" lon="0.228818"><ele>30.75</ele></trkpt>
      <trkpt lat="51.56528" lon="0.228987"><ele>31</ele></trkpt>
      <trkpt lat="51.565036" lon="0.229583"><ele>32</ele></trkpt>
      <trkpt lat="51.564577" lon="0.230616"><ele>33</ele></trkpt>
      <trkpt lat="51.564081" lon="0.231616"><ele>32</ele></trkpt>
      <trkpt lat="51.563768" lon="0.232182"><ele>30.5</ele></trkpt>
      <trkpt lat="51.563589" lon="0.232581"><ele>29.5</ele></trkpt>
      <trkpt lat="51.563469" lon="0.232905"><ele>28.5</ele></trkpt>
      <trkpt lat="51.563349" lon="0.233313"><ele>27</ele></trkpt>
      <trkpt lat="51.563243" lon="0.233759"><ele>26.25</ele></trkpt>
      <trkpt lat="51.563234" lon="0.233849"><ele>26</ele></trkpt>
      <trkpt lat="51.563737" lon="0.234577"><ele>26</ele></trkpt>
      <trkpt lat="51.563727" lon="0.234651"><ele>26</ele></trkpt>
      <trkpt lat="51.563731" lon="0.234729"><ele>25.75</ele></trkpt>
      <trkpt lat="51.56374" lon="0.23495"><ele>25.5</ele></trkpt>
      <trkpt lat="51.563746" lon="0.235087"><ele>25.25</ele></trkpt>
      <trkpt lat="51.564049" lon="0.235624"><ele>25.25</ele></trkpt>
      <trkpt lat="51.564072" lon="0.235721"><ele>25.25</ele></trkpt>
      <trkpt lat="51.564022" lon="0.235745"><ele>25</ele></trkpt>
      <trkpt lat="51.564018" lon="0.235824"><ele>25</ele></trkpt>
      <trkpt lat="51.563678" lon="0.237167"><ele>22.25</ele></trkpt>
      <trkpt lat="51.56358" lon="0.237562"><ele>21.5</ele></trkpt>
      <trkpt lat="51.563369" lon="0.237427"><ele>21.25</ele></trkpt>
      <trkpt lat="51.563244" lon="0.237335"><ele>21.25</ele></trkpt>
      <trkpt lat="51.562985" lon="0.236909"><ele>21.5</ele></trkpt>
      <trkpt lat="51.562727" lon="0.23645"><ele>21.5</ele></trkpt>
      <trkpt lat="51.562495" lon="0.236119"><ele>21</ele></trkpt>
      <trkpt lat="51.562446" lon="0.236084"><ele>21</ele></trkpt>
      <trkpt lat="51.562408" lon="0.236097"><ele>21</ele></trkpt>
      <trkpt lat="51.562369" lon="0.236159"><ele>21</ele></trkpt>
      <trkpt lat="51.562106" lon="0.236974"><ele>18.75</ele></trkpt>
      <trkpt lat="51.56194" lon="0.237463"><ele>17.75</ele></trkpt>
      <trkpt lat="51.561806" lon="0.237906"><ele>17</ele></trkpt>
      <trkpt lat="51.561678" lon="0.238358"><ele>15.75</ele></trkpt>
      <trkpt lat="51.561521" lon="0.238826"><ele>15</ele></trkpt>
      <trkpt lat="51.561236" lon="0.239658"><ele>13</ele></trkpt>
      <trkpt lat="51.560933" lon="0.239391"><ele>13</ele></trkpt>
      <trkpt lat="51.560871" lon="0.239354"><ele>13</ele></trkpt>
      <trkpt lat="51.560814" lon="0.239361"><ele>12.75</ele></trkpt>
      <trkpt lat="51.560764" lon="0.239386"><ele>12.75</ele></trkpt>
      <trkpt lat="51.560714" lon="0.239457"><ele>12.5</ele></trkpt>
      <trkpt lat="51.560486" lon="0.239916"><ele>12.25</ele></trkpt>
      <trkpt lat="51.560378" lon="0.240121"><ele>11.25</ele></trkpt>
      <trkpt lat="51.560246" lon="0.240377"><ele>12.5</ele></trkpt>
      <trkpt lat="51.560212" lon="0.240446"><ele>13.5</ele></trkpt>
      <trkpt lat="51.559962" lon="0.240916"><ele>19.75</ele></trkpt>
      <trkpt lat="51.559879" lon="0.24109"><ele>20.75</ele></trkpt>
      <trkpt lat="51.559695" lon="0.242296"><ele>22.75</ele></trkpt>
      <trkpt lat="51.559712" lon="0.242887"><ele>23</ele></trkpt>
      <trkpt lat="51.559739" lon="0.243241"><ele>23.5</ele></trkpt>
      <trkpt lat="51.559792" lon="0.243296"><ele>23.5</ele></trkpt>
      <trkpt lat="51.559955" lon="0.243387"><ele>23.25</ele></trkpt>
      <trkpt lat="51.559737" lon="0.244287"><ele>27.25</ele></trkpt>
      <trkpt lat="51.559601" lon="0.24475"><ele>28</ele></trkpt>
      <trkpt lat="51.559525" lon="0.244829"><ele>27.75</ele></trkpt>
      <trkpt lat="51.559484" lon="0.249308"><ele>29</ele></trkpt>
      <trkpt lat="51.559318" lon="0.25035"><ele>26</ele></trkpt>
      <trkpt lat="51.559289" lon="0.250501"><ele>25.25</ele></trkpt>
      <trkpt lat="51.559024" lon="0.250398"><ele>23.75</ele></trkpt>
      <trkpt lat="51.559022" lon="0.250478"><ele>23.5</ele></trkpt>
      <trkpt lat="51.559022" lon="0.250491"><ele>23.5</ele></trkpt>
      <trkpt lat="51.559018" lon="0.250721"><ele>22.5</ele></trkpt>
      <trkpt lat="51.559" lon="0.25072"><ele>22.5</ele></trkpt>
      <trkpt lat="51.558979" lon="0.250718"><ele>22.25</ele></trkpt>
      <trkpt lat="51.558976" lon="0.250852"><ele>21.75</ele></trkpt>
    </trkseg>
  </trk>
</gpx>
