<?xml version="1.0" encoding="UTF-8"?>
<gpx version="1.1" creator="TubeRun route generator" xmlns="http://www.topografix.com/GPX/1/1">
  <metadata>
    <name>South Western Railway — TubeRun</name>
    <desc>Above-ground running route tracing the South Western Railway line, station to station. Routed on pavements and footways from OpenStreetMap data (BRouter, shortest).</desc>
    <author><name>TubeRun</name></author>
    <copyright author="OpenStreetMap contributors"><license>https://opendatacommons.org/licenses/odbl/1-0/</license></copyright>
    <link href="https://www.openstreetmap.org/copyright"><text>© OpenStreetMap contributors</text></link>
    <time>2026-07-13T15:18:54.944Z</time>
  </metadata>
  <wpt lat="51.31847" lon="-0.55696"><name>Woking</name></wpt>
  <wpt lat="51.33923" lon="-0.50548"><name>West Byfleet</name></wpt>
  <wpt lat="51.3498" lon="-0.48139"><name>Byfleet &amp; New Haw</name></wpt>
  <wpt lat="51.36177" lon="-0.45774"><name>Weybridge</name></wpt>
  <wpt lat="51.37293" lon="-0.41463"><name>Walton-on-Thames</name></wpt>
  <wpt lat="51.37681" lon="-0.38996"><name>Hersham</name></wpt>
  <wpt lat="51.37989" lon="-0.35334"><name>Esher</name></wpt>
  <wpt lat="51.39246" lon="-0.30396"><name>Surbiton</name></wpt>
  <wpt lat="51.39905" lon="-0.28071"><name>Berrylands</name></wpt>
  <wpt lat="51.40408" lon="-0.25594"><name>New Malden</name></wpt>
  <wpt lat="51.40917" lon="-0.23015"><name>Raynes Park</name></wpt>
  <wpt lat="51.42122" lon="-0.20638"><name>Wimbledon</name></wpt>
  <trk>
    <name>South Western Railway — TubeRun</name>
    <trkseg>
      <trkpt lat="51.318537" lon="-0.557032"><ele>37</ele></trkpt>
      <trkpt lat="51.318626" lon="-0.556814"><ele>37</ele></trkpt>
      <trkpt lat="51.318686" lon="-0.556657"><ele>37.25</ele></trkpt>
      <trkpt lat="51.318824" lon="-0.556796"><ele>37.75</ele></trkpt>
      <trkpt lat="51.318762" lon="-0.556952"><ele>37.5</ele></trkpt>
      <trkpt lat="51.318741" lon="-0.556996"><ele>37.25</ele></trkpt>
      <trkpt lat="51.318728" lon="-0.557028"><ele>37.25</ele></trkpt>
      <trkpt lat="51.318709" lon="-0.557071"><ele>37</ele></trkpt>
      <trkpt lat="51.318718" lon="-0.557081"><ele>37</ele></trkpt>
      <trkpt lat="51.318727" lon="-0.557091"><ele>37</ele></trkpt>
      <trkpt lat="51.318739" lon="-0.557065"><ele>37.25</ele></trkpt>
      <trkpt lat="51.318768" lon="-0.557004"><ele>37.25</ele></trkpt>
      <trkpt lat="51.318833" lon="-0.556827"><ele>37.75</ele></trkpt>
      <trkpt lat="51.318956" lon="-0.556523"><ele>37.25</ele></trkpt>
      <trkpt lat="51.31899" lon="-0.556558"><ele>37.5</ele></trkpt>
      <trkpt lat="51.319101" lon="-0.556283"><ele>37.75</ele></trkpt>
      <trkpt lat="51.319192" lon="-0.556057"><ele>37.75</ele></trkpt>
      <trkpt lat="51.319288" lon="-0.55582"><ele>37.5</ele></trkpt>
      <trkpt lat="51.319374" lon="-0.555606"><ele>37.5</ele></trkpt>
      <trkpt lat="51.319469" lon="-0.555368"><ele>37.75</ele></trkpt>
      <trkpt lat="51.319549" lon="-0.555172"><ele>37.5</ele></trkpt>
      <trkpt lat="51.319622" lon="-0.554988"><ele>37.5</ele></trkpt>
      <trkpt lat="51.319655" lon="-0.554906"><ele>37.75</ele></trkpt>
      <trkpt lat="51.319876" lon="-0.554338"><ele>37.25</ele></trkpt>
      <trkpt lat="51.320027" lon="-0.553978"><ele>36.75</ele></trkpt>
      <trkpt lat="51.32027" lon="-0.553393"><ele>36.75</ele></trkpt>
      <trkpt lat="51.320314" lon="-0.553315"><ele>36.75</ele></trkpt>
      <trkpt lat="51.32037" lon="-0.553271"><ele>36.5</ele></trkpt>
      <trkpt lat="51.320371" lon="-0.553163"><ele>36.5</ele></trkpt>
      <trkpt lat="51.320402" lon="-0.553048"><ele>36.5</ele></trkpt>
      <trkpt lat="51.320578" lon="-0.552636"><ele>35.75</ele></trkpt>
      <trkpt lat="51.320777" lon="-0.552129"><ele>35</ele></trkpt>
      <trkpt lat="51.320947" lon="-0.551687"><ele>35</ele></trkpt>
      <trkpt lat="51.320963" lon="-0.551647"><ele>35</ele></trkpt>
      <trkpt lat="51.32103" lon="-0.551473"><ele>34.5</ele></trkpt>
      <trkpt lat="51.321041" lon="-0.551443"><ele>34.5</ele></trkpt>
      <trkpt lat="51.321107" lon="-0.551274"><ele>34.25</ele></trkpt>
      <trkpt lat="51.321163" lon="-0.551129"><ele>34.75</ele></trkpt>
      <trkpt lat="51.321555" lon="-0.550229"><ele>33.75</ele></trkpt>
      <trkpt lat="51.321757" lon="-0.549723"><ele>33.5</ele></trkpt>
      <trkpt lat="51.321832" lon="-0.549535"><ele>33.5</ele></trkpt>
      <trkpt lat="51.32186" lon="-0.54946"><ele>33.5</ele></trkpt>
      <trkpt lat="51.321924" lon="-0.549306"><ele>33</ele></trkpt>
      <trkpt lat="51.322001" lon="-0.549113"><ele>33</ele></trkpt>
      <trkpt lat="51.322059" lon="-0.548968"><ele>33.25</ele></trkpt>
      <trkpt lat="51.322399" lon="-0.548117"><ele>32.25</ele></trkpt>
      <trkpt lat="51.322868" lon="-0.546971"><ele>31.75</ele></trkpt>
      <trkpt lat="51.322963" lon="-0.546739"><ele>31.25</ele></trkpt>
      <trkpt lat="51.323453" lon="-0.545539"><ele>31.5</ele></trkpt>
      <trkpt lat="51.323721" lon="-0.544885"><ele>31.25</ele></trkpt>
      <trkpt lat="51.324658" lon="-0.542624"><ele>30.25</ele></trkpt>
      <trkpt lat="51.324842" lon="-0.54218"><ele>29.5</ele></trkpt>
      <trkpt lat="51.324881" lon="-0.542076"><ele>29.25</ele></trkpt>
      <trkpt lat="51.325171" lon="-0.542209"><ele>28</ele></trkpt>
      <trkpt lat="51.32533" lon="-0.54228"><ele>28</ele></trkpt>
      <trkpt lat="51.325347" lon="-0.542186"><ele>28</ele></trkpt>
      <trkpt lat="51.325426" lon="-0.54176"><ele>29</ele></trkpt>
      <trkpt lat="51.326189" lon="-0.539791"><ele>27.75</ele></trkpt>
      <trkpt lat="51.326248" lon="-0.539657"><ele>28</ele></trkpt>
      <trkpt lat="51.326317" lon="-0.539478"><ele>28</ele></trkpt>
      <trkpt lat="51.326376" lon="-0.539253"><ele>28</ele></trkpt>
      <trkpt lat="51.32646" lon="-0.538781"><ele>28</ele></trkpt>
      <trkpt lat="51.326508" lon="-0.53855"><ele>28</ele></trkpt>
      <trkpt lat="51.326528" lon="-0.538478"><ele>28</ele></trkpt>
      <trkpt lat="51.326558" lon="-0.53837"><ele>28</ele></trkpt>
      <trkpt lat="51.326596" lon="-0.538308"><ele>27.75</ele></trkpt>
      <trkpt lat="51.326619" lon="-0.538301"><ele>27.75</ele></trkpt>
      <trkpt lat="51.3267" lon="-0.538281"><ele>27.75</ele></trkpt>
      <trkpt lat="51.326696" lon="-0.538047"><ele>27</ele></trkpt>
      <trkpt lat="51.326698" lon="-0.537972"><ele>27</ele></trkpt>
      <trkpt lat="51.326705" lon="-0.537894"><ele>27</ele></trkpt>
      <trkpt lat="51.326716" lon="-0.53778"><ele>27</ele></trkpt>
      <trkpt lat="51.326736" lon="-0.537663"><ele>27.25</ele></trkpt>
      <trkpt lat="51.326794" lon="-0.537448"><ele>27.75</ele></trkpt>
      <trkpt lat="51.326881" lon="-0.537225"><ele>28</ele></trkpt>
      <trkpt lat="51.327017" lon="-0.536928"><ele>27</ele></trkpt>
      <trkpt lat="51.327292" lon="-0.536465"><ele>27.5</ele></trkpt>
      <trkpt lat="51.327398" lon="-0.536266"><ele>27.5</ele></trkpt>
      <trkpt lat="51.327466" lon="-0.53617"><ele>27.25</ele></trkpt>
      <trkpt lat="51.327545" lon="-0.536091"><ele>27</ele></trkpt>
      <trkpt lat="51.327648" lon="-0.536022"><ele>27</ele></trkpt>
      <trkpt lat="51.32773" lon="-0.535995"><ele>27</ele></trkpt>
      <trkpt lat="51.327874" lon="-0.535978"><ele>27</ele></trkpt>
      <trkpt lat="51.328104" lon="-0.535958"><ele>27</ele></trkpt>
      <trkpt lat="51.328186" lon="-0.535947"><ele>27</ele></trkpt>
      <trkpt lat="51.32832" lon="-0.535912"><ele>27</ele></trkpt>
      <trkpt lat="51.328571" lon="-0.535852"><ele>27</ele></trkpt>
      <trkpt lat="51.328855" lon="-0.535738"><ele>27</ele></trkpt>
      <trkpt lat="51.329015" lon="-0.535649"><ele>27</ele></trkpt>
      <trkpt lat="51.329473" lon="-0.535336"><ele>27</ele></trkpt>
      <trkpt lat="51.329923" lon="-0.535035"><ele>26.25</ele></trkpt>
      <trkpt lat="51.330142" lon="-0.534888"><ele>26</ele></trkpt>
      <trkpt lat="51.330309" lon="-0.534776"><ele>26</ele></trkpt>
      <trkpt lat="51.330678" lon="-0.534538"><ele>25.75</ele></trkpt>
      <trkpt lat="51.330821" lon="-0.534438"><ele>26</ele></trkpt>
      <trkpt lat="51.330998" lon="-0.534275"><ele>26</ele></trkpt>
      <trkpt lat="51.331074" lon="-0.534183"><ele>26</ele></trkpt>
      <trkpt lat="51.331154" lon="-0.534055"><ele>25.75</ele></trkpt>
      <trkpt lat="51.331218" lon="-0.533926"><ele>26</ele></trkpt>
      <trkpt lat="51.33173" lon="-0.532643"><ele>25.25</ele></trkpt>
      <trkpt lat="51.331762" lon="-0.532569"><ele>25.25</ele></trkpt>
      <trkpt lat="51.331814" lon="-0.532619"><ele>25.25</ele></trkpt>
      <trkpt lat="51.332068" lon="-0.531995"><ele>25</ele></trkpt>
      <trkpt lat="51.332113" lon="-0.531872"><ele>25</ele></trkpt>
      <trkpt lat="51.332157" lon="-0.531835"><ele>25</ele></trkpt>
      <trkpt lat="51.332182" lon="-0.531786"><ele>25</ele></trkpt>
      <trkpt lat="51.332269" lon="-0.531874"><ele>24.75</ele></trkpt>
      <trkpt lat="51.332288" lon="-0.531838"><ele>25</ele></trkpt>
      <trkpt lat="51.332447" lon="-0.531765"><ele>25</ele></trkpt>
      <trkpt lat="51.332514" lon="-0.531734"><ele>25</ele></trkpt>
      <trkpt lat="51.332661" lon="-0.531371"><ele>25</ele></trkpt>
      <trkpt lat="51.332821" lon="-0.530968"><ele>25</ele></trkpt>
      <trkpt lat="51.332867" lon="-0.530851"><ele>25</ele></trkpt>
      <trkpt lat="51.332898" lon="-0.530768"><ele>25</ele></trkpt>
      <trkpt lat="51.333192" lon="-0.530044"><ele>24.75</ele></trkpt>
      <trkpt lat="51.33335" lon="-0.529654"><ele>24</ele></trkpt>
      <trkpt lat="51.333418" lon="-0.529487"><ele>24.25</ele></trkpt>
      <trkpt lat="51.333686" lon="-0.528837"><ele>24</ele></trkpt>
      <trkpt lat="51.333775" lon="-0.528608"><ele>24</ele></trkpt>
      <trkpt lat="51.334113" lon="-0.527776"><ele>24</ele></trkpt>
      <trkpt lat="51.334173" lon="-0.52763"><ele>24</ele></trkpt>
      <trkpt lat="51.334206" lon="-0.527517"><ele>24</ele></trkpt>
      <trkpt lat="51.334207" lon="-0.52748"><ele>24</ele></trkpt>
      <trkpt lat="51.334204" lon="-0.527453"><ele>24</ele></trkpt>
      <trkpt lat="51.334187" lon="-0.527406"><ele>23.75</ele></trkpt>
      <trkpt lat="51.334105" lon="-0.527286"><ele>24</ele></trkpt>
      <trkpt lat="51.334076" lon="-0.527223"><ele>24.25</ele></trkpt>
      <trkpt lat="51.334057" lon="-0.527109"><ele>24.25</ele></trkpt>
      <trkpt lat="51.334057" lon="-0.526961"><ele>24.25</ele></trkpt>
      <trkpt lat="51.334109" lon="-0.526799"><ele>24</ele></trkpt>
      <trkpt lat="51.334325" lon="-0.526287"><ele>24</ele></trkpt>
      <trkpt lat="51.334581" lon="-0.525621"><ele>24</ele></trkpt>
      <trkpt lat="51.334961" lon="-0.524716"><ele>24</ele></trkpt>
      <trkpt lat="51.334996" lon="-0.524597"><ele>24</ele></trkpt>
      <trkpt lat="51.335001" lon="-0.524469"><ele>24</ele></trkpt>
      <trkpt lat="51.334981" lon="-0.524365"><ele>24.25</ele></trkpt>
      <trkpt lat="51.33495" lon="-0.524271"><ele>24.5</ele></trkpt>
      <trkpt lat="51.334941" lon="-0.524152"><ele>25</ele></trkpt>
      <trkpt lat="51.334924" lon="-0.524044"><ele>25</ele></trkpt>
      <trkpt lat="51.334952" lon="-0.524007"><ele>25</ele></trkpt>
      <trkpt lat="51.33497" lon="-0.523955"><ele>25</ele></trkpt>
      <trkpt lat="51.334974" lon="-0.523898"><ele>25</ele></trkpt>
      <trkpt lat="51.334966" lon="-0.523846"><ele>25</ele></trkpt>
      <trkpt lat="51.334947" lon="-0.523802"><ele>25</ele></trkpt>
      <trkpt lat="51.334921" lon="-0.523771"><ele>25</ele></trkpt>
      <trkpt lat="51.334939" lon="-0.523673"><ele>25</ele></trkpt>
      <trkpt lat="51.335012" lon="-0.523475"><ele>25</ele></trkpt>
      <trkpt lat="51.335337" lon="-0.523002"><ele>24</ele></trkpt>
      <trkpt lat="51.335467" lon="-0.522781"><ele>24</ele></trkpt>
      <trkpt lat="51.335521" lon="-0.52269"><ele>24</ele></trkpt>
      <trkpt lat="51.335473" lon="-0.522618"><ele>24</ele></trkpt>
      <trkpt lat="51.335695" lon="-0.52221"><ele>24</ele></trkpt>
      <trkpt lat="51.335789" lon="-0.522009"><ele>24</ele></trkpt>
      <trkpt lat="51.336016" lon="-0.521483"><ele>24</ele></trkpt>
      <trkpt lat="51.337233" lon="-0.518768"><ele>24</ele></trkpt>
      <trkpt lat="51.337485" lon="-0.518203"><ele>24</ele></trkpt>
      <trkpt lat="51.337506" lon="-0.518156"><ele>24</ele></trkpt>
      <trkpt lat="51.337471" lon="-0.518071"><ele>24</ele></trkpt>
      <trkpt lat="51.337466" lon="-0.518027"><ele>23.75</ele></trkpt>
      <trkpt lat="51.337472" lon="-0.517969"><ele>24</ele></trkpt>
      <trkpt lat="51.337599" lon="-0.517685"><ele>24</ele></trkpt>
      <trkpt lat="51.337685" lon="-0.517455"><ele>24.5</ele></trkpt>
      <trkpt lat="51.337711" lon="-0.517315"><ele>24.75</ele></trkpt>
      <trkpt lat="51.33772" lon="-0.517229"><ele>24.75</ele></trkpt>
      <trkpt lat="51.337724" lon="-0.517083"><ele>24.25</ele></trkpt>
      <trkpt lat="51.337744" lon="-0.51693"><ele>24</ele></trkpt>
      <trkpt lat="51.337765" lon="-0.516838"><ele>24.25</ele></trkpt>
      <trkpt lat="51.337931" lon="-0.516544"><ele>25.5</ele></trkpt>
      <trkpt lat="51.337651" lon="-0.51603"><ele>27</ele></trkpt>
      <trkpt lat="51.337704" lon="-0.515957"><ele>27</ele></trkpt>
      <trkpt lat="51.337722" lon="-0.515921"><ele>27</ele></trkpt>
      <trkpt lat="51.337831" lon="-0.515652"><ele>26.75</ele></trkpt>
      <trkpt lat="51.338121" lon="-0.514905"><ele>26</ele></trkpt>
      <trkpt lat="51.338146" lon="-0.514804"><ele>26.25</ele></trkpt>
      <trkpt lat="51.33818" lon="-0.514549"><ele>26</ele></trkpt>
      <trkpt lat="51.338369" lon="-0.513075"><ele>27.75</ele></trkpt>
      <trkpt lat="51.339643" lon="-0.509356"><ele>25.25</ele></trkpt>
      <trkpt lat="51.339837" lon="-0.508804"><ele>24.5</ele></trkpt>
      <trkpt lat="51.340346" lon="-0.50751"><ele>22.75</ele></trkpt>
      <trkpt lat="51.340364" lon="-0.50744"><ele>22.5</ele></trkpt>
      <trkpt lat="51.340367" lon="-0.507391"><ele>22.25</ele></trkpt>
      <trkpt lat="51.340359" lon="-0.507355"><ele>22.25</ele></trkpt>
      <trkpt lat="51.340344" lon="-0.507334"><ele>22.25</ele></trkpt>
      <trkpt lat="51.339992" lon="-0.507023"><ele>23</ele></trkpt>
      <trkpt lat="51.339962" lon="-0.50697"><ele>23</ele></trkpt>
      <trkpt lat="51.339952" lon="-0.506916"><ele>22.75</ele></trkpt>
      <trkpt lat="51.339904" lon="-0.506927"><ele>22.75</ele></trkpt>
      <trkpt lat="51.339475" lon="-0.5062"><ele>23.25</ele></trkpt>
      <trkpt lat="51.339463" lon="-0.506128"><ele>23.75</ele></trkpt>
      <trkpt lat="51.33945" lon="-0.506031"><ele>24.5</ele></trkpt>
      <trkpt lat="51.33941" lon="-0.505991"><ele>24.75</ele></trkpt>
      <trkpt lat="51.339203" lon="-0.505746"><ele>25</ele></trkpt>
      <trkpt lat="51.33913" lon="-0.505886"><ele>25</ele></trkpt>
      <trkpt lat="51.33904" lon="-0.505786"><ele>24.5</ele></trkpt>
      <trkpt lat="51.339012" lon="-0.505659"><ele>24.25</ele></trkpt>
      <trkpt lat="51.339006" lon="-0.505593"><ele>24.25</ele></trkpt>
      <trkpt lat="51.339089" lon="-0.505355"><ele>25</ele></trkpt>
      <trkpt lat="51.339129" lon="-0.505244"><ele>25</ele></trkpt>
      <trkpt lat="51.339174" lon="-0.505095"><ele>25</ele></trkpt>
      <trkpt lat="51.339189" lon="-0.505004"><ele>25</ele></trkpt>
      <trkpt lat="51.339191" lon="-0.504869"><ele>25</ele></trkpt>
      <trkpt lat="51.339172" lon="-0.504772"><ele>25</ele></trkpt>
      <trkpt lat="51.339126" lon="-0.504649"><ele>25</ele></trkpt>
      <trkpt lat="51.339092" lon="-0.504587"><ele>25</ele></trkpt>
      <trkpt lat="51.339024" lon="-0.504491"><ele>25</ele></trkpt>
      <trkpt lat="51.33898" lon="-0.504443"><ele>25</ele></trkpt>
      <trkpt lat="51.338619" lon="-0.504098"><ele>25.75</ele></trkpt>
      <trkpt lat="51.338396" lon="-0.503883"><ele>25.75</ele></trkpt>
      <trkpt lat="51.338263" lon="-0.503785"><ele>26</ele></trkpt>
      <trkpt lat="51.338194" lon="-0.503665"><ele>26</ele></trkpt>
      <trkpt lat="51.338124" lon="-0.503554"><ele>26</ele></trkpt>
      <trkpt lat="51.338093" lon="-0.503514"><ele>26</ele></trkpt>
      <trkpt lat="51.338072" lon="-0.503543"><ele>26</ele></trkpt>
      <trkpt lat="51.338029" lon="-0.50358"><ele>26</ele></trkpt>
      <trkpt lat="51.337979" lon="-0.503593"><ele>26.25</ele></trkpt>
      <trkpt lat="51.337907" lon="-0.50357"><ele>26.25</ele></trkpt>
      <trkpt lat="51.337848" lon="-0.503552"><ele>26.5</ele></trkpt>
      <trkpt lat="51.337858" lon="-0.503454"><ele>26.25</ele></trkpt>
      <trkpt lat="51.337864" lon="-0.503286"><ele>26</ele></trkpt>
      <trkpt lat="51.33789" lon="-0.502875"><ele>26</ele></trkpt>
      <trkpt lat="51.337897" lon="-0.502775"><ele>25.75</ele></trkpt>
      <trkpt lat="51.337885" lon="-0.502676"><ele>25.75</ele></trkpt>
      <trkpt lat="51.337982" lon="-0.501532"><ele>25</ele></trkpt>
      <trkpt lat="51.338013" lon="-0.501155"><ele>25</ele></trkpt>
      <trkpt lat="51.338028" lon="-0.500982"><ele>25</ele></trkpt>
      <trkpt lat="51.338035" lon="-0.500897"><ele>25</ele></trkpt>
      <trkpt lat="51.338041" lon="-0.500822"><ele>24.75</ele></trkpt>
      <trkpt lat="51.33812" lon="-0.499824"><ele>23.75</ele></trkpt>
      <trkpt lat="51.338163" lon="-0.499226"><ele>23</ele></trkpt>
      <trkpt lat="51.338184" lon="-0.498926"><ele>22</ele></trkpt>
      <trkpt lat="51.338192" lon="-0.498834"><ele>22</ele></trkpt>
      <trkpt lat="51.338215" lon="-0.498568"><ele>21.75</ele></trkpt>
      <trkpt lat="51.338275" lon="-0.498064"><ele>21</ele></trkpt>
      <trkpt lat="51.338413" lon="-0.497098"><ele>20</ele></trkpt>
      <trkpt lat="51.338425" lon="-0.496983"><ele>20</ele></trkpt>
      <trkpt lat="51.338457" lon="-0.496747"><ele>20</ele></trkpt>
      <trkpt lat="51.338522" lon="-0.496267"><ele>20</ele></trkpt>
      <trkpt lat="51.33873" lon="-0.494966"><ele>19</ele></trkpt>
      <trkpt lat="51.338956" lon="-0.493292"><ele>19</ele></trkpt>
      <trkpt lat="51.33903" lon="-0.492825"><ele>19</ele></trkpt>
      <trkpt lat="51.339142" lon="-0.492013"><ele>19</ele></trkpt>
      <trkpt lat="51.339294" lon="-0.490876"><ele>18</ele></trkpt>
      <trkpt lat="51.339555" lon="-0.489132"><ele>18</ele></trkpt>
      <trkpt lat="51.339637" lon="-0.488428"><ele>17.75</ele></trkpt>
      <trkpt lat="51.339662" lon="-0.488196"><ele>18</ele></trkpt>
      <trkpt lat="51.339701" lon="-0.487778"><ele>18.75</ele></trkpt>
      <trkpt lat="51.339719" lon="-0.487531"><ele>19.75</ele></trkpt>
      <trkpt lat="51.33975" lon="-0.486927"><ele>21.25</ele></trkpt>
      <trkpt lat="51.339909" lon="-0.484367"><ele>19.75</ele></trkpt>
      <trkpt lat="51.339972" lon="-0.483381"><ele>18.75</ele></trkpt>
      <trkpt lat="51.33998" lon="-0.483165"><ele>18.25</ele></trkpt>
      <trkpt lat="51.339985" lon="-0.482902"><ele>17.75</ele></trkpt>
      <trkpt lat="51.339987" lon="-0.482588"><ele>17.25</ele></trkpt>
      <trkpt lat="51.339985" lon="-0.482403"><ele>17</ele></trkpt>
      <trkpt lat="51.339983" lon="-0.482257"><ele>17</ele></trkpt>
      <trkpt lat="51.340025" lon="-0.482252"><ele>17</ele></trkpt>
      <trkpt lat="51.340296" lon="-0.482201"><ele>17</ele></trkpt>
      <trkpt lat="51.340892" lon="-0.482317"><ele>17</ele></trkpt>
      <trkpt lat="51.341562" lon="-0.482472"><ele>17</ele></trkpt>
      <trkpt lat="51.341591" lon="-0.482344"><ele>17</ele></trkpt>
      <trkpt lat="51.341681" lon="-0.481713"><ele>16</ele></trkpt>
      <trkpt lat="51.341693" lon="-0.481614"><ele>16.25</ele></trkpt>
      <trkpt lat="51.341715" lon="-0.481412"><ele>16.75</ele></trkpt>
      <trkpt lat="51.341851" lon="-0.480422"><ele>17</ele></trkpt>
      <trkpt lat="51.342039" lon="-0.480516"><ele>17</ele></trkpt>
      <trkpt lat="51.342274" lon="-0.480619"><ele>17</ele></trkpt>
      <trkpt lat="51.342475" lon="-0.480706"><ele>17</ele></trkpt>
      <trkpt lat="51.342616" lon="-0.480778"><ele>17</ele></trkpt>
      <trkpt lat="51.342887" lon="-0.480893"><ele>17</ele></trkpt>
      <trkpt lat="51.342902" lon="-0.4809"><ele>17</ele></trkpt>
      <trkpt lat="51.342984" lon="-0.480935"><ele>17</ele></trkpt>
      <trkpt lat="51.343056" lon="-0.480964"><ele>16.75</ele></trkpt>
      <trkpt lat="51.343183" lon="-0.481008"><ele>16.5</ele></trkpt>
      <trkpt lat="51.343385" lon="-0.481092"><ele>16</ele></trkpt>
      <trkpt lat="51.343762" lon="-0.481241"><ele>16.5</ele></trkpt>
      <trkpt lat="51.34381" lon="-0.481259"><ele>16.25</ele></trkpt>
      <trkpt lat="51.343867" lon="-0.481282"><ele>16.25</ele></trkpt>
      <trkpt lat="51.343957" lon="-0.481312"><ele>16.25</ele></trkpt>
      <trkpt lat="51.34404" lon="-0.481332"><ele>16.5</ele></trkpt>
      <trkpt lat="51.344044" lon="-0.481333"><ele>16.5</ele></trkpt>
      <trkpt lat="51.344127" lon="-0.481363"><ele>16.75</ele></trkpt>
      <trkpt lat="51.344374" lon="-0.481383"><ele>17</ele></trkpt>
      <trkpt lat="51.344525" lon="-0.481379"><ele>16.5</ele></trkpt>
      <trkpt lat="51.344705" lon="-0.481355"><ele>16</ele></trkpt>
      <trkpt lat="51.344906" lon="-0.481321"><ele>16</ele></trkpt>
      <trkpt lat="51.345066" lon="-0.481293"><ele>16.25</ele></trkpt>
      <trkpt lat="51.345156" lon="-0.481258"><ele>16.5</ele></trkpt>
      <trkpt lat="51.3452" lon="-0.481227"><ele>16.25</ele></trkpt>
      <trkpt lat="51.345222" lon="-0.481196"><ele>16.25</ele></trkpt>
      <trkpt lat="51.34524" lon="-0.481164"><ele>16.25</ele></trkpt>
      <trkpt lat="51.345253" lon="-0.481111"><ele>16</ele></trkpt>
      <trkpt lat="51.345296" lon="-0.481123"><ele>16</ele></trkpt>
      <trkpt lat="51.345306" lon="-0.481047"><ele>16</ele></trkpt>
      <trkpt lat="51.345315" lon="-0.480975"><ele>16</ele></trkpt>
      <trkpt lat="51.345342" lon="-0.48076"><ele>16</ele></trkpt>
      <trkpt lat="51.345353" lon="-0.480678"><ele>16</ele></trkpt>
      <trkpt lat="51.34536" lon="-0.480623"><ele>16</ele></trkpt>
      <trkpt lat="51.345428" lon="-0.480077"><ele>16</ele></trkpt>
      <trkpt lat="51.345451" lon="-0.479998"><ele>16</ele></trkpt>
      <trkpt lat="51.345471" lon="-0.479954"><ele>16</ele></trkpt>
      <trkpt lat="51.345493" lon="-0.479928"><ele>16</ele></trkpt>
      <trkpt lat="51.345518" lon="-0.479917"><ele>16</ele></trkpt>
      <trkpt lat="51.345557" lon="-0.479918"><ele>16</ele></trkpt>
      <trkpt lat="51.345609" lon="-0.479953"><ele>16</ele></trkpt>
      <trkpt lat="51.345683" lon="-0.480043"><ele>16</ele></trkpt>
      <trkpt lat="51.345851" lon="-0.480134"><ele>16</ele></trkpt>
      <trkpt lat="51.345985" lon="-0.480189"><ele>16</ele></trkpt>
      <trkpt lat="51.346075" lon="-0.480206"><ele>16</ele></trkpt>
      <trkpt lat="51.346131" lon="-0.480236"><ele>16</ele></trkpt>
      <trkpt lat="51.346255" lon="-0.4803"><ele>16</ele></trkpt>
      <trkpt lat="51.346285" lon="-0.480314"><ele>16</ele></trkpt>
      <trkpt lat="51.346414" lon="-0.480386"><ele>16</ele></trkpt>
      <trkpt lat="51.346451" lon="-0.480412"><ele>16</ele></trkpt>
      <trkpt lat="51.34646" lon="-0.480368"><ele>16</ele></trkpt>
      <trkpt lat="51.346978" lon="-0.480647"><ele>16</ele></trkpt>
      <trkpt lat="51.347268" lon="-0.480806"><ele>16</ele></trkpt>
      <trkpt lat="51.347347" lon="-0.48085"><ele>16</ele></trkpt>
      <trkpt lat="51.347713" lon="-0.481052"><ele>16</ele></trkpt>
      <trkpt lat="51.347856" lon="-0.481127"><ele>16</ele></trkpt>
      <trkpt lat="51.348115" lon="-0.481263"><ele>16</ele></trkpt>
      <trkpt lat="51.348175" lon="-0.481295"><ele>16</ele></trkpt>
      <trkpt lat="51.348331" lon="-0.481377"><ele>16</ele></trkpt>
      <trkpt lat="51.348347" lon="-0.481325"><ele>16</ele></trkpt>
      <trkpt lat="51.348473" lon="-0.481395"><ele>16</ele></trkpt>
      <trkpt lat="51.348703" lon="-0.48151"><ele>16</ele></trkpt>
      <trkpt lat="51.348805" lon="-0.481562"><ele>16</ele></trkpt>
      <trkpt lat="51.34925" lon="-0.481797"><ele>17.25</ele></trkpt>
      <trkpt lat="51.349464" lon="-0.481937"><ele>17</ele></trkpt>
      <trkpt lat="51.349574" lon="-0.481988"><ele>16.25</ele></trkpt>
      <trkpt lat="51.349601" lon="-0.481985"><ele>16.25</ele></trkpt>
      <trkpt lat="51.349634" lon="-0.481916"><ele>16.25</ele></trkpt>
      <trkpt lat="51.349827" lon="-0.481461"><ele>17.75</ele></trkpt>
      <trkpt lat="51.349814" lon="-0.481439"><ele>18</ele></trkpt>
      <trkpt lat="51.349823" lon="-0.481422"><ele>18</ele></trkpt>
      <trkpt lat="51.349814" lon="-0.481439"><ele>18</ele></trkpt>
      <trkpt lat="51.349827" lon="-0.481461"><ele>17.75</ele></trkpt>
      <trkpt lat="51.349943" lon="-0.481585"><ele>16</ele></trkpt>
      <trkpt lat="51.349924" lon="-0.482122"><ele>16</ele></trkpt>
      <trkpt lat="51.349944" lon="-0.482132"><ele>16</ele></trkpt>
      <trkpt lat="51.349951" lon="-0.482169"><ele>16</ele></trkpt>
      <trkpt lat="51.349972" lon="-0.482194"><ele>16</ele></trkpt>
      <trkpt lat="51.35033" lon="-0.482384"><ele>16</ele></trkpt>
      <trkpt lat="51.350863" lon="-0.482677"><ele>16</ele></trkpt>
      <trkpt lat="51.350899" lon="-0.482698"><ele>16</ele></trkpt>
      <trkpt lat="51.350926" lon="-0.482675"><ele>16</ele></trkpt>
      <trkpt lat="51.350991" lon="-0.48268"><ele>16</ele></trkpt>
      <trkpt lat="51.351059" lon="-0.482734"><ele>16</ele></trkpt>
      <trkpt lat="51.351114" lon="-0.48279"><ele>16</ele></trkpt>
      <trkpt lat="51.351124" lon="-0.482822"><ele>16</ele></trkpt>
      <trkpt lat="51.351163" lon="-0.48284"><ele>16</ele></trkpt>
      <trkpt lat="51.351769" lon="-0.48317"><ele>15.75</ele></trkpt>
      <trkpt lat="51.351809" lon="-0.483181"><ele>16</ele></trkpt>
      <trkpt lat="51.351867" lon="-0.483153"><ele>16</ele></trkpt>
      <trkpt lat="51.351966" lon="-0.483212"><ele>16</ele></trkpt>
      <trkpt lat="51.352039" lon="-0.483254"><ele>16</ele></trkpt>
      <trkpt lat="51.352065" lon="-0.483313"><ele>16</ele></trkpt>
      <trkpt lat="51.352093" lon="-0.483346"><ele>16</ele></trkpt>
      <trkpt lat="51.352389" lon="-0.483505"><ele>16</ele></trkpt>
      <trkpt lat="51.352594" lon="-0.483616"><ele>16</ele></trkpt>
      <trkpt lat="51.353075" lon="-0.483882"><ele>16</ele></trkpt>
      <trkpt lat="51.353997" lon="-0.48437"><ele>16</ele></trkpt>
      <trkpt lat="51.354049" lon="-0.484398"><ele>16</ele></trkpt>
      <trkpt lat="51.354107" lon="-0.484429"><ele>16</ele></trkpt>
      <trkpt lat="51.355454" lon="-0.485192"><ele>16</ele></trkpt>
      <trkpt lat="51.35561" lon="-0.485251"><ele>16</ele></trkpt>
      <trkpt lat="51.355668" lon="-0.485248"><ele>16</ele></trkpt>
      <trkpt lat="51.355745" lon="-0.485258"><ele>16</ele></trkpt>
      <trkpt lat="51.35582" lon="-0.485268"><ele>16</ele></trkpt>
      <trkpt lat="51.355851" lon="-0.485289"><ele>16</ele></trkpt>
      <trkpt lat="51.355899" lon="-0.4853"><ele>16</ele></trkpt>
      <trkpt lat="51.356158" lon="-0.485286"><ele>16</ele></trkpt>
      <trkpt lat="51.356464" lon="-0.485187"><ele>16</ele></trkpt>
      <trkpt lat="51.356564" lon="-0.484406"><ele>16</ele></trkpt>
      <trkpt lat="51.356626" lon="-0.484046"><ele>16</ele></trkpt>
      <trkpt lat="51.356616" lon="-0.483164"><ele>15</ele></trkpt>
      <trkpt lat="51.356659" lon="-0.482491"><ele>15</ele></trkpt>
      <trkpt lat="51.356735" lon="-0.482083"><ele>15</ele></trkpt>
      <trkpt lat="51.356762" lon="-0.481987"><ele>15</ele></trkpt>
      <trkpt lat="51.356741" lon="-0.481913"><ele>14.75</ele></trkpt>
      <trkpt lat="51.356676" lon="-0.481801"><ele>14.75</ele></trkpt>
      <trkpt lat="51.356843" lon="-0.481268"><ele>14</ele></trkpt>
      <trkpt lat="51.356884" lon="-0.481119"><ele>14</ele></trkpt>
      <trkpt lat="51.356934" lon="-0.480834"><ele>14.75</ele></trkpt>
      <trkpt lat="51.356975" lon="-0.480042"><ele>15</ele></trkpt>
      <trkpt lat="51.357035" lon="-0.479461"><ele>16.25</ele></trkpt>
      <trkpt lat="51.357057" lon="-0.479004"><ele>17</ele></trkpt>
      <trkpt lat="51.357154" lon="-0.477863"><ele>15</ele></trkpt>
      <trkpt lat="51.357178" lon="-0.477638"><ele>14.5</ele></trkpt>
      <trkpt lat="51.357167" lon="-0.47742"><ele>14.25</ele></trkpt>
      <trkpt lat="51.35716" lon="-0.477198"><ele>14</ele></trkpt>
      <trkpt lat="51.357115" lon="-0.476782"><ele>14</ele></trkpt>
      <trkpt lat="51.357076" lon="-0.476303"><ele>13.75</ele></trkpt>
      <trkpt lat="51.357054" lon="-0.475924"><ele>13</ele></trkpt>
      <trkpt lat="51.357022" lon="-0.475596"><ele>12.75</ele></trkpt>
      <trkpt lat="51.356855" lon="-0.474996"><ele>13.25</ele></trkpt>
      <trkpt lat="51.356669" lon="-0.4744"><ele>12.75</ele></trkpt>
      <trkpt lat="51.356465" lon="-0.473775"><ele>13.25</ele></trkpt>
      <trkpt lat="51.355905" lon="-0.472297"><ele>14</ele></trkpt>
      <trkpt lat="51.355893" lon="-0.472273"><ele>14</ele></trkpt>
      <trkpt lat="51.355867" lon="-0.472196"><ele>14</ele></trkpt>
      <trkpt lat="51.355837" lon="-0.4721"><ele>14.75</ele></trkpt>
      <trkpt lat="51.355823" lon="-0.47204"><ele>15.25</ele></trkpt>
      <trkpt lat="51.35581" lon="-0.471972"><ele>15.5</ele></trkpt>
      <trkpt lat="51.355802" lon="-0.471919"><ele>15.25</ele></trkpt>
      <trkpt lat="51.355796" lon="-0.471898"><ele>15</ele></trkpt>
      <trkpt lat="51.355449" lon="-0.470681"><ele>13.25</ele></trkpt>
      <trkpt lat="51.355447" lon="-0.470576"><ele>13.5</ele></trkpt>
      <trkpt lat="51.35549" lon="-0.470386"><ele>14</ele></trkpt>
      <trkpt lat="51.355572" lon="-0.470195"><ele>13.5</ele></trkpt>
      <trkpt lat="51.355826" lon="-0.469642"><ele>13.75</ele></trkpt>
      <trkpt lat="51.356124" lon="-0.46906"><ele>13.5</ele></trkpt>
      <trkpt lat="51.356319" lon="-0.468654"><ele>14.75</ele></trkpt>
      <trkpt lat="51.356538" lon="-0.468173"><ele>15.5</ele></trkpt>
      <trkpt lat="51.356737" lon="-0.467703"><ele>12.75</ele></trkpt>
      <trkpt lat="51.356741" lon="-0.467634"><ele>13</ele></trkpt>
      <trkpt lat="51.356721" lon="-0.467605"><ele>13.25</ele></trkpt>
      <trkpt lat="51.356715" lon="-0.467565"><ele>13.25</ele></trkpt>
      <trkpt lat="51.356774" lon="-0.467425"><ele>13</ele></trkpt>
      <trkpt lat="51.356897" lon="-0.467231"><ele>12.75</ele></trkpt>
      <trkpt lat="51.356917" lon="-0.467205"><ele>13.25</ele></trkpt>
      <trkpt lat="51.356712" lon="-0.466968"><ele>14</ele></trkpt>
      <trkpt lat="51.356657" lon="-0.466766"><ele>13.5</ele></trkpt>
      <trkpt lat="51.356861" lon="-0.46635"><ele>19.5</ele></trkpt>
      <trkpt lat="51.356948" lon="-0.466108"><ele>16</ele></trkpt>
      <trkpt lat="51.357271" lon="-0.465417"><ele>17</ele></trkpt>
      <trkpt lat="51.35732" lon="-0.465321"><ele>18</ele></trkpt>
      <trkpt lat="51.357468" lon="-0.465035"><ele>18.25</ele></trkpt>
      <trkpt lat="51.357486" lon="-0.464962"><ele>18.25</ele></trkpt>
      <trkpt lat="51.357429" lon="-0.464738"><ele>20.75</ele></trkpt>
      <trkpt lat="51.35743" lon="-0.464687"><ele>21</ele></trkpt>
      <trkpt lat="51.35744" lon="-0.464644"><ele>21.25</ele></trkpt>
      <trkpt lat="51.357468" lon="-0.464611"><ele>21.5</ele></trkpt>
      <trkpt lat="51.357506" lon="-0.46461"><ele>22</ele></trkpt>
      <trkpt lat="51.357539" lon="-0.464644"><ele>22.25</ele></trkpt>
      <trkpt lat="51.357585" lon="-0.464652"><ele>22.5</ele></trkpt>
      <trkpt lat="51.357622" lon="-0.464634"><ele>23</ele></trkpt>
      <trkpt lat="51.357661" lon="-0.464556"><ele>23.5</ele></trkpt>
      <trkpt lat="51.357688" lon="-0.464513"><ele>23.75</ele></trkpt>
      <trkpt lat="51.357713" lon="-0.464454"><ele>24.25</ele></trkpt>
      <trkpt lat="51.35791" lon="-0.463998"><ele>30.5</ele></trkpt>
      <trkpt lat="51.35813" lon="-0.463539"><ele>30.25</ele></trkpt>
      <trkpt lat="51.358223" lon="-0.463385"><ele>29.25</ele></trkpt>
      <trkpt lat="51.358237" lon="-0.463361"><ele>29.25</ele></trkpt>
      <trkpt lat="51.358212" lon="-0.463308"><ele>29.25</ele></trkpt>
      <trkpt lat="51.358228" lon="-0.463285"><ele>29</ele></trkpt>
      <trkpt lat="51.358267" lon="-0.463231"><ele>28.75</ele></trkpt>
      <trkpt lat="51.358299" lon="-0.463165"><ele>28.25</ele></trkpt>
      <trkpt lat="51.358404" lon="-0.462896"><ele>26.75</ele></trkpt>
      <trkpt lat="51.358471" lon="-0.462727"><ele>25.75</ele></trkpt>
      <trkpt lat="51.358631" lon="-0.462379"><ele>24.5</ele></trkpt>
      <trkpt lat="51.358852" lon="-0.461933"><ele>24</ele></trkpt>
      <trkpt lat="51.35909" lon="-0.461535"><ele>25</ele></trkpt>
      <trkpt lat="51.359408" lon="-0.46105"><ele>26.75</ele></trkpt>
      <trkpt lat="51.359492" lon="-0.460915"><ele>26.75</ele></trkpt>
      <trkpt lat="51.359644" lon="-0.460635"><ele>26.75</ele></trkpt>
      <trkpt lat="51.359663" lon="-0.460618"><ele>26.75</ele></trkpt>
      <trkpt lat="51.359733" lon="-0.460584"><ele>26.75</ele></trkpt>
      <trkpt lat="51.359858" lon="-0.460371"><ele>26.5</ele></trkpt>
      <trkpt lat="51.35991" lon="-0.460263"><ele>26.5</ele></trkpt>
      <trkpt lat="51.359948" lon="-0.460259"><ele>26.25</ele></trkpt>
      <trkpt lat="51.359971" lon="-0.460213"><ele>26.5</ele></trkpt>
      <trkpt lat="51.360206" lon="-0.45977"><ele>27</ele></trkpt>
      <trkpt lat="51.360362" lon="-0.459456"><ele>28.25</ele></trkpt>
      <trkpt lat="51.360776" lon="-0.458623"><ele>31</ele></trkpt>
      <trkpt lat="51.360818" lon="-0.458532"><ele>31.75</ele></trkpt>
      <trkpt lat="51.360948" lon="-0.458246"><ele>31.5</ele></trkpt>
      <trkpt lat="51.361088" lon="-0.457939"><ele>33.25</ele></trkpt>
      <trkpt lat="51.36111" lon="-0.45787"><ele>34</ele></trkpt>
      <trkpt lat="51.36157" lon="-0.456986"><ele>34</ele></trkpt>
      <trkpt lat="51.361617" lon="-0.456896"><ele>34.5</ele></trkpt>
      <trkpt lat="51.361662" lon="-0.456756"><ele>35.25</ele></trkpt>
      <trkpt lat="51.361675" lon="-0.456681"><ele>35.5</ele></trkpt>
      <trkpt lat="51.361712" lon="-0.456693"><ele>34.25</ele></trkpt>
      <trkpt lat="51.361732" lon="-0.456679"><ele>33.75</ele></trkpt>
      <trkpt lat="51.36175" lon="-0.45665"><ele>33.25</ele></trkpt>
      <trkpt lat="51.361807" lon="-0.456643"><ele>31.75</ele></trkpt>
      <trkpt lat="51.361823" lon="-0.456647"><ele>31.25</ele></trkpt>
      <trkpt lat="51.361783" lon="-0.456753"><ele>31.5</ele></trkpt>
      <trkpt lat="51.361447" lon="-0.457423"><ele>31.5</ele></trkpt>
      <trkpt lat="51.361459" lon="-0.45744"><ele>31</ele></trkpt>
      <trkpt lat="51.361658" lon="-0.457701"><ele>26</ele></trkpt>
      <trkpt lat="51.361736" lon="-0.457803"><ele>27.5</ele></trkpt>
      <trkpt lat="51.36175" lon="-0.457775"><ele>27.5</ele></trkpt>
      <trkpt lat="51.361766" lon="-0.457742"><ele>27.75</ele></trkpt>
      <trkpt lat="51.361768" lon="-0.457738"><ele>28.25</ele></trkpt>
      <trkpt lat="51.361782" lon="-0.45771"><ele>28.25</ele></trkpt>
      <trkpt lat="51.361838" lon="-0.45779"><ele>29</ele></trkpt>
      <trkpt lat="51.36189" lon="-0.457686"><ele>30.5</ele></trkpt>
      <trkpt lat="51.361913" lon="-0.457647"><ele>31.25</ele></trkpt>
      <trkpt lat="51.362024" lon="-0.457629"><ele>32.75</ele></trkpt>
      <trkpt lat="51.362053" lon="-0.457615"><ele>33</ele></trkpt>
      <trkpt lat="51.362111" lon="-0.457537"><ele>33.5</ele></trkpt>
      <trkpt lat="51.362171" lon="-0.457427"><ele>33.5</ele></trkpt>
      <trkpt lat="51.362251" lon="-0.457069"><ele>34</ele></trkpt>
      <trkpt lat="51.362299" lon="-0.456796"><ele>33</ele></trkpt>
      <trkpt lat="51.362305" lon="-0.456768"><ele>32.75</ele></trkpt>
      <trkpt lat="51.362303" lon="-0.456728"><ele>32.25</ele></trkpt>
      <trkpt lat="51.362277" lon="-0.456678"><ele>31.25</ele></trkpt>
      <trkpt lat="51.362286" lon="-0.456673"><ele>31.25</ele></trkpt>
      <trkpt lat="51.362312" lon="-0.45666"><ele>31.75</ele></trkpt>
      <trkpt lat="51.362329" lon="-0.456651"><ele>32</ele></trkpt>
      <trkpt lat="51.362353" lon="-0.456642"><ele>32.5</ele></trkpt>
      <trkpt lat="51.362357" lon="-0.456614"><ele>32.25</ele></trkpt>
      <trkpt lat="51.362358" lon="-0.45658"><ele>32</ele></trkpt>
      <trkpt lat="51.36236" lon="-0.456545"><ele>31.75</ele></trkpt>
      <trkpt lat="51.36236" lon="-0.456533"><ele>31.75</ele></trkpt>
      <trkpt lat="51.362436" lon="-0.456529"><ele>33.75</ele></trkpt>
      <trkpt lat="51.362809" lon="-0.455901"><ele>35.25</ele></trkpt>
      <trkpt lat="51.363326" lon="-0.454916"><ele>35.5</ele></trkpt>
      <trkpt lat="51.363602" lon="-0.45439"><ele>35.5</ele></trkpt>
      <trkpt lat="51.363942" lon="-0.453555"><ele>35</ele></trkpt>
      <trkpt lat="51.364434" lon="-0.452348"><ele>35</ele></trkpt>
      <trkpt lat="51.364548" lon="-0.452067"><ele>33.5</ele></trkpt>
      <trkpt lat="51.364751" lon="-0.451947"><ele>35.75</ele></trkpt>
      <trkpt lat="51.364732" lon="-0.45188"><ele>35.75</ele></trkpt>
      <trkpt lat="51.365165" lon="-0.45165"><ele>33.75</ele></trkpt>
      <trkpt lat="51.365152" lon="-0.451502"><ele>34.75</ele></trkpt>
      <trkpt lat="51.365095" lon="-0.451461"><ele>35.25</ele></trkpt>
      <trkpt lat="51.365257" lon="-0.451021"><ele>36.25</ele></trkpt>
      <trkpt lat="51.365591" lon="-0.450109"><ele>36.75</ele></trkpt>
      <trkpt lat="51.365768" lon="-0.44949"><ele>37.75</ele></trkpt>
      <trkpt lat="51.365822" lon="-0.449331"><ele>38</ele></trkpt>
      <trkpt lat="51.366143" lon="-0.448999"><ele>36.75</ele></trkpt>
      <trkpt lat="51.366213" lon="-0.448863"><ele>36.5</ele></trkpt>
      <trkpt lat="51.366345" lon="-0.448554"><ele>36</ele></trkpt>
      <trkpt lat="51.366448" lon="-0.448326"><ele>35.75</ele></trkpt>
      <trkpt lat="51.366415" lon="-0.44824"><ele>35.75</ele></trkpt>
      <trkpt lat="51.366385" lon="-0.448115"><ele>36</ele></trkpt>
      <trkpt lat="51.366369" lon="-0.448012"><ele>36</ele></trkpt>
      <trkpt lat="51.366411" lon="-0.447749"><ele>35.75</ele></trkpt>
      <trkpt lat="51.366436" lon="-0.447644"><ele>35.75</ele></trkpt>
      <trkpt lat="51.366453" lon="-0.447578"><ele>35.75</ele></trkpt>
      <trkpt lat="51.366526" lon="-0.447261"><ele>35.5</ele></trkpt>
      <trkpt lat="51.366649" lon="-0.446737"><ele>35</ele></trkpt>
      <trkpt lat="51.36668" lon="-0.446603"><ele>34.75</ele></trkpt>
      <trkpt lat="51.36669" lon="-0.44656"><ele>34.75</ele></trkpt>
      <trkpt lat="51.366798" lon="-0.446089"><ele>34.5</ele></trkpt>
      <trkpt lat="51.366835" lon="-0.44592"><ele>34.5</ele></trkpt>
      <trkpt lat="51.366857" lon="-0.445852"><ele>34.5</ele></trkpt>
      <trkpt lat="51.366888" lon="-0.445808"><ele>34.25</ele></trkpt>
      <trkpt lat="51.366923" lon="-0.445798"><ele>34</ele></trkpt>
      <trkpt lat="51.366923" lon="-0.445623"><ele>34</ele></trkpt>
      <trkpt lat="51.366949" lon="-0.44522"><ele>34</ele></trkpt>
      <trkpt lat="51.366962" lon="-0.445081"><ele>34</ele></trkpt>
      <trkpt lat="51.366993" lon="-0.444903"><ele>34</ele></trkpt>
      <trkpt lat="51.367041" lon="-0.444703"><ele>33.75</ele></trkpt>
      <trkpt lat="51.367131" lon="-0.444444"><ele>33.25</ele></trkpt>
      <trkpt lat="51.367164" lon="-0.444368"><ele>33.5</ele></trkpt>
      <trkpt lat="51.367227" lon="-0.444267"><ele>34</ele></trkpt>
      <trkpt lat="51.366965" lon="-0.443729"><ele>34</ele></trkpt>
      <trkpt lat="51.366761" lon="-0.443278"><ele>30</ele></trkpt>
      <trkpt lat="51.366817" lon="-0.44319"><ele>31</ele></trkpt>
      <trkpt lat="51.366903" lon="-0.442998"><ele>33</ele></trkpt>
      <trkpt lat="51.366963" lon="-0.442929"><ele>34</ele></trkpt>
      <trkpt lat="51.36714" lon="-0.442757"><ele>33.75</ele></trkpt>
      <trkpt lat="51.367195" lon="-0.442692"><ele>33.75</ele></trkpt>
      <trkpt lat="51.367266" lon="-0.442606"><ele>33.75</ele></trkpt>
      <trkpt lat="51.36733" lon="-0.4425"><ele>33.5</ele></trkpt>
      <trkpt lat="51.367464" lon="-0.442066"><ele>33</ele></trkpt>
      <trkpt lat="51.367674" lon="-0.441153"><ele>33.25</ele></trkpt>
      <trkpt lat="51.367742" lon="-0.440859"><ele>33</ele></trkpt>
      <trkpt lat="51.367988" lon="-0.439796"><ele>33</ele></trkpt>
      <trkpt lat="51.368328" lon="-0.438287"><ele>32.75</ele></trkpt>
      <trkpt lat="51.369049" lon="-0.435087"><ele>33</ele></trkpt>
      <trkpt lat="51.370064" lon="-0.430562"><ele>33</ele></trkpt>
      <trkpt lat="51.370377" lon="-0.429232"><ele>32</ele></trkpt>
      <trkpt lat="51.370421" lon="-0.429052"><ele>32</ele></trkpt>
      <trkpt lat="51.370549" lon="-0.42868"><ele>32</ele></trkpt>
      <trkpt lat="51.370747" lon="-0.428315"><ele>31.5</ele></trkpt>
      <trkpt lat="51.370853" lon="-0.428134"><ele>31.75</ele></trkpt>
      <trkpt lat="51.370934" lon="-0.42803"><ele>31.5</ele></trkpt>
      <trkpt lat="51.37075" lon="-0.427828"><ele>31.25</ele></trkpt>
      <trkpt lat="51.370575" lon="-0.427612"><ele>28.25</ele></trkpt>
      <trkpt lat="51.370535" lon="-0.4274"><ele>25.75</ele></trkpt>
      <trkpt lat="51.371183" lon="-0.424879"><ele>29</ele></trkpt>
      <trkpt lat="51.371403" lon="-0.42384"><ele>28.75</ele></trkpt>
      <trkpt lat="51.371388" lon="-0.423678"><ele>28.75</ele></trkpt>
      <trkpt lat="51.371484" lon="-0.423657"><ele>28.75</ele></trkpt>
      <trkpt lat="51.371686" lon="-0.423601"><ele>28.75</ele></trkpt>
      <trkpt lat="51.37179" lon="-0.423559"><ele>28.75</ele></trkpt>
      <trkpt lat="51.371866" lon="-0.423499"><ele>28.75</ele></trkpt>
      <trkpt lat="51.371946" lon="-0.423411"><ele>29</ele></trkpt>
      <trkpt lat="51.372013" lon="-0.423386"><ele>29</ele></trkpt>
      <trkpt lat="51.372287" lon="-0.423029"><ele>28.75</ele></trkpt>
      <trkpt lat="51.37252" lon="-0.422739"><ele>29</ele></trkpt>
      <trkpt lat="51.372535" lon="-0.422636"><ele>29</ele></trkpt>
      <trkpt lat="51.372513" lon="-0.422121"><ele>28.75</ele></trkpt>
      <trkpt lat="51.372494" lon="-0.421887"><ele>28.75</ele></trkpt>
      <trkpt lat="51.372417" lon="-0.421217"><ele>27.5</ele></trkpt>
      <trkpt lat="51.372378" lon="-0.420756"><ele>27</ele></trkpt>
      <trkpt lat="51.372372" lon="-0.420686"><ele>27</ele></trkpt>
      <trkpt lat="51.372288" lon="-0.419664"><ele>26.75</ele></trkpt>
      <trkpt lat="51.372277" lon="-0.419413"><ele>26</ele></trkpt>
      <trkpt lat="51.372315" lon="-0.419122"><ele>26</ele></trkpt>
      <trkpt lat="51.372459" lon="-0.418205"><ele>24</ele></trkpt>
      <trkpt lat="51.372746" lon="-0.416384"><ele>21.75</ele></trkpt>
      <trkpt lat="51.372867" lon="-0.415619"><ele>20.75</ele></trkpt>
      <trkpt lat="51.372909" lon="-0.415352"><ele>20.5</ele></trkpt>
      <trkpt lat="51.372964" lon="-0.415076"><ele>20.25</ele></trkpt>
      <trkpt lat="51.372998" lon="-0.414939"><ele>20</ele></trkpt>
      <trkpt lat="51.373032" lon="-0.414832"><ele>19.5</ele></trkpt>
      <trkpt lat="51.373039" lon="-0.414809"><ele>19.25</ele></trkpt>
      <trkpt lat="51.373004" lon="-0.414773"><ele>19.5</ele></trkpt>
      <trkpt lat="51.372997" lon="-0.414766"><ele>19.5</ele></trkpt>
      <trkpt lat="51.372994" lon="-0.41472"><ele>19.25</ele></trkpt>
      <trkpt lat="51.373006" lon="-0.414651"><ele>19.5</ele></trkpt>
      <trkpt lat="51.372986" lon="-0.414641"><ele>19.5</ele></trkpt>
      <trkpt lat="51.372932" lon="-0.414617"><ele>20</ele></trkpt>
      <trkpt lat="51.372986" lon="-0.414641"><ele>19.5</ele></trkpt>
      <trkpt lat="51.373006" lon="-0.414651"><ele>19.5</ele></trkpt>
      <trkpt lat="51.373038" lon="-0.414434"><ele>20</ele></trkpt>
      <trkpt lat="51.373049" lon="-0.414436"><ele>20</ele></trkpt>
      <trkpt lat="51.373081" lon="-0.414442"><ele>19.75</ele></trkpt>
      <trkpt lat="51.373175" lon="-0.414248"><ele>19.5</ele></trkpt>
      <trkpt lat="51.373184" lon="-0.414229"><ele>19.5</ele></trkpt>
      <trkpt lat="51.373286" lon="-0.414333"><ele>19</ele></trkpt>
      <trkpt lat="51.373365" lon="-0.414207"><ele>18.75</ele></trkpt>
      <trkpt lat="51.373442" lon="-0.414098"><ele>18.25</ele></trkpt>
      <trkpt lat="51.373744" lon="-0.413619"><ele>18</ele></trkpt>
      <trkpt lat="51.374451" lon="-0.412444"><ele>17</ele></trkpt>
      <trkpt lat="51.374459" lon="-0.412432"><ele>17</ele></trkpt>
      <trkpt lat="51.375157" lon="-0.411293"><ele>16.25</ele></trkpt>
      <trkpt lat="51.375187" lon="-0.411247"><ele>16</ele></trkpt>
      <trkpt lat="51.375333" lon="-0.411025"><ele>16</ele></trkpt>
      <trkpt lat="51.37548" lon="-0.410781"><ele>16</ele></trkpt>
      <trkpt lat="51.375518" lon="-0.410718"><ele>16</ele></trkpt>
      <trkpt lat="51.375817" lon="-0.410267"><ele>15.75</ele></trkpt>
      <trkpt lat="51.37605" lon="-0.409916"><ele>14.75</ele></trkpt>
      <trkpt lat="51.376069" lon="-0.409819"><ele>15</ele></trkpt>
      <trkpt lat="51.376093" lon="-0.409776"><ele>15</ele></trkpt>
      <trkpt lat="51.376217" lon="-0.40956"><ele>15</ele></trkpt>
      <trkpt lat="51.376263" lon="-0.409479"><ele>15</ele></trkpt>
      <trkpt lat="51.376296" lon="-0.409398"><ele>15</ele></trkpt>
      <trkpt lat="51.376347" lon="-0.409232"><ele>15</ele></trkpt>
      <trkpt lat="51.376353" lon="-0.409226"><ele>15</ele></trkpt>
      <trkpt lat="51.376458" lon="-0.408829"><ele>14.75</ele></trkpt>
      <trkpt lat="51.376535" lon="-0.408639"><ele>14.25</ele></trkpt>
      <trkpt lat="51.376588" lon="-0.408408"><ele>14.25</ele></trkpt>
      <trkpt lat="51.376616" lon="-0.408298"><ele>14</ele></trkpt>
      <trkpt lat="51.376667" lon="-0.408075"><ele>14</ele></trkpt>
      <trkpt lat="51.376687" lon="-0.40799"><ele>14</ele></trkpt>
      <trkpt lat="51.376723" lon="-0.407835"><ele>13.75</ele></trkpt>
      <trkpt lat="51.376808" lon="-0.40747"><ele>14</ele></trkpt>
      <trkpt lat="51.376864" lon="-0.407232"><ele>14</ele></trkpt>
      <trkpt lat="51.376957" lon="-0.406876"><ele>14</ele></trkpt>
      <trkpt lat="51.377065" lon="-0.40646"><ele>14</ele></trkpt>
      <trkpt lat="51.377172" lon="-0.406044"><ele>14</ele></trkpt>
      <trkpt lat="51.377283" lon="-0.405648"><ele>13.25</ele></trkpt>
      <trkpt lat="51.377375" lon="-0.405233"><ele>13.5</ele></trkpt>
      <trkpt lat="51.377409" lon="-0.405053"><ele>13.5</ele></trkpt>
      <trkpt lat="51.377445" lon="-0.404722"><ele>13.75</ele></trkpt>
      <trkpt lat="51.377467" lon="-0.404487"><ele>13</ele></trkpt>
      <trkpt lat="51.377478" lon="-0.404323"><ele>13</ele></trkpt>
      <trkpt lat="51.377527" lon="-0.40384"><ele>13</ele></trkpt>
      <trkpt lat="51.37758" lon="-0.403418"><ele>13</ele></trkpt>
      <trkpt lat="51.37761" lon="-0.40325"><ele>13.25</ele></trkpt>
      <trkpt lat="51.377675" lon="-0.402891"><ele>13</ele></trkpt>
      <trkpt lat="51.377711" lon="-0.402701"><ele>13</ele></trkpt>
      <trkpt lat="51.377812" lon="-0.402192"><ele>13</ele></trkpt>
      <trkpt lat="51.377913" lon="-0.4018"><ele>13</ele></trkpt>
      <trkpt lat="51.378141" lon="-0.401122"><ele>13</ele></trkpt>
      <trkpt lat="51.378182" lon="-0.401024"><ele>13</ele></trkpt>
      <trkpt lat="51.378293" lon="-0.400794"><ele>13</ele></trkpt>
      <trkpt lat="51.378622" lon="-0.400265"><ele>13</ele></trkpt>
      <trkpt lat="51.378885" lon="-0.399851"><ele>13</ele></trkpt>
      <trkpt lat="51.378985" lon="-0.399696"><ele>12.75</ele></trkpt>
      <trkpt lat="51.378584" lon="-0.398949"><ele>12.75</ele></trkpt>
      <trkpt lat="51.378345" lon="-0.398565"><ele>12</ele></trkpt>
      <trkpt lat="51.377935" lon="-0.397956"><ele>12.75</ele></trkpt>
      <trkpt lat="51.377429" lon="-0.397247"><ele>13</ele></trkpt>
      <trkpt lat="51.377348" lon="-0.397068"><ele>13</ele></trkpt>
      <trkpt lat="51.377283" lon="-0.396826"><ele>13</ele></trkpt>
      <trkpt lat="51.377246" lon="-0.396606"><ele>13</ele></trkpt>
      <trkpt lat="51.377248" lon="-0.396411"><ele>13</ele></trkpt>
      <trkpt lat="51.377271" lon="-0.396217"><ele>13</ele></trkpt>
      <trkpt lat="51.377322" lon="-0.395938"><ele>13</ele></trkpt>
      <trkpt lat="51.377448" lon="-0.395413"><ele>13</ele></trkpt>
      <trkpt lat="51.377469" lon="-0.395178"><ele>13</ele></trkpt>
      <trkpt lat="51.377445" lon="-0.394901"><ele>13</ele></trkpt>
      <trkpt lat="51.377422" lon="-0.394758"><ele>13</ele></trkpt>
      <trkpt lat="51.377371" lon="-0.3946"><ele>13</ele></trkpt>
      <trkpt lat="51.376927" lon="-0.393616"><ele>13</ele></trkpt>
      <trkpt lat="51.376808" lon="-0.393302"><ele>13</ele></trkpt>
      <trkpt lat="51.376764" lon="-0.393144"><ele>13</ele></trkpt>
      <trkpt lat="51.376757" lon="-0.392951"><ele>13</ele></trkpt>
      <trkpt lat="51.376801" lon="-0.392644"><ele>13</ele></trkpt>
      <trkpt lat="51.376953" lon="-0.391843"><ele>13</ele></trkpt>
      <trkpt lat="51.37697" lon="-0.391707"><ele>13</ele></trkpt>
      <trkpt lat="51.376997" lon="-0.391557"><ele>13</ele></trkpt>
      <trkpt lat="51.377062" lon="-0.391348"><ele>13</ele></trkpt>
      <trkpt lat="51.377114" lon="-0.39127"><ele>13</ele></trkpt>
      <trkpt lat="51.377208" lon="-0.391175"><ele>13</ele></trkpt>
      <trkpt lat="51.377307" lon="-0.391112"><ele>13</ele></trkpt>
      <trkpt lat="51.377474" lon="-0.391044"><ele>13</ele></trkpt>
      <trkpt lat="51.377441" lon="-0.390858"><ele>13</ele></trkpt>
      <trkpt lat="51.377402" lon="-0.390643"><ele>13</ele></trkpt>
      <trkpt lat="51.3773" lon="-0.390084"><ele>13</ele></trkpt>
      <trkpt lat="51.377279" lon="-0.38998"><ele>13</ele></trkpt>
      <trkpt lat="51.377242" lon="-0.389997"><ele>13</ele></trkpt>
      <trkpt lat="51.376994" lon="-0.390113"><ele>13.25</ele></trkpt>
      <trkpt lat="51.377011" lon="-0.389994"><ele>13.75</ele></trkpt>
      <trkpt lat="51.377067" lon="-0.38961"><ele>14.75</ele></trkpt>
      <trkpt lat="51.377481" lon="-0.387061"><ele>14</ele></trkpt>
      <trkpt lat="51.37758" lon="-0.386448"><ele>15.25</ele></trkpt>
      <trkpt lat="51.377618" lon="-0.38622"><ele>15.5</ele></trkpt>
      <trkpt lat="51.377647" lon="-0.386119"><ele>15.25</ele></trkpt>
      <trkpt lat="51.377681" lon="-0.386061"><ele>15</ele></trkpt>
      <trkpt lat="51.377743" lon="-0.386036"><ele>14.25</ele></trkpt>
      <trkpt lat="51.377793" lon="-0.386045"><ele>14</ele></trkpt>
      <trkpt lat="51.378005" lon="-0.386136"><ele>14</ele></trkpt>
      <trkpt lat="51.378062" lon="-0.386149"><ele>14</ele></trkpt>
      <trkpt lat="51.378127" lon="-0.386141"><ele>14</ele></trkpt>
      <trkpt lat="51.378308" lon="-0.386088"><ele>14</ele></trkpt>
      <trkpt lat="51.37879" lon="-0.385861"><ele>13.75</ele></trkpt>
      <trkpt lat="51.378937" lon="-0.385935"><ele>13.5</ele></trkpt>
      <trkpt lat="51.379414" lon="-0.385837"><ele>13.75</ele></trkpt>
      <trkpt lat="51.379838" lon="-0.385749"><ele>13.25</ele></trkpt>
      <trkpt lat="51.379894" lon="-0.385721"><ele>13.25</ele></trkpt>
      <trkpt lat="51.379855" lon="-0.385367"><ele>14</ele></trkpt>
      <trkpt lat="51.379863" lon="-0.385128"><ele>14</ele></trkpt>
      <trkpt lat="51.37993" lon="-0.384981"><ele>14</ele></trkpt>
      <trkpt lat="51.379873" lon="-0.384479"><ele>14</ele></trkpt>
      <trkpt lat="51.379968" lon="-0.384281"><ele>14</ele></trkpt>
      <trkpt lat="51.379921" lon="-0.383983"><ele>14</ele></trkpt>
      <trkpt lat="51.379948" lon="-0.383854"><ele>13.75</ele></trkpt>
      <trkpt lat="51.380016" lon="-0.383819"><ele>13.5</ele></trkpt>
      <trkpt lat="51.380096" lon="-0.383812"><ele>13.25</ele></trkpt>
      <trkpt lat="51.380124" lon="-0.383739"><ele>13.25</ele></trkpt>
      <trkpt lat="51.380143" lon="-0.383636"><ele>13</ele></trkpt>
      <trkpt lat="51.380139" lon="-0.383505"><ele>12.75</ele></trkpt>
      <trkpt lat="51.380047" lon="-0.382707"><ele>13.25</ele></trkpt>
      <trkpt lat="51.379974" lon="-0.381979"><ele>13</ele></trkpt>
      <trkpt lat="51.379858" lon="-0.380994"><ele>12</ele></trkpt>
      <trkpt lat="51.379814" lon="-0.38039"><ele>12.25</ele></trkpt>
      <trkpt lat="51.379758" lon="-0.37973"><ele>12.75</ele></trkpt>
      <trkpt lat="51.379712" lon="-0.379373"><ele>12.75</ele></trkpt>
      <trkpt lat="51.379485" lon="-0.37859"><ele>13.75</ele></trkpt>
      <trkpt lat="51.379514" lon="-0.378359"><ele>13</ele></trkpt>
      <trkpt lat="51.379492" lon="-0.378189"><ele>12.75</ele></trkpt>
      <trkpt lat="51.379552" lon="-0.378137"><ele>12.5</ele></trkpt>
      <trkpt lat="51.379554" lon="-0.378082"><ele>12.5</ele></trkpt>
      <trkpt lat="51.379537" lon="-0.377687"><ele>11.5</ele></trkpt>
      <trkpt lat="51.379537" lon="-0.377655"><ele>11.75</ele></trkpt>
      <trkpt lat="51.379312" lon="-0.377623"><ele>12.5</ele></trkpt>
      <trkpt lat="51.379257" lon="-0.377493"><ele>13</ele></trkpt>
      <trkpt lat="51.379239" lon="-0.377353"><ele>13</ele></trkpt>
      <trkpt lat="51.379219" lon="-0.377029"><ele>13</ele></trkpt>
      <trkpt lat="51.379252" lon="-0.376575"><ele>13.75</ele></trkpt>
      <trkpt lat="51.37942" lon="-0.375694"><ele>12.25</ele></trkpt>
      <trkpt lat="51.379548" lon="-0.374987"><ele>13</ele></trkpt>
      <trkpt lat="51.379603" lon="-0.374557"><ele>13.5</ele></trkpt>
      <trkpt lat="51.379609" lon="-0.37438"><ele>13.75</ele></trkpt>
      <trkpt lat="51.379642" lon="-0.374276"><ele>13.75</ele></trkpt>
      <trkpt lat="51.379586" lon="-0.373911"><ele>14.25</ele></trkpt>
      <trkpt lat="51.379591" lon="-0.373661"><ele>15</ele></trkpt>
      <trkpt lat="51.379624" lon="-0.372988"><ele>14.25</ele></trkpt>
      <trkpt lat="51.379672" lon="-0.372206"><ele>12.75</ele></trkpt>
      <trkpt lat="51.379725" lon="-0.370438"><ele>12</ele></trkpt>
      <trkpt lat="51.379723" lon="-0.369988"><ele>12</ele></trkpt>
      <trkpt lat="51.379978" lon="-0.370041"><ele>12</ele></trkpt>
      <trkpt lat="51.38002" lon="-0.368071"><ele>12</ele></trkpt>
      <trkpt lat="51.380043" lon="-0.3678"><ele>12</ele></trkpt>
      <trkpt lat="51.38004" lon="-0.367685"><ele>12</ele></trkpt>
      <trkpt lat="51.380016" lon="-0.367592"><ele>12</ele></trkpt>
      <trkpt lat="51.379982" lon="-0.367524"><ele>12</ele></trkpt>
      <trkpt lat="51.379872" lon="-0.367367"><ele>12.25</ele></trkpt>
      <trkpt lat="51.37983" lon="-0.367283"><ele>12.5</ele></trkpt>
      <trkpt lat="51.379802" lon="-0.36719"><ele>12.5</ele></trkpt>
      <trkpt lat="51.379792" lon="-0.367073"><ele>12.5</ele></trkpt>
      <trkpt lat="51.379831" lon="-0.365118"><ele>13</ele></trkpt>
      <trkpt lat="51.379732" lon="-0.365083"><ele>13.5</ele></trkpt>
      <trkpt lat="51.37953" lon="-0.365073"><ele>12.25</ele></trkpt>
      <trkpt lat="51.379434" lon="-0.364972"><ele>11.75</ele></trkpt>
      <trkpt lat="51.379187" lon="-0.364292"><ele>12</ele></trkpt>
      <trkpt lat="51.37913" lon="-0.364172"><ele>12</ele></trkpt>
      <trkpt lat="51.379253" lon="-0.362627"><ele>12</ele></trkpt>
      <trkpt lat="51.379356" lon="-0.361574"><ele>12.25</ele></trkpt>
      <trkpt lat="51.379377" lon="-0.361294"><ele>12</ele></trkpt>
      <trkpt lat="51.37941" lon="-0.36076"><ele>12</ele></trkpt>
      <trkpt lat="51.379441" lon="-0.359856"><ele>11</ele></trkpt>
      <trkpt lat="51.379456" lon="-0.35965"><ele>11.25</ele></trkpt>
      <trkpt lat="51.37947" lon="-0.359525"><ele>12</ele></trkpt>
      <trkpt lat="51.379494" lon="-0.359399"><ele>12.75</ele></trkpt>
      <trkpt lat="51.379574" lon="-0.359203"><ele>13</ele></trkpt>
      <trkpt lat="51.379617" lon="-0.359129"><ele>13</ele></trkpt>
      <trkpt lat="51.379824" lon="-0.358867"><ele>13</ele></trkpt>
      <trkpt lat="51.379885" lon="-0.358815"><ele>12.5</ele></trkpt>
      <trkpt lat="51.379929" lon="-0.358748"><ele>12.5</ele></trkpt>
      <trkpt lat="51.379975" lon="-0.358655"><ele>12.25</ele></trkpt>
      <trkpt lat="51.380013" lon="-0.358547"><ele>12.25</ele></trkpt>
      <trkpt lat="51.380072" lon="-0.358346"><ele>13</ele></trkpt>
      <trkpt lat="51.381274" lon="-0.353921"><ele>11</ele></trkpt>
      <trkpt lat="51.380849" lon="-0.353807"><ele>11.75</ele></trkpt>
      <trkpt lat="51.380318" lon="-0.35366"><ele>12</ele></trkpt>
      <trkpt lat="51.380318" lon="-0.35366"><ele>12</ele></trkpt>
      <trkpt lat="51.380346" lon="-0.35226"><ele>14.25</ele></trkpt>
      <trkpt lat="51.380326" lon="-0.351467"><ele>13.75</ele></trkpt>
      <trkpt lat="51.380339" lon="-0.350529"><ele>14.25</ele></trkpt>
      <trkpt lat="51.380381" lon="-0.349694"><ele>14.5</ele></trkpt>
      <trkpt lat="51.380523" lon="-0.348095"><ele>11.25</ele></trkpt>
      <trkpt lat="51.380574" lon="-0.347972"><ele>10.75</ele></trkpt>
      <trkpt lat="51.380775" lon="-0.347563"><ele>11</ele></trkpt>
      <trkpt lat="51.380793" lon="-0.347363"><ele>11</ele></trkpt>
      <trkpt lat="51.38082" lon="-0.347154"><ele>11</ele></trkpt>
      <trkpt lat="51.380855" lon="-0.346856"><ele>11</ele></trkpt>
      <trkpt lat="51.380884" lon="-0.346477"><ele>11</ele></trkpt>
      <trkpt lat="51.38095" lon="-0.346055"><ele>11.25</ele></trkpt>
      <trkpt lat="51.380933" lon="-0.345884"><ele>11</ele></trkpt>
      <trkpt lat="51.380939" lon="-0.345805"><ele>11</ele></trkpt>
      <trkpt lat="51.381004" lon="-0.345539"><ele>11</ele></trkpt>
      <trkpt lat="51.381" lon="-0.345488"><ele>11</ele></trkpt>
      <trkpt lat="51.38104" lon="-0.34533"><ele>11</ele></trkpt>
      <trkpt lat="51.381089" lon="-0.344946"><ele>11</ele></trkpt>
      <trkpt lat="51.381073" lon="-0.344498"><ele>11</ele></trkpt>
      <trkpt lat="51.381131" lon="-0.343958"><ele>10.75</ele></trkpt>
      <trkpt lat="51.381186" lon="-0.343546"><ele>10.75</ele></trkpt>
      <trkpt lat="51.381234" lon="-0.343099"><ele>10.25</ele></trkpt>
      <trkpt lat="51.381253" lon="-0.342544"><ele>11</ele></trkpt>
      <trkpt lat="51.381266" lon="-0.342247"><ele>11</ele></trkpt>
      <trkpt lat="51.381259" lon="-0.342039"><ele>11</ele></trkpt>
      <trkpt lat="51.381197" lon="-0.341693"><ele>11</ele></trkpt>
      <trkpt lat="51.381144" lon="-0.341359"><ele>11</ele></trkpt>
      <trkpt lat="51.381153" lon="-0.34098"><ele>11.75</ele></trkpt>
      <trkpt lat="51.381185" lon="-0.34088"><ele>11.5</ele></trkpt>
      <trkpt lat="51.381962" lon="-0.33857"><ele>11</ele></trkpt>
      <trkpt lat="51.382106" lon="-0.338298"><ele>11</ele></trkpt>
      <trkpt lat="51.382206" lon="-0.337986"><ele>11</ele></trkpt>
      <trkpt lat="51.382467" lon="-0.337109"><ele>11</ele></trkpt>
      <trkpt lat="51.382568" lon="-0.336531"><ele>11</ele></trkpt>
      <trkpt lat="51.382604" lon="-0.33637"><ele>11</ele></trkpt>
      <trkpt lat="51.382622" lon="-0.336213"><ele>11</ele></trkpt>
      <trkpt lat="51.382555" lon="-0.336139"><ele>11</ele></trkpt>
      <trkpt lat="51.382607" lon="-0.336004"><ele>11</ele></trkpt>
      <trkpt lat="51.382661" lon="-0.335867"><ele>11.5</ele></trkpt>
      <trkpt lat="51.382789" lon="-0.335561"><ele>11</ele></trkpt>
      <trkpt lat="51.382854" lon="-0.335401"><ele>11</ele></trkpt>
      <trkpt lat="51.382941" lon="-0.335205"><ele>11</ele></trkpt>
      <trkpt lat="51.383055" lon="-0.33495"><ele>11.5</ele></trkpt>
      <trkpt lat="51.383179" lon="-0.334698"><ele>13.25</ele></trkpt>
      <trkpt lat="51.38357" lon="-0.333952"><ele>11</ele></trkpt>
      <trkpt lat="51.383757" lon="-0.333632"><ele>11</ele></trkpt>
      <trkpt lat="51.383941" lon="-0.333357"><ele>11</ele></trkpt>
      <trkpt lat="51.384013" lon="-0.333262"><ele>11</ele></trkpt>
      <trkpt lat="51.384041" lon="-0.333227"><ele>11</ele></trkpt>
      <trkpt lat="51.384065" lon="-0.333196"><ele>11</ele></trkpt>
      <trkpt lat="51.384242" lon="-0.332962"><ele>11</ele></trkpt>
      <trkpt lat="51.384421" lon="-0.332752"><ele>11</ele></trkpt>
      <trkpt lat="51.384496" lon="-0.332663"><ele>10.75</ele></trkpt>
      <trkpt lat="51.385035" lon="-0.331987"><ele>10.75</ele></trkpt>
      <trkpt lat="51.385635" lon="-0.331222"><ele>10</ele></trkpt>
      <trkpt lat="51.386457" lon="-0.330212"><ele>10</ele></trkpt>
      <trkpt lat="51.3865" lon="-0.33016"><ele>10</ele></trkpt>
      <trkpt lat="51.386794" lon="-0.329812"><ele>10</ele></trkpt>
      <trkpt lat="51.386854" lon="-0.329741"><ele>10</ele></trkpt>
      <trkpt lat="51.387024" lon="-0.329525"><ele>10</ele></trkpt>
      <trkpt lat="51.387105" lon="-0.329427"><ele>10</ele></trkpt>
      <trkpt lat="51.387293" lon="-0.329152"><ele>9.75</ele></trkpt>
      <trkpt lat="51.387396" lon="-0.328977"><ele>9.5</ele></trkpt>
      <trkpt lat="51.387615" lon="-0.328648"><ele>9.75</ele></trkpt>
      <trkpt lat="51.388412" lon="-0.327374"><ele>8.5</ele></trkpt>
      <trkpt lat="51.388507" lon="-0.327181"><ele>8.25</ele></trkpt>
      <trkpt lat="51.388933" lon="-0.3263"><ele>8</ele></trkpt>
      <trkpt lat="51.389081" lon="-0.325994"><ele>8.25</ele></trkpt>
      <trkpt lat="51.389104" lon="-0.325946"><ele>8.25</ele></trkpt>
      <trkpt lat="51.389321" lon="-0.325454"><ele>8.25</ele></trkpt>
      <trkpt lat="51.389366" lon="-0.325367"><ele>8</ele></trkpt>
      <trkpt lat="51.389457" lon="-0.325196"><ele>8</ele></trkpt>
      <trkpt lat="51.389519" lon="-0.325082"><ele>8</ele></trkpt>
      <trkpt lat="51.389993" lon="-0.324112"><ele>9</ele></trkpt>
      <trkpt lat="51.39015" lon="-0.323779"><ele>9</ele></trkpt>
      <trkpt lat="51.390173" lon="-0.323731"><ele>9</ele></trkpt>
      <trkpt lat="51.390482" lon="-0.323106"><ele>10</ele></trkpt>
      <trkpt lat="51.390756" lon="-0.322514"><ele>10</ele></trkpt>
      <trkpt lat="51.390953" lon="-0.322077"><ele>10</ele></trkpt>
      <trkpt lat="51.390987" lon="-0.321997"><ele>10</ele></trkpt>
      <trkpt lat="51.391154" lon="-0.32158"><ele>9.25</ele></trkpt>
      <trkpt lat="51.391237" lon="-0.321316"><ele>8.25</ele></trkpt>
      <trkpt lat="51.391364" lon="-0.320824"><ele>10</ele></trkpt>
      <trkpt lat="51.391582" lon="-0.319931"><ele>8.75</ele></trkpt>
      <trkpt lat="51.391762" lon="-0.319209"><ele>9.5</ele></trkpt>
      <trkpt lat="51.391829" lon="-0.318969"><ele>9.25</ele></trkpt>
      <trkpt lat="51.391903" lon="-0.318727"><ele>9.5</ele></trkpt>
      <trkpt lat="51.391999" lon="-0.318449"><ele>9</ele></trkpt>
      <trkpt lat="51.392145" lon="-0.318099"><ele>9</ele></trkpt>
      <trkpt lat="51.392298" lon="-0.317766"><ele>9.25</ele></trkpt>
      <trkpt lat="51.392391" lon="-0.317562"><ele>9.25</ele></trkpt>
      <trkpt lat="51.392486" lon="-0.317364"><ele>9.5</ele></trkpt>
      <trkpt lat="51.392504" lon="-0.317321"><ele>9.5</ele></trkpt>
      <trkpt lat="51.392631" lon="-0.317056"><ele>10</ele></trkpt>
      <trkpt lat="51.392824" lon="-0.316636"><ele>9.75</ele></trkpt>
      <trkpt lat="51.393162" lon="-0.315996"><ele>9.5</ele></trkpt>
      <trkpt lat="51.393424" lon="-0.315494"><ele>8.25</ele></trkpt>
      <trkpt lat="51.393546" lon="-0.315275"><ele>9</ele></trkpt>
      <trkpt lat="51.393983" lon="-0.314522"><ele>8</ele></trkpt>
      <trkpt lat="51.39401" lon="-0.314474"><ele>8</ele></trkpt>
      <trkpt lat="51.394049" lon="-0.314406"><ele>7.75</ele></trkpt>
      <trkpt lat="51.394139" lon="-0.314245"><ele>8.25</ele></trkpt>
      <trkpt lat="51.394203" lon="-0.314146"><ele>8.25</ele></trkpt>
      <trkpt lat="51.394226" lon="-0.314109"><ele>8</ele></trkpt>
      <trkpt lat="51.394249" lon="-0.314073"><ele>7.75</ele></trkpt>
      <trkpt lat="51.394515" lon="-0.313654"><ele>8.25</ele></trkpt>
      <trkpt lat="51.394696" lon="-0.313371"><ele>8.5</ele></trkpt>
      <trkpt lat="51.394766" lon="-0.313273"><ele>8.25</ele></trkpt>
      <trkpt lat="51.39481" lon="-0.31321"><ele>8</ele></trkpt>
      <trkpt lat="51.395136" lon="-0.312802"><ele>8.5</ele></trkpt>
      <trkpt lat="51.395541" lon="-0.312389"><ele>8.25</ele></trkpt>
      <trkpt lat="51.395526" lon="-0.312346"><ele>8.5</ele></trkpt>
      <trkpt lat="51.395429" lon="-0.31205"><ele>9.75</ele></trkpt>
      <trkpt lat="51.395175" lon="-0.31104"><ele>10.25</ele></trkpt>
      <trkpt lat="51.395002" lon="-0.310582"><ele>10</ele></trkpt>
      <trkpt lat="51.394712" lon="-0.309846"><ele>10</ele></trkpt>
      <trkpt lat="51.394558" lon="-0.309413"><ele>11</ele></trkpt>
      <trkpt lat="51.394322" lon="-0.308398"><ele>11.75</ele></trkpt>
      <trkpt lat="51.39431" lon="-0.308348"><ele>11.75</ele></trkpt>
      <trkpt lat="51.394382" lon="-0.308265"><ele>11.75</ele></trkpt>
      <trkpt lat="51.394365" lon="-0.308214"><ele>11.75</ele></trkpt>
      <trkpt lat="51.394043" lon="-0.307273"><ele>11.75</ele></trkpt>
      <trkpt lat="51.393943" lon="-0.307045"><ele>12.5</ele></trkpt>
      <trkpt lat="51.393814" lon="-0.306713"><ele>13</ele></trkpt>
      <trkpt lat="51.393599" lon="-0.306157"><ele>14</ele></trkpt>
      <trkpt lat="51.393488" lon="-0.305363"><ele>15.25</ele></trkpt>
      <trkpt lat="51.393388" lon="-0.305084"><ele>15.75</ele></trkpt>
      <trkpt lat="51.393265" lon="-0.304721"><ele>17</ele></trkpt>
      <trkpt lat="51.393207" lon="-0.304648"><ele>17</ele></trkpt>
      <trkpt lat="51.393163" lon="-0.304516"><ele>17.25</ele></trkpt>
      <trkpt lat="51.393106" lon="-0.3044"><ele>17.75</ele></trkpt>
      <trkpt lat="51.393108" lon="-0.304365"><ele>17.75</ele></trkpt>
      <trkpt lat="51.393121" lon="-0.304317"><ele>17.75</ele></trkpt>
      <trkpt lat="51.393145" lon="-0.304282"><ele>17.75</ele></trkpt>
      <trkpt lat="51.393176" lon="-0.304265"><ele>17.75</ele></trkpt>
      <trkpt lat="51.39319" lon="-0.304183"><ele>17.75</ele></trkpt>
      <trkpt lat="51.3932" lon="-0.304129"><ele>18</ele></trkpt>
      <trkpt lat="51.393218" lon="-0.304073"><ele>18.25</ele></trkpt>
      <trkpt lat="51.393258" lon="-0.304035"><ele>18.25</ele></trkpt>
      <trkpt lat="51.393308" lon="-0.303926"><ele>18.75</ele></trkpt>
      <trkpt lat="51.393443" lon="-0.303632"><ele>18.75</ele></trkpt>
      <trkpt lat="51.393734" lon="-0.302983"><ele>21.25</ele></trkpt>
      <trkpt lat="51.393865" lon="-0.302699"><ele>22.25</ele></trkpt>
      <trkpt lat="51.394292" lon="-0.301764"><ele>25</ele></trkpt>
      <trkpt lat="51.394345" lon="-0.301641"><ele>25.25</ele></trkpt>
      <trkpt lat="51.39448" lon="-0.301333"><ele>26.25</ele></trkpt>
      <trkpt lat="51.394674" lon="-0.300893"><ele>27.75</ele></trkpt>
      <trkpt lat="51.394937" lon="-0.300293"><ele>29.75</ele></trkpt>
      <trkpt lat="51.394992" lon="-0.300147"><ele>30.25</ele></trkpt>
      <trkpt lat="51.395014" lon="-0.300088"><ele>30.5</ele></trkpt>
      <trkpt lat="51.395065" lon="-0.29991"><ele>30.75</ele></trkpt>
      <trkpt lat="51.395099" lon="-0.299786"><ele>30.75</ele></trkpt>
      <trkpt lat="51.39512" lon="-0.299703"><ele>31</ele></trkpt>
      <trkpt lat="51.395177" lon="-0.299375"><ele>31.25</ele></trkpt>
      <trkpt lat="51.395229" lon="-0.299294"><ele>31</ele></trkpt>
      <trkpt lat="51.395238" lon="-0.299256"><ele>31</ele></trkpt>
      <trkpt lat="51.39525" lon="-0.299207"><ele>31</ele></trkpt>
      <trkpt lat="51.395284" lon="-0.299078"><ele>31.25</ele></trkpt>
      <trkpt lat="51.395313" lon="-0.298952"><ele>31.75</ele></trkpt>
      <trkpt lat="51.395374" lon="-0.298677"><ele>32.75</ele></trkpt>
      <trkpt lat="51.395382" lon="-0.298632"><ele>32.75</ele></trkpt>
      <trkpt lat="51.395394" lon="-0.29856"><ele>33</ele></trkpt>
      <trkpt lat="51.395374" lon="-0.298464"><ele>33</ele></trkpt>
      <trkpt lat="51.395393" lon="-0.298341"><ele>33</ele></trkpt>
      <trkpt lat="51.395491" lon="-0.297557"><ele>32</ele></trkpt>
      <trkpt lat="51.395502" lon="-0.297474"><ele>32</ele></trkpt>
      <trkpt lat="51.395645" lon="-0.297005"><ele>32.25</ele></trkpt>
      <trkpt lat="51.395671" lon="-0.296932"><ele>32</ele></trkpt>
      <trkpt lat="51.395714" lon="-0.296809"><ele>31.5</ele></trkpt>
      <trkpt lat="51.395679" lon="-0.296775"><ele>30.5</ele></trkpt>
      <trkpt lat="51.39564" lon="-0.296739"><ele>29.25</ele></trkpt>
      <trkpt lat="51.395335" lon="-0.296507"><ele>28.5</ele></trkpt>
      <trkpt lat="51.395196" lon="-0.296388"><ele>32.5</ele></trkpt>
      <trkpt lat="51.395003" lon="-0.296172"><ele>33.75</ele></trkpt>
      <trkpt lat="51.394872" lon="-0.296049"><ele>33.75</ele></trkpt>
      <trkpt lat="51.394719" lon="-0.295928"><ele>34</ele></trkpt>
      <trkpt lat="51.394727" lon="-0.295899"><ele>33.75</ele></trkpt>
      <trkpt lat="51.394751" lon="-0.295817"><ele>33.75</ele></trkpt>
      <trkpt lat="51.394759" lon="-0.295789"><ele>33.75</ele></trkpt>
      <trkpt lat="51.394796" lon="-0.295672"><ele>33.75</ele></trkpt>
      <trkpt lat="51.394986" lon="-0.295122"><ele>34</ele></trkpt>
      <trkpt lat="51.395227" lon="-0.294435"><ele>33</ele></trkpt>
      <trkpt lat="51.395342" lon="-0.294083"><ele>33</ele></trkpt>
      <trkpt lat="51.395555" lon="-0.293313"><ele>32</ele></trkpt>
      <trkpt lat="51.395732" lon="-0.292703"><ele>32</ele></trkpt>
      <trkpt lat="51.395928" lon="-0.291992"><ele>30.75</ele></trkpt>
      <trkpt lat="51.396002" lon="-0.291697"><ele>31</ele></trkpt>
      <trkpt lat="51.396155" lon="-0.291165"><ele>30.75</ele></trkpt>
      <trkpt lat="51.396207" lon="-0.291005"><ele>30.5</ele></trkpt>
      <trkpt lat="51.396385" lon="-0.290541"><ele>30</ele></trkpt>
      <trkpt lat="51.396558" lon="-0.289909"><ele>29.75</ele></trkpt>
      <trkpt lat="51.396897" lon="-0.288557"><ele>25.75</ele></trkpt>
      <trkpt lat="51.397149" lon="-0.287426"><ele>21.5</ele></trkpt>
      <trkpt lat="51.397329" lon="-0.286553"><ele>21</ele></trkpt>
      <trkpt lat="51.397482" lon="-0.285732"><ele>21</ele></trkpt>
      <trkpt lat="51.397609" lon="-0.284971"><ele>20</ele></trkpt>
      <trkpt lat="51.397774" lon="-0.283866"><ele>18</ele></trkpt>
      <trkpt lat="51.39779" lon="-0.283727"><ele>17.75</ele></trkpt>
      <trkpt lat="51.397873" lon="-0.282958"><ele>17.75</ele></trkpt>
      <trkpt lat="51.397905" lon="-0.28246"><ele>18</ele></trkpt>
      <trkpt lat="51.397893" lon="-0.281965"><ele>19</ele></trkpt>
      <trkpt lat="51.397877" lon="-0.281329"><ele>20</ele></trkpt>
      <trkpt lat="51.397859" lon="-0.280908"><ele>20.25</ele></trkpt>
      <trkpt lat="51.39785" lon="-0.280819"><ele>20.25</ele></trkpt>
      <trkpt lat="51.398188" lon="-0.280818"><ele>17.5</ele></trkpt>
      <trkpt lat="51.398283" lon="-0.280749"><ele>16.5</ele></trkpt>
      <trkpt lat="51.398757" lon="-0.280621"><ele>14.75</ele></trkpt>
      <trkpt lat="51.398874" lon="-0.280094"><ele>13</ele></trkpt>
      <trkpt lat="51.398804" lon="-0.280074"><ele>13.25</ele></trkpt>
      <trkpt lat="51.398689" lon="-0.280058"><ele>13.5</ele></trkpt>
      <trkpt lat="51.39852" lon="-0.280083"><ele>14.25</ele></trkpt>
      <trkpt lat="51.398218" lon="-0.280206"><ele>16.5</ele></trkpt>
      <trkpt lat="51.398193" lon="-0.280222"><ele>16.75</ele></trkpt>
      <trkpt lat="51.397914" lon="-0.280401"><ele>19.25</ele></trkpt>
      <trkpt lat="51.397888" lon="-0.280431"><ele>19.75</ele></trkpt>
      <trkpt lat="51.397862" lon="-0.280383"><ele>19.75</ele></trkpt>
      <trkpt lat="51.397834" lon="-0.280373"><ele>19.75</ele></trkpt>
      <trkpt lat="51.397811" lon="-0.280384"><ele>20</ele></trkpt>
      <trkpt lat="51.397797" lon="-0.280347"><ele>20</ele></trkpt>
      <trkpt lat="51.397794" lon="-0.280287"><ele>19.75</ele></trkpt>
      <trkpt lat="51.397745" lon="-0.279959"><ele>19.75</ele></trkpt>
      <trkpt lat="51.397673" lon="-0.279595"><ele>19</ele></trkpt>
      <trkpt lat="51.397597" lon="-0.27925"><ele>18.5</ele></trkpt>
      <trkpt lat="51.397405" lon="-0.278457"><ele>16.25</ele></trkpt>
      <trkpt lat="51.397177" lon="-0.277507"><ele>14</ele></trkpt>
      <trkpt lat="51.397125" lon="-0.277394"><ele>13.75</ele></trkpt>
      <trkpt lat="51.397144" lon="-0.277315"><ele>13.5</ele></trkpt>
      <trkpt lat="51.397127" lon="-0.277157"><ele>13.25</ele></trkpt>
      <trkpt lat="51.397101" lon="-0.277077"><ele>13.5</ele></trkpt>
      <trkpt lat="51.39708" lon="-0.277042"><ele>13.75</ele></trkpt>
      <trkpt lat="51.397086" lon="-0.276988"><ele>13.75</ele></trkpt>
      <trkpt lat="51.397113" lon="-0.276998"><ele>13.75</ele></trkpt>
      <trkpt lat="51.397122" lon="-0.276935"><ele>14</ele></trkpt>
      <trkpt lat="51.397101" lon="-0.276667"><ele>14</ele></trkpt>
      <trkpt lat="51.397114" lon="-0.276442"><ele>14</ele></trkpt>
      <trkpt lat="51.397143" lon="-0.276152"><ele>14</ele></trkpt>
      <trkpt lat="51.397148" lon="-0.276099"><ele>13.75</ele></trkpt>
      <trkpt lat="51.397152" lon="-0.276056"><ele>13.75</ele></trkpt>
      <trkpt lat="51.397155" lon="-0.276028"><ele>13.5</ele></trkpt>
      <trkpt lat="51.397164" lon="-0.275846"><ele>12.75</ele></trkpt>
      <trkpt lat="51.397163" lon="-0.275826"><ele>12.75</ele></trkpt>
      <trkpt lat="51.397163" lon="-0.27581"><ele>12.75</ele></trkpt>
      <trkpt lat="51.397244" lon="-0.275771"><ele>13</ele></trkpt>
      <trkpt lat="51.398081" lon="-0.274824"><ele>13</ele></trkpt>
      <trkpt lat="51.398763" lon="-0.274016"><ele>14</ele></trkpt>
      <trkpt lat="51.398777" lon="-0.273943"><ele>14</ele></trkpt>
      <trkpt lat="51.398897" lon="-0.274012"><ele>14</ele></trkpt>
      <trkpt lat="51.398924" lon="-0.273892"><ele>14</ele></trkpt>
      <trkpt lat="51.399066" lon="-0.273327"><ele>15</ele></trkpt>
      <trkpt lat="51.400067" lon="-0.268511"><ele>15.25</ele></trkpt>
      <trkpt lat="51.400232" lon="-0.268593"><ele>15</ele></trkpt>
      <trkpt lat="51.400465" lon="-0.268731"><ele>15</ele></trkpt>
      <trkpt lat="51.400542" lon="-0.26874"><ele>15</ele></trkpt>
      <trkpt lat="51.400634" lon="-0.268701"><ele>15</ele></trkpt>
      <trkpt lat="51.401428" lon="-0.267957"><ele>14.5</ele></trkpt>
      <trkpt lat="51.401474" lon="-0.26792"><ele>15.25</ele></trkpt>
      <trkpt lat="51.401515" lon="-0.267914"><ele>16</ele></trkpt>
      <trkpt lat="51.401535" lon="-0.267923"><ele>16.25</ele></trkpt>
      <trkpt lat="51.401745" lon="-0.268605"><ele>14.5</ele></trkpt>
      <trkpt lat="51.401757" lon="-0.268572"><ele>14.5</ele></trkpt>
      <trkpt lat="51.401757" lon="-0.268534"><ele>14.5</ele></trkpt>
      <trkpt lat="51.401734" lon="-0.26845"><ele>14.25</ele></trkpt>
      <trkpt lat="51.401698" lon="-0.268314"><ele>14.25</ele></trkpt>
      <trkpt lat="51.402206" lon="-0.265748"><ele>15.5</ele></trkpt>
      <trkpt lat="51.402231" lon="-0.265666"><ele>16</ele></trkpt>
      <trkpt lat="51.402274" lon="-0.265421"><ele>16</ele></trkpt>
      <trkpt lat="51.402287" lon="-0.265305"><ele>15.75</ele></trkpt>
      <trkpt lat="51.402354" lon="-0.265306"><ele>15.5</ele></trkpt>
      <trkpt lat="51.402393" lon="-0.265307"><ele>15.25</ele></trkpt>
      <trkpt lat="51.402459" lon="-0.265308"><ele>15</ele></trkpt>
      <trkpt lat="51.402486" lon="-0.265308"><ele>15</ele></trkpt>
      <trkpt lat="51.402549" lon="-0.265312"><ele>15</ele></trkpt>
      <trkpt lat="51.402553" lon="-0.265182"><ele>15</ele></trkpt>
      <trkpt lat="51.402571" lon="-0.264486"><ele>14.75</ele></trkpt>
      <trkpt lat="51.402568" lon="-0.264422"><ele>15</ele></trkpt>
      <trkpt lat="51.402569" lon="-0.264196"><ele>15.5</ele></trkpt>
      <trkpt lat="51.402615" lon="-0.263903"><ele>16.5</ele></trkpt>
      <trkpt lat="51.402848" lon="-0.26277"><ele>15.75</ele></trkpt>
      <trkpt lat="51.403563" lon="-0.259264"><ele>15.25</ele></trkpt>
      <trkpt lat="51.403889" lon="-0.257641"><ele>14.25</ele></trkpt>
      <trkpt lat="51.403918" lon="-0.257491"><ele>14.75</ele></trkpt>
      <trkpt lat="51.403931" lon="-0.257385"><ele>15.5</ele></trkpt>
      <trkpt lat="51.404002" lon="-0.257129"><ele>15</ele></trkpt>
      <trkpt lat="51.404017" lon="-0.257033"><ele>14.5</ele></trkpt>
      <trkpt lat="51.404033" lon="-0.256925"><ele>14</ele></trkpt>
      <trkpt lat="51.404046" lon="-0.256835"><ele>14.5</ele></trkpt>
      <trkpt lat="51.404169" lon="-0.256123"><ele>14.75</ele></trkpt>
      <trkpt lat="51.404181" lon="-0.256063"><ele>15.25</ele></trkpt>
      <trkpt lat="51.404181" lon="-0.256001"><ele>15.5</ele></trkpt>
      <trkpt lat="51.404417" lon="-0.255013"><ele>16.25</ele></trkpt>
      <trkpt lat="51.404616" lon="-0.254288"><ele>18.75</ele></trkpt>
      <trkpt lat="51.40472" lon="-0.253833"><ele>18.25</ele></trkpt>
      <trkpt lat="51.404867" lon="-0.253161"><ele>21.25</ele></trkpt>
      <trkpt lat="51.405264" lon="-0.251257"><ele>19</ele></trkpt>
      <trkpt lat="51.405279" lon="-0.251182"><ele>19</ele></trkpt>
      <trkpt lat="51.405344" lon="-0.250851"><ele>19.75</ele></trkpt>
      <trkpt lat="51.405446" lon="-0.250334"><ele>19.5</ele></trkpt>
      <trkpt lat="51.405479" lon="-0.250245"><ele>19.25</ele></trkpt>
      <trkpt lat="51.405484" lon="-0.250224"><ele>19.25</ele></trkpt>
      <trkpt lat="51.405512" lon="-0.250068"><ele>19</ele></trkpt>
      <trkpt lat="51.405516" lon="-0.249963"><ele>19</ele></trkpt>
      <trkpt lat="51.405593" lon="-0.249564"><ele>17.75</ele></trkpt>
      <trkpt lat="51.405633" lon="-0.249355"><ele>17.5</ele></trkpt>
      <trkpt lat="51.406096" lon="-0.247051"><ele>17.5</ele></trkpt>
      <trkpt lat="51.406526" lon="-0.244857"><ele>15</ele></trkpt>
      <trkpt lat="51.406744" lon="-0.24365"><ele>16.25</ele></trkpt>
      <trkpt lat="51.406944" lon="-0.242499"><ele>19</ele></trkpt>
      <trkpt lat="51.407037" lon="-0.241954"><ele>19.5</ele></trkpt>
      <trkpt lat="51.40731" lon="-0.240262"><ele>18</ele></trkpt>
      <trkpt lat="51.407338" lon="-0.240225"><ele>17.5</ele></trkpt>
      <trkpt lat="51.407348" lon="-0.240178"><ele>17.5</ele></trkpt>
      <trkpt lat="51.407367" lon="-0.240093"><ele>17.25</ele></trkpt>
      <trkpt lat="51.407371" lon="-0.240078"><ele>17.25</ele></trkpt>
      <trkpt lat="51.407444" lon="-0.2397"><ele>16.75</ele></trkpt>
      <trkpt lat="51.407709" lon="-0.238523"><ele>15.25</ele></trkpt>
      <trkpt lat="51.407782" lon="-0.2385"><ele>13.75</ele></trkpt>
      <trkpt lat="51.408136" lon="-0.238679"><ele>13</ele></trkpt>
      <trkpt lat="51.408179" lon="-0.238633"><ele>13</ele></trkpt>
      <trkpt lat="51.40832" lon="-0.238143"><ele>13</ele></trkpt>
      <trkpt lat="51.408383" lon="-0.238005"><ele>13</ele></trkpt>
      <trkpt lat="51.408401" lon="-0.237955"><ele>13</ele></trkpt>
      <trkpt lat="51.408482" lon="-0.237549"><ele>13</ele></trkpt>
      <trkpt lat="51.408853" lon="-0.235726"><ele>13</ele></trkpt>
      <trkpt lat="51.408885" lon="-0.235596"><ele>13</ele></trkpt>
      <trkpt lat="51.4089" lon="-0.235472"><ele>13</ele></trkpt>
      <trkpt lat="51.408887" lon="-0.23533"><ele>13</ele></trkpt>
      <trkpt lat="51.408875" lon="-0.234907"><ele>13.25</ele></trkpt>
      <trkpt lat="51.408831" lon="-0.23491"><ele>13.25</ele></trkpt>
      <trkpt lat="51.408828" lon="-0.234862"><ele>13.5</ele></trkpt>
      <trkpt lat="51.408813" lon="-0.234845"><ele>13.5</ele></trkpt>
      <trkpt lat="51.408643" lon="-0.234895"><ele>13.75</ele></trkpt>
      <trkpt lat="51.408634" lon="-0.23481"><ele>13.75</ele></trkpt>
      <trkpt lat="51.408627" lon="-0.234725"><ele>13.75</ele></trkpt>
      <trkpt lat="51.408564" lon="-0.234736"><ele>14.25</ele></trkpt>
      <trkpt lat="51.408587" lon="-0.234602"><ele>14</ele></trkpt>
      <trkpt lat="51.408593" lon="-0.234567"><ele>14</ele></trkpt>
      <trkpt lat="51.409161" lon="-0.233266"><ele>14</ele></trkpt>
      <trkpt lat="51.409181" lon="-0.233219"><ele>13.75</ele></trkpt>
      <trkpt lat="51.409186" lon="-0.233131"><ele>13.75</ele></trkpt>
      <trkpt lat="51.409365" lon="-0.232657"><ele>13.5</ele></trkpt>
      <trkpt lat="51.409409" lon="-0.232523"><ele>13.25</ele></trkpt>
      <trkpt lat="51.409398" lon="-0.232408"><ele>13.5</ele></trkpt>
      <trkpt lat="51.409386" lon="-0.232254"><ele>13.75</ele></trkpt>
      <trkpt lat="51.409382" lon="-0.232128"><ele>13.75</ele></trkpt>
      <trkpt lat="51.409413" lon="-0.230496"><ele>14.25</ele></trkpt>
      <trkpt lat="51.409402" lon="-0.230494"><ele>14.5</ele></trkpt>
      <trkpt lat="51.409348" lon="-0.230387"><ele>14.75</ele></trkpt>
      <trkpt lat="51.409307" lon="-0.23038"><ele>15.25</ele></trkpt>
      <trkpt lat="51.409202" lon="-0.230375"><ele>16.25</ele></trkpt>
      <trkpt lat="51.409228" lon="-0.230249"><ele>15.5</ele></trkpt>
      <trkpt lat="51.40921" lon="-0.230209"><ele>15.75</ele></trkpt>
      <trkpt lat="51.409212" lon="-0.230183"><ele>15.75</ele></trkpt>
      <trkpt lat="51.409217" lon="-0.230138"><ele>16</ele></trkpt>
      <trkpt lat="51.409303" lon="-0.230152"><ele>15</ele></trkpt>
      <trkpt lat="51.409411" lon="-0.230088"><ele>14.25</ele></trkpt>
      <trkpt lat="51.409438" lon="-0.230101"><ele>14</ele></trkpt>
      <trkpt lat="51.409452" lon="-0.230012"><ele>13.75</ele></trkpt>
      <trkpt lat="51.409488" lon="-0.229632"><ele>14.25</ele></trkpt>
      <trkpt lat="51.409599" lon="-0.228818"><ele>15</ele></trkpt>
      <trkpt lat="51.409597" lon="-0.22873"><ele>15</ele></trkpt>
      <trkpt lat="51.409588" lon="-0.228671"><ele>15</ele></trkpt>
      <trkpt lat="51.409598" lon="-0.228664"><ele>14.75</ele></trkpt>
      <trkpt lat="51.40961" lon="-0.228653"><ele>14.75</ele></trkpt>
      <trkpt lat="51.409637" lon="-0.228627"><ele>14.5</ele></trkpt>
      <trkpt lat="51.409663" lon="-0.228584"><ele>14.25</ele></trkpt>
      <trkpt lat="51.409764" lon="-0.228293"><ele>14</ele></trkpt>
      <trkpt lat="51.409743" lon="-0.228262"><ele>14</ele></trkpt>
      <trkpt lat="51.409729" lon="-0.228239"><ele>14.25</ele></trkpt>
      <trkpt lat="51.40972" lon="-0.228203"><ele>14.25</ele></trkpt>
      <trkpt lat="51.409865" lon="-0.227951"><ele>15</ele></trkpt>
      <trkpt lat="51.409886" lon="-0.227922"><ele>15</ele></trkpt>
      <trkpt lat="51.409876" lon="-0.227828"><ele>15.5</ele></trkpt>
      <trkpt lat="51.409902" lon="-0.227704"><ele>15.5</ele></trkpt>
      <trkpt lat="51.410112" lon="-0.226933"><ele>15</ele></trkpt>
      <trkpt lat="51.410336" lon="-0.226091"><ele>14.75</ele></trkpt>
      <trkpt lat="51.410539" lon="-0.225332"><ele>15</ele></trkpt>
      <trkpt lat="51.410563" lon="-0.225285"><ele>15</ele></trkpt>
      <trkpt lat="51.410549" lon="-0.22519"><ele>15.25</ele></trkpt>
      <trkpt lat="51.410775" lon="-0.224426"><ele>15.75</ele></trkpt>
      <trkpt lat="51.41122" lon="-0.223231"><ele>16.75</ele></trkpt>
      <trkpt lat="51.411476" lon="-0.222591"><ele>16.75</ele></trkpt>
      <trkpt lat="51.411503" lon="-0.222523"><ele>17</ele></trkpt>
      <trkpt lat="51.41182" lon="-0.221539"><ele>17.25</ele></trkpt>
      <trkpt lat="51.412" lon="-0.221101"><ele>18.25</ele></trkpt>
      <trkpt lat="51.412287" lon="-0.220503"><ele>18.25</ele></trkpt>
      <trkpt lat="51.412785" lon="-0.219566"><ele>16.5</ele></trkpt>
      <trkpt lat="51.412833" lon="-0.219508"><ele>16.5</ele></trkpt>
      <trkpt lat="51.412857" lon="-0.219462"><ele>16.5</ele></trkpt>
      <trkpt lat="51.412918" lon="-0.219316"><ele>17</ele></trkpt>
      <trkpt lat="51.413329" lon="-0.218614"><ele>18</ele></trkpt>
      <trkpt lat="51.413721" lon="-0.217977"><ele>18.25</ele></trkpt>
      <trkpt lat="51.414256" lon="-0.217144"><ele>18.5</ele></trkpt>
      <trkpt lat="51.414296" lon="-0.217077"><ele>18.5</ele></trkpt>
      <trkpt lat="51.414738" lon="-0.216346"><ele>19</ele></trkpt>
      <trkpt lat="51.415277" lon="-0.215518"><ele>18.75</ele></trkpt>
      <trkpt lat="51.415788" lon="-0.21483"><ele>19.25</ele></trkpt>
      <trkpt lat="51.416145" lon="-0.214282"><ele>19.25</ele></trkpt>
      <trkpt lat="51.416472" lon="-0.213812"><ele>19.75</ele></trkpt>
      <trkpt lat="51.416635" lon="-0.213519"><ele>20</ele></trkpt>
      <trkpt lat="51.416884" lon="-0.213156"><ele>19.75</ele></trkpt>
      <trkpt lat="51.417515" lon="-0.212237"><ele>20</ele></trkpt>
      <trkpt lat="51.418605" lon="-0.210597"><ele>21.75</ele></trkpt>
      <trkpt lat="51.419039" lon="-0.209954"><ele>20.75</ele></trkpt>
      <trkpt lat="51.419424" lon="-0.209351"><ele>21</ele></trkpt>
      <trkpt lat="51.419811" lon="-0.208781"><ele>20.25</ele></trkpt>
      <trkpt lat="51.420188" lon="-0.208223"><ele>19.75</ele></trkpt>
      <trkpt lat="51.420147" lon="-0.208148"><ele>19.5</ele></trkpt>
      <trkpt lat="51.420158" lon="-0.208131"><ele>19.5</ele></trkpt>
      <trkpt lat="51.420717" lon="-0.207312"><ele>22</ele></trkpt>
      <trkpt lat="51.420764" lon="-0.207316"><ele>22.25</ele></trkpt>
      <trkpt lat="51.42091" lon="-0.207113"><ele>23.25</ele></trkpt>
      <trkpt lat="51.420976" lon="-0.207227"><ele>22.75</ele></trkpt>
      <trkpt lat="51.421012" lon="-0.207175"><ele>23</ele></trkpt>
      <trkpt lat="51.421058" lon="-0.207116"><ele>23.25</ele></trkpt>
      <trkpt lat="51.421097" lon="-0.207068"><ele>23.5</ele></trkpt>
      <trkpt lat="51.421167" lon="-0.207196"><ele>23</ele></trkpt>
      <trkpt lat="51.421186" lon="-0.207171"><ele>23</ele></trkpt>
      <trkpt lat="51.421303" lon="-0.20698"><ele>22.5</ele></trkpt>
      <trkpt lat="51.421274" lon="-0.206829"><ele>21.75</ele></trkpt>
      <trkpt lat="51.421289" lon="-0.206826"><ele>21.5</ele></trkpt>
      <trkpt lat="51.421301" lon="-0.206827"><ele>21.5</ele></trkpt>
      <trkpt lat="51.421319" lon="-0.206902"><ele>22</ele></trkpt>
      <trkpt lat="51.421356" lon="-0.206891"><ele>21.75</ele></trkpt>
      <trkpt lat="51.421346" lon="-0.206873"><ele>21.75</ele></trkpt>
      <trkpt lat="51.421257" lon="-0.206718"><ele>20.75</ele></trkpt>
      <trkpt lat="51.421334" lon="-0.206608"><ele>20</ele></trkpt>
      <trkpt lat="51.421328" lon="-0.206545"><ele>20</ele></trkpt>
      <trkpt lat="51.421321" lon="-0.206486"><ele>19.75</ele></trkpt>
      <trkpt lat="51.421247" lon="-0.206357"><ele>19.25</ele></trkpt>
      <trkpt lat="51.421242" lon="-0.206349"><ele>19</ele></trkpt>
    </trkseg>
  </trk>
</gpx>
