<?xml version="1.0" encoding="UTF-8"?>
<gpx version="1.1" creator="TubeRun route generator" xmlns="http://www.topografix.com/GPX/1/1">
  <metadata>
    <name>Waterloo &amp; City line — TubeRun</name>
    <desc>Above-ground running route tracing the Waterloo &amp; City line, station to station. Routed on pavements and footways from OpenStreetMap data (BRouter, hiking-beta).</desc>
    <author><name>TubeRun</name></author>
    <copyright author="OpenStreetMap contributors"><license>https://opendatacommons.org/licenses/odbl/1-0/</license></copyright>
    <link href="https://www.openstreetmap.org/copyright"><text>© OpenStreetMap contributors</text></link>
    <time>2026-07-05T08:28:35.531Z</time>
  </metadata>
  <wpt lat="51.503299" lon="-0.11478"><name>Waterloo</name></wpt>
  <wpt lat="51.513356" lon="-0.088899"><name>Bank</name></wpt>
  <trk>
    <name>Waterloo &amp; City line</name>
    <trkseg>
      <trkpt lat="51.5033" lon="-0.114783"><ele>3.75</ele></trkpt>
      <trkpt lat="51.503314" lon="-0.114738"><ele>3.75</ele></trkpt>
      <trkpt lat="51.503361" lon="-0.114562"><ele>4.25</ele></trkpt>
      <trkpt lat="51.50342" lon="-0.114325"><ele>4.25</ele></trkpt>
      <trkpt lat="51.503473" lon="-0.11417"><ele>4.25</ele></trkpt>
      <trkpt lat="51.50353" lon="-0.114095"><ele>4.25</ele></trkpt>
      <trkpt lat="51.503256" lon="-0.113789"><ele>4.5</ele></trkpt>
      <trkpt lat="51.5032" lon="-0.113863"><ele>4.5</ele></trkpt>
      <trkpt lat="51.503192" lon="-0.113845"><ele>4.5</ele></trkpt>
      <trkpt lat="51.503146" lon="-0.113742"><ele>4.75</ele></trkpt>
      <trkpt lat="51.50326" lon="-0.1136"><ele>5</ele></trkpt>
      <trkpt lat="51.503348" lon="-0.113484"><ele>5</ele></trkpt>
      <trkpt lat="51.503366" lon="-0.113459"><ele>5</ele></trkpt>
      <trkpt lat="51.503427" lon="-0.113378"><ele>5.25</ele></trkpt>
      <trkpt lat="51.503438" lon="-0.113414"><ele>5.25</ele></trkpt>
      <trkpt lat="51.503582" lon="-0.113333"><ele>5.75</ele></trkpt>
      <trkpt lat="51.503728" lon="-0.113287"><ele>5.75</ele></trkpt>
      <trkpt lat="51.503915" lon="-0.113155"><ele>5.75</ele></trkpt>
      <trkpt lat="51.503963" lon="-0.11312"><ele>5.75</ele></trkpt>
      <trkpt lat="51.50405" lon="-0.113527"><ele>5.75</ele></trkpt>
      <trkpt lat="51.504228" lon="-0.113281"><ele>5</ele></trkpt>
      <trkpt lat="51.504236" lon="-0.113315"><ele>5</ele></trkpt>
      <trkpt lat="51.504289" lon="-0.113292"><ele>5</ele></trkpt>
      <trkpt lat="51.50433" lon="-0.113272"><ele>5</ele></trkpt>
      <trkpt lat="51.504361" lon="-0.113256"><ele>5</ele></trkpt>
      <trkpt lat="51.504373" lon="-0.11325"><ele>5</ele></trkpt>
      <trkpt lat="51.504394" lon="-0.113241"><ele>5</ele></trkpt>
      <trkpt lat="51.50439" lon="-0.113221"><ele>5</ele></trkpt>
      <trkpt lat="51.504386" lon="-0.113196"><ele>5</ele></trkpt>
      <trkpt lat="51.504381" lon="-0.113164"><ele>5</ele></trkpt>
      <trkpt lat="51.504399" lon="-0.113156"><ele>5</ele></trkpt>
      <trkpt lat="51.504431" lon="-0.113142"><ele>5</ele></trkpt>
      <trkpt lat="51.504463" lon="-0.11313"><ele>4.75</ele></trkpt>
      <trkpt lat="51.504493" lon="-0.113109"><ele>4.75</ele></trkpt>
      <trkpt lat="51.504502" lon="-0.113074"><ele>4.75</ele></trkpt>
      <trkpt lat="51.504513" lon="-0.113031"><ele>5</ele></trkpt>
      <trkpt lat="51.504523" lon="-0.112993"><ele>5</ele></trkpt>
      <trkpt lat="51.504544" lon="-0.113017"><ele>5</ele></trkpt>
      <trkpt lat="51.504571" lon="-0.112909"><ele>5</ele></trkpt>
      <trkpt lat="51.504654" lon="-0.112923"><ele>5</ele></trkpt>
      <trkpt lat="51.504766" lon="-0.112915"><ele>5</ele></trkpt>
      <trkpt lat="51.504824" lon="-0.11291"><ele>5.25</ele></trkpt>
      <trkpt lat="51.504859" lon="-0.112971"><ele>5.25</ele></trkpt>
      <trkpt lat="51.504859" lon="-0.112993"><ele>5.25</ele></trkpt>
      <trkpt lat="51.504917" lon="-0.112995"><ele>5.5</ele></trkpt>
      <trkpt lat="51.505016" lon="-0.113004"><ele>5.75</ele></trkpt>
      <trkpt lat="51.505044" lon="-0.112974"><ele>5.75</ele></trkpt>
      <trkpt lat="51.505079" lon="-0.112884"><ele>5.75</ele></trkpt>
      <trkpt lat="51.505348" lon="-0.112164"><ele>5.5</ele></trkpt>
      <trkpt lat="51.505613" lon="-0.111469"><ele>5</ele></trkpt>
      <trkpt lat="51.505634" lon="-0.111408"><ele>5</ele></trkpt>
      <trkpt lat="51.505636" lon="-0.111379"><ele>4.75</ele></trkpt>
      <trkpt lat="51.505648" lon="-0.111354"><ele>4.75</ele></trkpt>
      <trkpt lat="51.505666" lon="-0.111303"><ele>4.75</ele></trkpt>
      <trkpt lat="51.505681" lon="-0.111257"><ele>4.5</ele></trkpt>
      <trkpt lat="51.505686" lon="-0.111245"><ele>4.5</ele></trkpt>
      <trkpt lat="51.505701" lon="-0.111241"><ele>4.5</ele></trkpt>
      <trkpt lat="51.505712" lon="-0.111225"><ele>4.5</ele></trkpt>
      <trkpt lat="51.505744" lon="-0.111132"><ele>4.5</ele></trkpt>
      <trkpt lat="51.505754" lon="-0.111105"><ele>4.5</ele></trkpt>
      <trkpt lat="51.506137" lon="-0.110103"><ele>4.5</ele></trkpt>
      <trkpt lat="51.50616" lon="-0.110039"><ele>4.75</ele></trkpt>
      <trkpt lat="51.506174" lon="-0.109997"><ele>4.75</ele></trkpt>
      <trkpt lat="51.506178" lon="-0.109984"><ele>4.75</ele></trkpt>
      <trkpt lat="51.506359" lon="-0.109484"><ele>4</ele></trkpt>
      <trkpt lat="51.506604" lon="-0.108864"><ele>4.25</ele></trkpt>
      <trkpt lat="51.506608" lon="-0.108843"><ele>4.25</ele></trkpt>
      <trkpt lat="51.506612" lon="-0.108838"><ele>4.25</ele></trkpt>
      <trkpt lat="51.506634" lon="-0.10878"><ele>4.25</ele></trkpt>
      <trkpt lat="51.506649" lon="-0.108747"><ele>4.25</ele></trkpt>
      <trkpt lat="51.506652" lon="-0.108731"><ele>4.25</ele></trkpt>
      <trkpt lat="51.506678" lon="-0.108654"><ele>4</ele></trkpt>
      <trkpt lat="51.506808" lon="-0.108275"><ele>3.25</ele></trkpt>
      <trkpt lat="51.506874" lon="-0.108123"><ele>3.5</ele></trkpt>
      <trkpt lat="51.506938" lon="-0.107895"><ele>3.75</ele></trkpt>
      <trkpt lat="51.50699" lon="-0.107595"><ele>4</ele></trkpt>
      <trkpt lat="51.50701" lon="-0.107428"><ele>4</ele></trkpt>
      <trkpt lat="51.50701" lon="-0.107348"><ele>4</ele></trkpt>
      <trkpt lat="51.507016" lon="-0.107302"><ele>4.25</ele></trkpt>
      <trkpt lat="51.507019" lon="-0.107275"><ele>4.25</ele></trkpt>
      <trkpt lat="51.507021" lon="-0.107267"><ele>4.25</ele></trkpt>
      <trkpt lat="51.507028" lon="-0.107212"><ele>4.25</ele></trkpt>
      <trkpt lat="51.507072" lon="-0.106973"><ele>4.25</ele></trkpt>
      <trkpt lat="51.507097" lon="-0.106761"><ele>4.25</ele></trkpt>
      <trkpt lat="51.507114" lon="-0.106188"><ele>4.5</ele></trkpt>
      <trkpt lat="51.507115" lon="-0.106176"><ele>4.5</ele></trkpt>
      <trkpt lat="51.507116" lon="-0.106144"><ele>4.5</ele></trkpt>
      <trkpt lat="51.507117" lon="-0.106093"><ele>4.5</ele></trkpt>
      <trkpt lat="51.507117" lon="-0.106086"><ele>4.5</ele></trkpt>
      <trkpt lat="51.507115" lon="-0.105863"><ele>4.5</ele></trkpt>
      <trkpt lat="51.507123" lon="-0.105861"><ele>4.5</ele></trkpt>
      <trkpt lat="51.507159" lon="-0.105858"><ele>4.75</ele></trkpt>
      <trkpt lat="51.507201" lon="-0.105855"><ele>4.75</ele></trkpt>
      <trkpt lat="51.507232" lon="-0.105851"><ele>4.75</ele></trkpt>
      <trkpt lat="51.50723" lon="-0.105604"><ele>4.75</ele></trkpt>
      <trkpt lat="51.50723" lon="-0.105596"><ele>5</ele></trkpt>
      <trkpt lat="51.507229" lon="-0.105548"><ele>5</ele></trkpt>
      <trkpt lat="51.507228" lon="-0.105496"><ele>5</ele></trkpt>
      <trkpt lat="51.507226" lon="-0.105434"><ele>4.75</ele></trkpt>
      <trkpt lat="51.507224" lon="-0.10534"><ele>5</ele></trkpt>
      <trkpt lat="51.507247" lon="-0.105334"><ele>4.75</ele></trkpt>
      <trkpt lat="51.507554" lon="-0.105092"><ele>5</ele></trkpt>
      <trkpt lat="51.507642" lon="-0.105015"><ele>5.25</ele></trkpt>
      <trkpt lat="51.507639" lon="-0.104974"><ele>5.5</ele></trkpt>
      <trkpt lat="51.507658" lon="-0.104958"><ele>5.5</ele></trkpt>
      <trkpt lat="51.507679" lon="-0.10497"><ele>5.5</ele></trkpt>
      <trkpt lat="51.507712" lon="-0.104912"><ele>5.75</ele></trkpt>
      <trkpt lat="51.507725" lon="-0.104888"><ele>5.75</ele></trkpt>
      <trkpt lat="51.507707" lon="-0.104816"><ele>5.75</ele></trkpt>
      <trkpt lat="51.507871" lon="-0.104551"><ele>6.25</ele></trkpt>
      <trkpt lat="51.508072" lon="-0.10456"><ele>7</ele></trkpt>
      <trkpt lat="51.508081" lon="-0.104561"><ele>7</ele></trkpt>
      <trkpt lat="51.508112" lon="-0.10456"><ele>7</ele></trkpt>
      <trkpt lat="51.508123" lon="-0.104561"><ele>7</ele></trkpt>
      <trkpt lat="51.508137" lon="-0.10456"><ele>7</ele></trkpt>
      <trkpt lat="51.508171" lon="-0.104553"><ele>7.25</ele></trkpt>
      <trkpt lat="51.508171" lon="-0.104526"><ele>7.25</ele></trkpt>
      <trkpt lat="51.508171" lon="-0.104489"><ele>7.25</ele></trkpt>
      <trkpt lat="51.508171" lon="-0.104442"><ele>7.25</ele></trkpt>
      <trkpt lat="51.508172" lon="-0.104427"><ele>7.25</ele></trkpt>
      <trkpt lat="51.508172" lon="-0.104414"><ele>7.25</ele></trkpt>
      <trkpt lat="51.508172" lon="-0.104353"><ele>7</ele></trkpt>
      <trkpt lat="51.508173" lon="-0.104283"><ele>7</ele></trkpt>
      <trkpt lat="51.508173" lon="-0.104246"><ele>7</ele></trkpt>
      <trkpt lat="51.508408" lon="-0.104235"><ele>6.75</ele></trkpt>
      <trkpt lat="51.508486" lon="-0.104234"><ele>6.5</ele></trkpt>
      <trkpt lat="51.508597" lon="-0.10423"><ele>6.5</ele></trkpt>
      <trkpt lat="51.510521" lon="-0.104165"><ele>4.5</ele></trkpt>
      <trkpt lat="51.510944" lon="-0.104145"><ele>4</ele></trkpt>
      <trkpt lat="51.510939" lon="-0.104003"><ele>4</ele></trkpt>
      <trkpt lat="51.510939" lon="-0.103982"><ele>4</ele></trkpt>
      <trkpt lat="51.510936" lon="-0.10381"><ele>3.75</ele></trkpt>
      <trkpt lat="51.510911" lon="-0.103684"><ele>4</ele></trkpt>
      <trkpt lat="51.51089" lon="-0.103649"><ele>4</ele></trkpt>
      <trkpt lat="51.510873" lon="-0.103635"><ele>4</ele></trkpt>
      <trkpt lat="51.510872" lon="-0.103477"><ele>3.75</ele></trkpt>
      <trkpt lat="51.510874" lon="-0.10286"><ele>3</ele></trkpt>
      <trkpt lat="51.510873" lon="-0.102734"><ele>3</ele></trkpt>
      <trkpt lat="51.510872" lon="-0.102255"><ele>4</ele></trkpt>
      <trkpt lat="51.510869" lon="-0.100578"><ele>4</ele></trkpt>
      <trkpt lat="51.510854" lon="-0.100276"><ele>4</ele></trkpt>
      <trkpt lat="51.510888" lon="-0.100249"><ele>4</ele></trkpt>
      <trkpt lat="51.510893" lon="-0.100226"><ele>4</ele></trkpt>
      <trkpt lat="51.510976" lon="-0.100037"><ele>4.5</ele></trkpt>
      <trkpt lat="51.510995" lon="-0.100035"><ele>4.75</ele></trkpt>
      <trkpt lat="51.511109" lon="-0.099844"><ele>5.25</ele></trkpt>
      <trkpt lat="51.511184" lon="-0.099764"><ele>5.75</ele></trkpt>
      <trkpt lat="51.511327" lon="-0.099665"><ele>6.25</ele></trkpt>
      <trkpt lat="51.511431" lon="-0.099626"><ele>6.75</ele></trkpt>
      <trkpt lat="51.511627" lon="-0.099609"><ele>7.5</ele></trkpt>
      <trkpt lat="51.511702" lon="-0.099593"><ele>8</ele></trkpt>
      <trkpt lat="51.511767" lon="-0.099553"><ele>8.25</ele></trkpt>
      <trkpt lat="51.511832" lon="-0.099468"><ele>8.5</ele></trkpt>
      <trkpt lat="51.511874" lon="-0.099358"><ele>9</ele></trkpt>
      <trkpt lat="51.511892" lon="-0.099271"><ele>9</ele></trkpt>
      <trkpt lat="51.511891" lon="-0.099196"><ele>9.25</ele></trkpt>
      <trkpt lat="51.511888" lon="-0.099162"><ele>9.25</ele></trkpt>
      <trkpt lat="51.511867" lon="-0.098849"><ele>10</ele></trkpt>
      <trkpt lat="51.511896" lon="-0.098676"><ele>10.5</ele></trkpt>
      <trkpt lat="51.511872" lon="-0.098349"><ele>10.75</ele></trkpt>
      <trkpt lat="51.511899" lon="-0.098346"><ele>10.75</ele></trkpt>
      <trkpt lat="51.511938" lon="-0.09834"><ele>10.75</ele></trkpt>
      <trkpt lat="51.511978" lon="-0.098333"><ele>11</ele></trkpt>
      <trkpt lat="51.511983" lon="-0.098333"><ele>11</ele></trkpt>
      <trkpt lat="51.512008" lon="-0.098331"><ele>11</ele></trkpt>
      <trkpt lat="51.512" lon="-0.098032"><ele>11.25</ele></trkpt>
      <trkpt lat="51.511999" lon="-0.097965"><ele>11.25</ele></trkpt>
      <trkpt lat="51.511998" lon="-0.097952"><ele>11.25</ele></trkpt>
      <trkpt lat="51.511998" lon="-0.097939"><ele>11.5</ele></trkpt>
      <trkpt lat="51.511995" lon="-0.097847"><ele>11.75</ele></trkpt>
      <trkpt lat="51.511981" lon="-0.09719"><ele>12</ele></trkpt>
      <trkpt lat="51.511978" lon="-0.096976"><ele>12.75</ele></trkpt>
      <trkpt lat="51.511982" lon="-0.096653"><ele>13</ele></trkpt>
      <trkpt lat="51.512" lon="-0.096393"><ele>13.25</ele></trkpt>
      <trkpt lat="51.512038" lon="-0.096044"><ele>14.25</ele></trkpt>
      <trkpt lat="51.512046" lon="-0.095994"><ele>14</ele></trkpt>
      <trkpt lat="51.512059" lon="-0.09596"><ele>14</ele></trkpt>
      <trkpt lat="51.512082" lon="-0.09594"><ele>14</ele></trkpt>
      <trkpt lat="51.51211" lon="-0.095932"><ele>14</ele></trkpt>
      <trkpt lat="51.512111" lon="-0.095885"><ele>14</ele></trkpt>
      <trkpt lat="51.512112" lon="-0.095824"><ele>14</ele></trkpt>
      <trkpt lat="51.512114" lon="-0.095721"><ele>14</ele></trkpt>
      <trkpt lat="51.512116" lon="-0.095692"><ele>14</ele></trkpt>
      <trkpt lat="51.512105" lon="-0.09564"><ele>14</ele></trkpt>
      <trkpt lat="51.512126" lon="-0.09547"><ele>14</ele></trkpt>
      <trkpt lat="51.512129" lon="-0.095452"><ele>14</ele></trkpt>
      <trkpt lat="51.51214" lon="-0.095392"><ele>14</ele></trkpt>
      <trkpt lat="51.512148" lon="-0.095344"><ele>14</ele></trkpt>
      <trkpt lat="51.512155" lon="-0.095317"><ele>14</ele></trkpt>
      <trkpt lat="51.512176" lon="-0.095232"><ele>14</ele></trkpt>
      <trkpt lat="51.51235" lon="-0.094353"><ele>14.25</ele></trkpt>
      <trkpt lat="51.512377" lon="-0.094205"><ele>14</ele></trkpt>
      <trkpt lat="51.512402" lon="-0.094201"><ele>14</ele></trkpt>
      <trkpt lat="51.512413" lon="-0.094195"><ele>14</ele></trkpt>
      <trkpt lat="51.512436" lon="-0.094187"><ele>14</ele></trkpt>
      <trkpt lat="51.512457" lon="-0.094179"><ele>14</ele></trkpt>
      <trkpt lat="51.512472" lon="-0.094174"><ele>14</ele></trkpt>
      <trkpt lat="51.512452" lon="-0.094035"><ele>14</ele></trkpt>
      <trkpt lat="51.512463" lon="-0.094031"><ele>14</ele></trkpt>
      <trkpt lat="51.512487" lon="-0.094023"><ele>14</ele></trkpt>
      <trkpt lat="51.512513" lon="-0.094013"><ele>14</ele></trkpt>
      <trkpt lat="51.512536" lon="-0.094004"><ele>14</ele></trkpt>
      <trkpt lat="51.512503" lon="-0.093773"><ele>14</ele></trkpt>
      <trkpt lat="51.512502" lon="-0.093721"><ele>14</ele></trkpt>
      <trkpt lat="51.512503" lon="-0.093669"><ele>14</ele></trkpt>
      <trkpt lat="51.512559" lon="-0.093331"><ele>14</ele></trkpt>
      <trkpt lat="51.512581" lon="-0.093212"><ele>14</ele></trkpt>
      <trkpt lat="51.512683" lon="-0.092741"><ele>13.5</ele></trkpt>
      <trkpt lat="51.512711" lon="-0.092676"><ele>13.25</ele></trkpt>
      <trkpt lat="51.512734" lon="-0.092656"><ele>13.25</ele></trkpt>
      <trkpt lat="51.512746" lon="-0.092644"><ele>13.25</ele></trkpt>
      <trkpt lat="51.512761" lon="-0.092629"><ele>13.25</ele></trkpt>
      <trkpt lat="51.51282" lon="-0.09257"><ele>13.25</ele></trkpt>
      <trkpt lat="51.512817" lon="-0.092542"><ele>13.25</ele></trkpt>
      <trkpt lat="51.512812" lon="-0.092481"><ele>13</ele></trkpt>
      <trkpt lat="51.512806" lon="-0.09241"><ele>13</ele></trkpt>
      <trkpt lat="51.512803" lon="-0.092385"><ele>13</ele></trkpt>
      <trkpt lat="51.512785" lon="-0.092339"><ele>13</ele></trkpt>
      <trkpt lat="51.512786" lon="-0.092316"><ele>13</ele></trkpt>
      <trkpt lat="51.512959" lon="-0.091582"><ele>12.25</ele></trkpt>
      <trkpt lat="51.512977" lon="-0.091532"><ele>12.25</ele></trkpt>
      <trkpt lat="51.512983" lon="-0.091501"><ele>12.25</ele></trkpt>
      <trkpt lat="51.512993" lon="-0.091448"><ele>12</ele></trkpt>
      <trkpt lat="51.513001" lon="-0.091402"><ele>12</ele></trkpt>
      <trkpt lat="51.513006" lon="-0.091379"><ele>11.75</ele></trkpt>
      <trkpt lat="51.513154" lon="-0.09077"><ele>12.25</ele></trkpt>
      <trkpt lat="51.513141" lon="-0.090764"><ele>12.25</ele></trkpt>
      <trkpt lat="51.513078" lon="-0.09073"><ele>12</ele></trkpt>
      <trkpt lat="51.513033" lon="-0.090703"><ele>11.5</ele></trkpt>
      <trkpt lat="51.513014" lon="-0.090691"><ele>11.25</ele></trkpt>
      <trkpt lat="51.513038" lon="-0.090588"><ele>11.75</ele></trkpt>
      <trkpt lat="51.512955" lon="-0.090553"><ele>11.25</ele></trkpt>
      <trkpt lat="51.512842" lon="-0.090164"><ele>12</ele></trkpt>
      <trkpt lat="51.512833" lon="-0.090134"><ele>12</ele></trkpt>
      <trkpt lat="51.51281" lon="-0.090067"><ele>12</ele></trkpt>
      <trkpt lat="51.512802" lon="-0.090048"><ele>12</ele></trkpt>
      <trkpt lat="51.512795" lon="-0.09002"><ele>12</ele></trkpt>
      <trkpt lat="51.512833" lon="-0.089919"><ele>12</ele></trkpt>
      <trkpt lat="51.512861" lon="-0.089868"><ele>12.25</ele></trkpt>
      <trkpt lat="51.512978" lon="-0.089785"><ele>12</ele></trkpt>
      <trkpt lat="51.512955" lon="-0.089578"/>
      <trkpt lat="51.512943" lon="-0.089366"/>
      <trkpt lat="51.512956" lon="-0.089142"/>
      <trkpt lat="51.512974" lon="-0.089053"/>
      <trkpt lat="51.513022" lon="-0.088904"/>
      <trkpt lat="51.51301" lon="-0.088893"/>
      <trkpt lat="51.512998" lon="-0.088883"/>
      <trkpt lat="51.512977" lon="-0.088889"/>
      <trkpt lat="51.512862" lon="-0.088791"/>
      <trkpt lat="51.512851" lon="-0.088759"/>
      <trkpt lat="51.512699" lon="-0.088631"/>
      <trkpt lat="51.512788" lon="-0.088339"/>
      <trkpt lat="51.513307" lon="-0.088745"/>
      <trkpt lat="51.513361" lon="-0.088787"/>
      <trkpt lat="51.513353" lon="-0.088859"/>
      <trkpt lat="51.513369" lon="-0.088867"/>
      <trkpt lat="51.513377" lon="-0.088884"/>
      <trkpt lat="51.513375" lon="-0.088898"/>
      <trkpt lat="51.513364" lon="-0.088907"/>
    </trkseg>
  </trk>
</gpx>
