{"type":"FeatureCollection","features":[{"type":"Feature","properties":{"line":"chiltern-railways","name":"Chiltern Railways","colour":"#00BFFF"},"geometry":{"type":"MultiLineString","coordinates":[[[-0.86018,51.83116],[-0.8151,51.81389],[-0.78409,51.7878],[-0.74737,51.76176],[-0.70914,51.70352],[-0.6076,51.67421],[-0.56053,51.66811],[-0.51832,51.65425],[-0.47328,51.64025],[-0.33722,51.57919],[-0.16291,51.52252]],[[-0.84388,51.71786],[-0.94214,51.77086],[-1.14876,51.89302]],[[-0.8151,51.81389],[-0.80845,51.75223],[-0.82933,51.73576],[-0.84388,51.71786]],[[-0.94214,51.77086],[-0.84388,51.71786],[-0.82547,51.6759],[-0.74541,51.62959],[-0.64382,51.61129],[-0.60782,51.60985],[-0.55527,51.58902],[-0.51779,51.5806],[-0.49744,51.57884],[-0.43777,51.56976],[-0.39926,51.55692],[-0.35947,51.55754],[-0.3358,51.55847],[-0.31547,51.5544],[-0.28561,51.55442],[-0.16291,51.52252]],[[-0.94214,51.77086],[-0.84388,51.71786],[-0.82547,51.6759],[-0.74541,51.62959],[-0.64382,51.61129],[-0.60782,51.60985],[-0.55527,51.58902],[-0.51779,51.5806],[-0.49744,51.57884],[-0.43777,51.56976],[-0.39926,51.55692],[-0.35947,51.55754],[-0.3358,51.55847],[-0.31547,51.5544],[-0.28561,51.55442],[-0.16291,51.52252]],[[-1.14876,51.89302],[-0.94214,51.77086],[-0.84388,51.71786],[-0.82547,51.6759],[-0.74541,51.62959],[-0.64382,51.61129],[-0.60782,51.60985],[-0.55527,51.58902],[-0.51779,51.5806],[-0.49744,51.57884],[-0.43777,51.56976],[-0.39926,51.55692],[-0.35947,51.55754],[-0.3358,51.55847],[-0.31547,51.5544],[-0.28561,51.55442],[-0.16291,51.52252]],[[-1.14876,51.89302],[-0.94214,51.77086],[-0.84388,51.71786],[-0.82547,51.6759],[-0.74541,51.62959],[-0.64382,51.61129],[-0.60782,51.60985],[-0.55527,51.58902],[-0.51779,51.5806],[-0.49744,51.57884],[-0.43777,51.56976],[-0.39926,51.55692],[-0.35947,51.55754],[-0.3358,51.55847],[-0.31547,51.5544],[-0.28561,51.55442],[-0.16291,51.52252]],[[-0.8151,51.81389],[-0.80845,51.75223],[-0.82933,51.73576],[-0.84388,51.71786],[-0.82547,51.6759],[-0.74541,51.62959],[-0.64382,51.61129],[-0.60782,51.60985],[-0.55527,51.58902],[-0.51779,51.5806],[-0.49744,51.57884],[-0.43777,51.56976],[-0.39926,51.55692],[-0.35947,51.55754],[-0.3358,51.55847],[-0.31547,51.5544],[-0.28561,51.55442],[-0.16291,51.52252]]]}},{"type":"Feature","properties":{"line":"thameslink","name":"Thameslink","colour":"#E9438D"},"geometry":{"type":"MultiLineString","coordinates":[[[-0.14128,50.82901],[-0.15517,50.84594],[-0.14595,50.92462],[-0.12079,50.9643],[-0.10508,51.00568],[-0.13693,51.05552],[-0.16118,51.11692],[-0.16105,51.16878],[-0.16249,51.20175],[-0.17082,51.22733],[-0.1659,51.2402],[-0.15023,51.26415],[-0.13789,51.31584],[-0.11403,51.33758],[-0.09346,51.36297],[-0.09278,51.37545],[-0.0883,51.39193],[-0.10229,51.45331],[-0.09872,51.49403],[-0.1052,51.52017],[-0.12734,51.53217],[-0.14036,51.5505],[-0.19184,51.54848],[-0.21268,51.55845],[-0.22549,51.56843],[-0.23867,51.58007],[-0.24924,51.61309],[-0.28008,51.65307],[-0.31724,51.68519],[-0.32754,51.75047],[-0.35148,51.81465],[-0.39588,51.87244],[-0.41404,51.88231],[-0.4585,51.90516]],[[-0.31927,51.06607],[-0.30798,51.07975],[-0.26302,51.09589],[-0.21477,51.11562],[-0.18667,51.11221],[-0.16118,51.11692],[-0.16105,51.16878],[-0.16249,51.20175],[-0.17082,51.22733],[-0.1659,51.2402],[-0.15023,51.26415],[-0.13789,51.31584],[-0.11403,51.33758],[-0.09346,51.36297],[-0.09278,51.37545],[-0.07522,51.39702],[-0.08609,51.50502],[-0.10333,51.51181],[-0.10359,51.51394],[-0.1052,51.52017],[-0.12734,51.53217],[-0.14036,51.5505],[-0.19184,51.54848],[-0.21268,51.55845],[-0.22549,51.56843],[-0.23867,51.58007],[-0.24924,51.61309],[-0.28008,51.65307],[-0.31724,51.68519],[-0.32754,51.75047],[-0.35148,51.81465],[-0.39588,51.87244],[-0.41404,51.88231],[-0.4585,51.90516]],[[-0.0179,51.12627],[-0.00431,51.15579],[-0.00716,51.17645],[0.00394,51.24443],[-0.00483,51.25791],[-0.05187,51.29016],[-0.07795,51.30851],[-0.09939,51.33249],[-0.09368,51.34828],[-0.09346,51.36297],[-0.09278,51.37545],[-0.07522,51.39702],[-0.08609,51.50502],[-0.10333,51.51181],[-0.10359,51.51394],[-0.1052,51.52017],[-0.12734,51.53217],[-0.14036,51.5505],[-0.19184,51.54848],[-0.21268,51.55845],[-0.22549,51.56843],[-0.23867,51.58007],[-0.24924,51.61309],[-0.28008,51.65307],[-0.31724,51.68519],[-0.32754,51.75047],[-0.35148,51.81465],[-0.39588,51.87244],[-0.41404,51.88231],[-0.4585,51.90516]],[[-0.19121,51.35953],[-0.20517,51.36585],[-0.19634,51.37489],[-0.19877,51.3899],[-0.19946,51.39612],[-0.20516,51.40299],[-0.21403,51.40956],[-0.20637,51.42122],[-0.18881,51.42545],[-0.16128,51.41985],[-0.13155,51.42581],[-0.10508,51.43986],[-0.10229,51.45331],[-0.10218,51.4663],[-0.09872,51.49403],[-0.1052,51.52017],[-0.12734,51.53217],[-0.14036,51.5505],[-0.19184,51.54848],[-0.21268,51.55845],[-0.22549,51.56843],[-0.23867,51.58007],[-0.24924,51.61309],[-0.28008,51.65307],[-0.31724,51.68519],[-0.32754,51.75047],[-0.35148,51.81465],[-0.39588,51.87244],[-0.41404,51.88231],[-0.4585,51.90516]],[[-0.12719,51.53239],[-0.14036,51.5505],[-0.19184,51.54848],[-0.21268,51.55845],[-0.22549,51.56843],[-0.23867,51.58007],[-0.24924,51.61309],[-0.28008,51.65307],[-0.31724,51.68519],[-0.32754,51.75047],[-0.35148,51.81465],[-0.39588,51.87244],[-0.41404,51.88231],[-0.4585,51.90516]],[[0.61134,51.36631],[0.54985,51.38657],[0.52115,51.38038],[0.50686,51.38965],[0.50019,51.39655],[0.46628,51.42656],[0.36664,51.44135],[0.32433,51.44585],[0.30954,51.44907],[0.26377,51.45133],[0.21925,51.44737],[0.19049,51.46779],[0.12139,51.49106],[0.08426,51.4898],[0.06919,51.48991],[0.03126,51.48681],[0.0184,51.4842],[0.00291,51.48263],[-0.01334,51.47814],[-0.02627,51.47885],[-0.08609,51.50502],[-0.10333,51.51181],[-0.10359,51.51394],[-0.1052,51.52017],[-0.12734,51.53217],[-0.14036,51.5505],[-0.19184,51.54848],[-0.21268,51.55845],[-0.22549,51.56843],[-0.23867,51.58007],[-0.24924,51.61309],[-0.28008,51.65307],[-0.31724,51.68519],[-0.32754,51.75047],[-0.35148,51.81465],[-0.39588,51.87244],[-0.41404,51.88231]],[[-0.14128,50.82901],[-0.15517,50.84594],[-0.14595,50.92462],[-0.12079,50.9643],[-0.10508,51.00568],[-0.13693,51.05552],[-0.16118,51.11692],[-0.16105,51.16878],[-0.16249,51.20175],[-0.17082,51.22733],[-0.11403,51.33758],[-0.09346,51.36297],[-0.09278,51.37545],[-0.07522,51.39702],[-0.08609,51.50502],[-0.10333,51.51181],[-0.10359,51.51394],[-0.1052,51.52017],[-0.12734,51.53217],[-0.10628,51.5643],[-0.10514,51.57736],[-0.12023,51.59792],[-0.14304,51.61411],[-0.16621,51.63768],[-0.173,51.64858],[-0.17617,51.6685],[-0.1926,51.69707],[-0.21559,51.76388],[-0.20407,51.80105],[-0.19209,51.8235],[-0.18729,51.86686],[-0.20711,51.90169]],[[-0.31927,51.06607],[-0.30798,51.07975],[-0.26302,51.09589],[-0.21477,51.11562],[-0.18667,51.11221],[-0.16118,51.11692],[-0.16105,51.16878],[-0.16249,51.20175],[-0.17082,51.22733],[-0.1659,51.2402],[-0.15023,51.26415],[-0.13789,51.31584],[-0.11403,51.33758],[-0.09346,51.36297],[-0.09278,51.37545],[-0.07522,51.39702],[-0.08609,51.50502],[-0.10333,51.51181],[-0.10359,51.51394],[-0.1052,51.52017],[-0.12734,51.53217],[-0.10628,51.5643],[-0.10514,51.57736],[-0.12023,51.59792],[-0.14304,51.61411],[-0.16621,51.63768],[-0.173,51.64858],[-0.17617,51.6685],[-0.1926,51.69707],[-0.21559,51.76388],[-0.20407,51.80105],[-0.19209,51.8235],[-0.18729,51.86686],[-0.20711,51.90169]],[[-0.12293,51.53088],[-0.10628,51.5643],[-0.10514,51.57736],[-0.12023,51.59792],[-0.14304,51.61411],[-0.16621,51.63768],[-0.173,51.64858],[-0.17617,51.6685],[-0.1926,51.69707],[-0.21559,51.76388],[-0.20407,51.80105],[-0.19209,51.8235],[-0.18729,51.86686],[-0.20711,51.90169]],[[-0.12293,51.53088],[-0.10628,51.5643],[-0.10514,51.57736],[-0.12023,51.59792],[-0.14304,51.61411],[-0.16621,51.63768],[-0.173,51.64858],[-0.17617,51.6685],[-0.1926,51.69707],[-0.21559,51.76388],[-0.20407,51.80105],[-0.19209,51.8235],[-0.18729,51.86686],[-0.20711,51.90169]],[[0.18167,51.27687],[0.07448,51.38862],[0.04524,51.4001],[0.01734,51.39998],[0.00178,51.4058],[-0.00756,51.41419],[-0.01595,51.42458],[-0.01933,51.43291],[-0.02632,51.44441],[-0.0365,51.45519],[-0.05227,51.46683],[-0.06941,51.47003],[-0.08936,51.4682],[-0.09872,51.49403],[-0.1052,51.52017],[-0.12734,51.53217],[-0.14036,51.5505],[-0.19184,51.54848],[-0.21268,51.55845],[-0.22549,51.56843],[-0.23867,51.58007],[-0.24924,51.61309],[-0.28008,51.65307],[-0.31724,51.68519],[-0.32754,51.75047],[-0.35148,51.81465],[-0.39588,51.87244],[-0.41404,51.88231]],[[0.18167,51.27687],[0.19423,51.28976],[0.19678,51.31316],[0.18889,51.33222],[0.20439,51.36272],[0.16923,51.39339],[0.10638,51.39475],[0.04524,51.4001],[0.01734,51.39998],[0.00178,51.4058],[-0.00756,51.41419],[-0.01595,51.42458],[-0.01933,51.43291],[-0.02632,51.44441],[-0.0365,51.45519],[-0.05227,51.46683],[-0.06941,51.47003],[-0.08936,51.4682],[-0.09872,51.49403],[-0.1052,51.52017],[-0.12734,51.53217],[-0.10628,51.5643],[-0.14304,51.61411],[-0.16621,51.63768],[-0.173,51.64858],[-0.1926,51.69707],[-0.21559,51.76388],[-0.20407,51.80105]],[[0.18167,51.27687],[0.19423,51.28976],[0.19678,51.31316],[0.18889,51.33222],[0.20439,51.36272],[0.16923,51.39339],[0.10638,51.39475],[0.04524,51.4001],[0.01734,51.39998],[0.00178,51.4058],[-0.00756,51.41419],[-0.01595,51.42458],[-0.01933,51.43291],[-0.02632,51.44441],[-0.0365,51.45519],[-0.05227,51.46683],[-0.06941,51.47003],[-0.08936,51.4682],[-0.14456,51.49526]]]}},{"type":"Feature","properties":{"line":"c2c","name":"c2c","colour":"#B7007C"},"geometry":{"type":"MultiLineString","coordinates":[[[0.73182,51.53897],[0.71173,51.53707],[0.69147,51.53733],[0.67059,51.53872],[0.64041,51.54127],[0.56171,51.54395],[0.50629,51.56036],[0.42304,51.51436],[0.41293,51.48483],[0.35404,51.46236],[0.32183,51.47625],[0.23677,51.48101],[0.19063,51.51672],[0.14666,51.52624],[0.0809,51.5395],[0.00543,51.52849],[-0.0398,51.51254],[-0.0789,51.51165]],[[0.73182,51.53897],[0.71173,51.53707],[0.69147,51.53733],[0.67059,51.53872],[0.64041,51.54127],[0.56171,51.54395],[0.50629,51.56036],[0.42304,51.51436],[0.41293,51.48483],[0.35404,51.46236],[0.32183,51.47625],[0.23677,51.48101],[0.19063,51.51672],[0.14666,51.52624],[0.0809,51.5395],[-0.0034,51.5419],[-0.08143,51.51799]]]}},{"type":"Feature","properties":{"line":"great-northern","name":"Great Northern","colour":"#0072BC"},"geometry":{"type":"MultiLineString","coordinates":[[[-0.20711,51.90169],[-0.11943,51.85644],[-0.09179,51.79886],[-0.09561,51.75772],[-0.10978,51.70872],[-0.10689,51.68449],[-0.09499,51.66358],[-0.0907,51.65325],[-0.09736,51.64261],[-0.1009,51.63394],[-0.11044,51.61831],[-0.12058,51.60701],[-0.12023,51.59792],[-0.10514,51.57736],[-0.10628,51.5643],[-0.10551,51.55277],[-0.10376,51.54618],[-0.09628,51.54071],[-0.08853,51.52583],[-0.08894,51.51849]],[[-0.20711,51.90169],[-0.11943,51.85644],[-0.09179,51.79886],[-0.09561,51.75772],[-0.10978,51.70872],[-0.10689,51.68449],[-0.09499,51.66358],[-0.0907,51.65325],[-0.09736,51.64261],[-0.1009,51.63394],[-0.11044,51.61831],[-0.12058,51.60701],[-0.12023,51.59792],[-0.10514,51.57736],[-0.10628,51.5643],[-0.12293,51.53088]],[[-0.20711,51.90169],[-0.12023,51.59792],[-0.10514,51.57736],[-0.10628,51.5643],[-0.12293,51.53088]],[[-0.20711,51.90169],[-0.12023,51.59792],[-0.10514,51.57736],[-0.10628,51.5643],[-0.12293,51.53088]],[[-0.20711,51.90169],[-0.18729,51.86686],[-0.19209,51.8235],[-0.20407,51.80105],[-0.21559,51.76388],[-0.21069,51.73635],[-0.20455,51.72106],[-0.1926,51.69707],[-0.17617,51.6685],[-0.173,51.64858],[-0.16621,51.63768],[-0.14304,51.61411],[-0.12023,51.59792],[-0.10514,51.57736],[-0.10628,51.5643],[-0.10551,51.55277],[-0.10376,51.54618],[-0.09628,51.54071],[-0.08853,51.52583],[-0.08894,51.51849]],[[-0.20711,51.90169],[-0.18729,51.86686],[-0.19209,51.8235],[-0.20407,51.80105],[-0.21559,51.76388],[-0.21069,51.73635],[-0.20455,51.72106],[-0.1926,51.69707],[-0.17617,51.6685],[-0.173,51.64858],[-0.16621,51.63768],[-0.14304,51.61411],[-0.12023,51.59792],[-0.10514,51.57736],[-0.10628,51.5643],[-0.12293,51.53088]]]}},{"type":"Feature","properties":{"line":"greater-anglia","name":"Greater Anglia","colour":"#8B1E3F"},"geometry":{"type":"MultiLineString","coordinates":[[[0.70239,51.8407],[0.59212,51.77986],[0.51834,51.75806],[0.46857,51.73637],[0.38425,51.66704],[0.32985,51.63088],[0.20596,51.5819],[0.18324,51.57483],[0.0971,51.56403],[0.06968,51.55912],[-0.0034,51.5419],[-0.08143,51.51799]],[[0.70239,51.8407],[0.59212,51.77986],[0.51834,51.75806],[0.46857,51.73637],[0.38425,51.66704],[0.32985,51.63088],[-0.0034,51.5419],[-0.08143,51.51799]],[[0.70239,51.8407],[0.59212,51.77986],[0.51834,51.75806],[0.46857,51.73637],[0.38425,51.66704],[0.32985,51.63088],[0.20596,51.5819],[0.18324,51.57483],[0.0971,51.56403],[0.06968,51.55912],[-0.0034,51.5419],[-0.08143,51.51799]],[[0.70239,51.8407],[0.59212,51.77986],[0.51834,51.75806],[0.46857,51.73637],[0.38425,51.66704],[0.32985,51.63088],[-0.0034,51.5419],[-0.08143,51.51799]],[[0.55669,51.87539],[0.56844,51.86942],[0.57796,51.85234],[0.63913,51.80597],[0.59212,51.77986],[0.51834,51.75806],[0.46857,51.73637],[0.38425,51.66704],[0.32985,51.63088],[-0.0034,51.5419],[-0.08143,51.51799]],[[0.63913,51.80597],[0.57796,51.85234],[0.56844,51.86942],[0.55669,51.87539]],[[0.70239,51.8407],[0.59212,51.77986],[0.51834,51.75806],[0.46857,51.73637],[0.38425,51.66704],[0.32985,51.63088],[-0.0034,51.5419],[-0.08143,51.51799]],[[0.26082,51.88859],[0.22807,51.92055]],[[0.26082,51.88859],[0.19978,51.90144],[0.16489,51.86669],[0.16041,51.81435],[0.13231,51.79037],[0.09513,51.78107],[0.03625,51.77549],[-0.01109,51.74691],[-0.02396,51.70288],[-0.03483,51.69246],[-0.04722,51.67263],[-0.05244,51.64871],[-0.06111,51.62493],[-0.06724,51.61469],[-0.07091,51.60504],[-0.06987,51.59396],[-0.07527,51.58227],[-0.07668,51.57447],[-0.07289,51.56523],[-0.06827,51.5585],[-0.06082,51.54876],[-0.05775,51.54115],[-0.05728,51.53197],[-0.05957,51.52392],[-0.08143,51.51799]],[[-0.07294,51.79904],[-0.02878,51.80796],[0.00127,51.78784],[0.00563,51.76941],[-0.01109,51.74691],[-0.02396,51.70288],[-0.03483,51.69246],[-0.04722,51.67263],[-0.05244,51.64871],[-0.06111,51.62493],[-0.06724,51.61469],[-0.07091,51.60504],[-0.06987,51.59396],[-0.07527,51.58227],[-0.07668,51.57447],[-0.07289,51.56523],[-0.06827,51.5585],[-0.06082,51.54876],[-0.05775,51.54115],[-0.05728,51.53197],[-0.05957,51.52392],[-0.08143,51.51799]],[[0.22807,51.92055],[0.19978,51.90144],[0.16489,51.86669],[0.16041,51.81435],[0.13231,51.79037],[0.09513,51.78107],[0.03625,51.77549],[-0.01109,51.74691],[-0.02396,51.70288],[-0.03082,51.65558],[-0.03508,51.64226],[-0.0509,51.6101],[-0.05393,51.60197],[-0.05993,51.58831],[-0.05702,51.56164],[-0.06082,51.54876],[-0.05957,51.52392],[-0.08143,51.51799]],[[0.26082,51.88859],[0.19978,51.90144],[0.16489,51.86669],[0.16041,51.81435],[0.13231,51.79037],[0.09513,51.78107],[0.03625,51.77549],[-0.01109,51.74691],[-0.02396,51.70288],[-0.03082,51.65558],[-0.03508,51.64226],[-0.0509,51.6101],[-0.05393,51.60197],[-0.05993,51.58831],[-0.03667,51.56655],[-0.0034,51.5419],[-0.08143,51.51799]],[[0.26082,51.88859],[0.19978,51.90144],[0.16489,51.86669],[0.09513,51.78107],[-0.02396,51.70288],[-0.05993,51.58831],[-0.08143,51.51799]],[[0.68166,51.64858],[0.6065,51.64946],[0.56529,51.62483],[0.51919,51.61502],[0.41863,51.62888],[0.32985,51.63088],[0.18324,51.57483],[-0.0034,51.5419],[-0.08143,51.51799]],[[0.7115,51.54151],[0.71068,51.55069],[0.70505,51.56867],[0.7023,51.58173],[0.659,51.60356],[0.59998,51.58929],[0.51919,51.61502],[0.41863,51.62888],[0.32985,51.63088],[0.18324,51.57483],[-0.0034,51.5419],[-0.08143,51.51799]]]}},{"type":"Feature","properties":{"line":"great-western-railway","name":"Great Western Railway","colour":"#0A493E"},"geometry":{"type":"MultiLineString","coordinates":[[[-1.13305,51.52149],[-1.09047,51.4854],[-1.02982,51.47151],[-0.97186,51.45879],[-0.86329,51.47553],[-0.72266,51.51867],[-0.68137,51.52356],[-0.64637,51.52351],[-0.59151,51.51188],[-0.54176,51.50806],[-0.50673,51.5085],[-0.47223,51.51006],[-0.42068,51.5031],[-0.37861,51.50596],[-0.30175,51.51484],[-0.17617,51.516]],[[-1.13742,51.40196],[-1.07497,51.43345],[-0.99013,51.4555],[-0.97186,51.45879],[-0.86329,51.47553],[-0.72266,51.51867],[-0.68137,51.52356],[-0.64637,51.52351],[-0.59151,51.51188],[-0.54176,51.50806],[-0.50673,51.5085],[-0.47223,51.51006],[-0.42068,51.5031],[-0.37861,51.50596],[-0.30175,51.51484],[-0.17617,51.516]],[[-0.97186,51.45879],[-1.07497,51.43345]],[[-0.34584,51.54233],[-0.3367,51.53375],[-0.33155,51.52293],[-0.33019,51.51662],[-0.32013,51.51351],[-0.26676,51.51718],[-0.17617,51.516]],[[-0.61038,51.48327],[-0.59151,51.51188]],[[-0.76643,51.57099],[-0.71047,51.57712],[-0.72208,51.55746],[-0.72847,51.53302],[-0.72266,51.51867]],[[-0.90021,51.53418],[-0.8826,51.51146],[-0.87652,51.49816],[-0.86329,51.47553],[-0.72266,51.51867]],[[-0.90021,51.53418],[-0.8826,51.51146],[-0.87652,51.49816],[-0.86329,51.47553],[-0.97186,51.45879]],[[-1.08726,51.26836],[-1.061,51.33029],[-1.03551,51.37208],[-0.99013,51.4555],[-0.97186,51.45879]],[[-0.97186,51.45879],[-0.86329,51.47553],[-0.72266,51.51867],[-0.59151,51.51188],[-0.17617,51.516]],[[-0.97186,51.45879],[-0.86329,51.47553],[-0.72266,51.51867],[-0.59151,51.51188],[-0.17617,51.516]],[[-0.97186,51.45879],[-0.86329,51.47553],[-0.72266,51.51867],[-0.59151,51.51188],[-0.17617,51.516]],[[-0.97186,51.45879],[-0.86329,51.47553],[-0.72266,51.51867],[-0.59151,51.51188],[-0.17617,51.516]],[[-1.13305,51.52149],[-1.09047,51.4854],[-1.02982,51.47151],[-0.97186,51.45879],[-0.86329,51.47553],[-0.72266,51.51867],[-0.68137,51.52356],[-0.64637,51.52351],[-0.59151,51.51188],[-0.54176,51.50806],[-0.50673,51.5085],[-0.47223,51.51006],[-0.42068,51.5031],[-0.37861,51.50596],[-0.30175,51.51484],[-0.17617,51.516]],[[-0.97186,51.45879],[-0.72266,51.51867],[-0.42068,51.5031],[-0.30175,51.51484],[-0.17617,51.516]],[[-0.97186,51.45879],[-0.86329,51.47553],[-0.72266,51.51867],[-0.59151,51.51188],[-0.17617,51.516]],[[-1.07497,51.43345],[-0.99013,51.4555],[-0.97186,51.45879],[-0.86329,51.47553],[-0.72266,51.51867],[-0.59151,51.51188],[-0.17617,51.516]],[[-0.97186,51.45879],[-0.86329,51.47553],[-0.72266,51.51867],[-0.59151,51.51188],[-0.17617,51.516]],[[-0.97186,51.45879],[-0.86329,51.47553],[-0.72266,51.51867],[-0.59151,51.51188],[-0.17617,51.516]],[[-0.97186,51.45879],[-0.86329,51.47553],[-0.72266,51.51867],[-0.59151,51.51188],[-0.17617,51.516]],[[-0.16104,51.15649],[-0.1659,51.2402],[-0.26695,51.24524],[-0.32464,51.2388],[-0.44185,51.2194],[-0.52482,51.21521],[-0.5668,51.21432],[-0.58042,51.23697],[-0.66759,51.24452],[-0.7128,51.2496],[-0.7312,51.2758],[-0.74303,51.30205],[-0.77674,51.33158],[-0.80459,51.34693],[-0.81927,51.36673],[-0.84254,51.41122],[-0.87686,51.43028],[-0.89133,51.43674],[-0.91799,51.4411],[-0.97186,51.45879]]]}},{"type":"Feature","properties":{"line":"heathrow-express","name":"Heathrow Express","colour":"#532E63"},"geometry":{"type":"MultiLineString","coordinates":[[[-0.49059,51.47005],[-0.45479,51.47199],[-0.17617,51.516]]]}},{"type":"Feature","properties":{"line":"southeastern","name":"Southeastern","colour":"#00A3A9"},"geometry":{"type":"MultiLineString","coordinates":[[[-0.1248,51.50803],[-0.1089,51.50408],[-0.08609,51.50502],[0.18167,51.27687],[0.22759,51.21449],[0.27097,51.19141],[0.38915,51.18227],[0.55044,51.17147],[0.7474,51.15647]],[[0.73468,51.34198],[0.66857,51.35334],[0.61134,51.36631],[0.54985,51.38657],[0.52115,51.38038],[0.50686,51.38965],[0.16923,51.39339],[-0.08609,51.50502]],[[-0.14456,51.49526],[0.01734,51.39998],[0.08909,51.3733],[0.18167,51.27687],[0.22759,51.21449],[0.27097,51.19141],[0.38915,51.18227],[0.55044,51.17147],[0.7474,51.15647]],[[-0.12646,51.53251],[-0.00878,51.54483],[0.32092,51.44297]],[[0.73468,51.34198],[0.66857,51.35334],[0.61134,51.36631],[0.54985,51.38657],[0.52115,51.38038],[0.50686,51.38965],[0.16923,51.39339],[-0.08609,51.50502],[-0.09029,51.51138]],[[-0.12646,51.53251],[-0.00878,51.54483],[0.32092,51.44297]],[[0.51577,51.27047],[0.44824,51.33023],[0.50019,51.39655],[0.46628,51.42656],[0.36664,51.44135],[0.32092,51.44297],[-0.00878,51.54483],[-0.12646,51.53251]],[[0.18167,51.27687],[0.17094,51.29649],[0.13085,51.34579],[0.10907,51.35626],[0.08909,51.3733],[0.07448,51.38862],[0.04524,51.4001],[0.01734,51.39998],[0.00178,51.4058],[-0.00756,51.41419],[-0.01595,51.42458],[-0.01933,51.43291],[-0.02632,51.44441],[-0.0365,51.45519],[-0.05227,51.46683],[-0.06941,51.47003],[-0.08936,51.4682],[-0.14456,51.49526]],[[0.18167,51.27687],[0.17094,51.29649],[0.13085,51.34579],[0.10907,51.35626],[0.08909,51.3733],[0.07448,51.38862],[0.04524,51.4001],[0.01734,51.39998],[0.00178,51.4058],[-0.02581,51.41104],[-0.04525,51.41222],[-0.05422,51.41933],[-0.08034,51.43271],[-0.09137,51.44072],[-0.10229,51.45331],[-0.10218,51.4663],[-0.09872,51.49403],[-0.10333,51.51181]],[[0.16923,51.39339],[0.10638,51.39475],[0.04524,51.4001],[0.01734,51.39998],[0.00178,51.4058],[-0.02581,51.41104],[-0.04525,51.41222],[-0.05422,51.41933],[-0.08034,51.43271],[-0.09137,51.44072],[-0.10229,51.45331],[-0.11418,51.4633],[-0.14456,51.49526]],[[0.70776,51.23449],[0.6724,51.24483],[0.62785,51.26518],[0.57758,51.27582],[0.52129,51.27783],[0.47896,51.2849],[0.43928,51.28581],[0.41865,51.29202],[0.30625,51.29322],[0.24743,51.29719],[0.19678,51.31316],[0.18889,51.33222],[0.20439,51.36272],[0.16923,51.39339],[0.10638,51.39475],[0.04524,51.4001],[0.01734,51.39998],[-0.06941,51.47003],[-0.08936,51.4682],[-0.14456,51.49526]],[[0.70776,51.23449],[0.6724,51.24483],[0.62785,51.26518],[0.57758,51.27582],[0.52129,51.27783],[0.47896,51.2849],[0.43928,51.28581],[0.41865,51.29202],[0.30625,51.29322],[0.24743,51.29719],[0.19678,51.31316],[0.18889,51.33222],[0.20439,51.36272],[0.16923,51.39339],[0.10638,51.39475],[0.05742,51.40556],[-0.08609,51.50502],[-0.1089,51.50408],[-0.1248,51.50803]],[[0.70776,51.23449],[0.6724,51.24483],[0.62785,51.26518],[0.57758,51.27582],[0.52129,51.27783],[0.47896,51.2849],[0.43928,51.28581],[0.41865,51.29202],[0.30625,51.29322],[0.24743,51.29719],[0.19678,51.31316],[0.18889,51.33222],[0.20439,51.36272],[0.16923,51.39339],[0.10638,51.39475],[0.05742,51.40556],[-0.08609,51.50502],[-0.09029,51.51138]],[[0.70776,51.23449],[0.6724,51.24483],[0.62785,51.26518],[0.57758,51.27582],[0.52129,51.27783],[0.47896,51.2849],[0.43928,51.28581],[0.41865,51.29202],[0.30625,51.29322],[0.24743,51.29719],[0.19678,51.31316],[0.18889,51.33222],[0.20439,51.36272],[0.16923,51.39339],[0.10638,51.39475],[0.04524,51.4001],[0.01734,51.39998],[-0.06941,51.47003],[-0.08936,51.4682],[-0.14456,51.49526]],[[0.70776,51.23449],[0.6724,51.24483],[0.62785,51.26518],[0.57758,51.27582],[0.52129,51.27783],[0.47896,51.2849],[0.43928,51.28581],[0.41865,51.29202],[0.30625,51.29322],[0.24743,51.29719],[0.19678,51.31316],[0.18889,51.33222],[0.20439,51.36272],[0.16923,51.39339],[0.10638,51.39475],[0.05742,51.40556],[-0.08609,51.50502],[-0.09029,51.51138]],[[-0.1248,51.50803],[-0.1089,51.50408],[-0.08609,51.50502],[-0.03244,51.47634],[-0.02272,51.46939],[-0.01402,51.46569],[-0.00094,51.45203],[0.01349,51.44976],[0.05005,51.44022],[0.07053,51.43806],[0.1038,51.43387],[0.12574,51.43545],[0.1479,51.44022],[0.17894,51.44828],[0.19049,51.46779],[0.17506,51.48167],[0.15229,51.49212],[0.08426,51.4898],[0.06919,51.48991],[0.05464,51.49113],[0.0184,51.4842],[0.00291,51.48263],[-0.01334,51.47814],[-0.02627,51.47885],[-0.08609,51.50502],[-0.09029,51.51138]],[[-0.09029,51.51138],[-0.08609,51.50502],[-0.03244,51.47634],[-0.02272,51.46939],[-0.01402,51.46569],[-0.00094,51.45203],[0.01349,51.44976],[0.05005,51.44022],[0.07053,51.43806],[0.1038,51.43387],[0.12574,51.43545],[0.1479,51.44022],[0.17894,51.44828],[0.19049,51.46779],[0.17506,51.48167],[0.15229,51.49212],[0.08426,51.4898],[0.06919,51.48991],[0.05464,51.49113],[0.0184,51.4842],[0.00291,51.48263],[-0.01334,51.47814],[-0.02627,51.47885],[-0.08609,51.50502],[-0.09029,51.51138]],[[-0.1248,51.50803],[-0.1089,51.50408],[-0.08609,51.50502],[-0.03244,51.47634],[-0.02272,51.46939],[-0.01402,51.46569],[-0.00094,51.45203],[0.01349,51.44976],[0.05005,51.44022],[0.07053,51.43806],[0.1038,51.43387],[0.12574,51.43545],[0.1479,51.44022],[0.17894,51.44828],[0.21925,51.44737],[0.26377,51.45133],[0.30954,51.44907],[0.32433,51.44585],[0.36664,51.44135],[0.46628,51.42656],[0.50019,51.39655],[0.50686,51.38965],[0.52115,51.38038],[0.54985,51.38657]],[[-0.14456,51.49526],[-0.08936,51.4682],[-0.06941,51.47003],[-0.05227,51.46683],[-0.01402,51.46569],[-0.00094,51.45203],[0.01349,51.44976],[0.05005,51.44022],[0.07053,51.43806],[0.1038,51.43387],[0.12574,51.43545],[0.1479,51.44022],[0.17894,51.44828],[0.21925,51.44737],[0.26377,51.45133],[0.30954,51.44907],[0.32433,51.44585],[0.36664,51.44135],[0.46628,51.42656],[0.50019,51.39655],[0.50686,51.38965],[0.52115,51.38038],[0.54985,51.38657]],[[-0.09029,51.51138],[-0.08609,51.50502],[-0.03244,51.47634],[-0.02272,51.46939],[-0.01402,51.46569],[-0.00094,51.45203],[0.01349,51.44976],[0.05005,51.44022],[0.07053,51.43806],[0.1038,51.43387],[0.12574,51.43545],[0.1479,51.44022],[0.17894,51.44828],[0.21925,51.44737],[0.26377,51.45133],[0.30954,51.44907],[0.32433,51.44585],[0.36664,51.44135],[0.46628,51.42656],[0.50019,51.39655],[0.50686,51.38965],[0.52115,51.38038],[0.54985,51.38657]],[[0.08909,51.3733],[0.07448,51.38862],[0.04524,51.4001],[0.01734,51.39998],[0.00178,51.4058],[-0.02581,51.41104],[-0.03527,51.41677],[-0.03334,51.42483],[-0.02479,51.44474],[-0.01402,51.46569],[-0.02272,51.46939],[-0.03244,51.47634],[-0.08609,51.50502],[-0.1089,51.50408],[-0.1248,51.50803]],[[0.01056,51.37633],[-0.01443,51.3813],[-0.02635,51.39009],[-0.04957,51.39849],[-0.04066,51.40859],[-0.03527,51.41677],[-0.03334,51.42483],[-0.02479,51.44474],[-0.01402,51.46569],[-0.02272,51.46939],[-0.03244,51.47634],[-0.08609,51.50502],[-0.1089,51.50408],[-0.1248,51.50803]],[[0.01056,51.37633],[-0.01443,51.3813],[-0.02635,51.39009],[-0.04957,51.39849],[-0.04066,51.40859],[-0.03527,51.41677],[-0.03334,51.42483],[-0.02479,51.44474],[-0.01402,51.46569],[-0.05227,51.46683],[-0.06941,51.47003],[-0.08936,51.4682],[-0.14456,51.49526]],[[0.01056,51.37633],[-0.01443,51.3813],[-0.02635,51.39009],[-0.04957,51.39849],[-0.04066,51.40859],[-0.03527,51.41677],[-0.03334,51.42483],[-0.02479,51.44474],[-0.01402,51.46569],[-0.02272,51.46939],[-0.03244,51.47634],[-0.08609,51.50502],[-0.09029,51.51138]],[[0.27097,51.19141],[0.22759,51.21449],[0.18167,51.27687],[0.17094,51.29649],[0.13085,51.34579],[0.10907,51.35626],[0.08909,51.3733],[0.07448,51.38862],[0.05742,51.40556],[0.04427,51.41712],[0.02173,51.43086],[-0.00094,51.45203],[-0.01402,51.46569],[-0.02272,51.46939],[-0.03244,51.47634],[-0.08609,51.50502],[-0.1089,51.50408],[-0.1248,51.50803]],[[0.27097,51.19141],[0.22759,51.21449],[0.18167,51.27687],[0.17094,51.29649],[0.13085,51.34579],[0.10907,51.35626],[0.08909,51.3733],[0.07448,51.38862],[0.05742,51.40556],[0.04427,51.41712],[0.02173,51.43086],[-0.00094,51.45203],[-0.01402,51.46569],[-0.02272,51.46939],[-0.03244,51.47634],[-0.08609,51.50502],[-0.09029,51.51138]],[[0.01699,51.40833],[0.02145,51.41378],[0.02173,51.43086]],[[0.59157,50.86695],[0.57674,50.8579],[0.53994,50.85315],[0.50134,50.88858],[0.4947,50.91292],[0.46878,50.98493],[0.44236,51.01055],[0.36387,51.01997],[0.31317,51.07346],[0.29454,51.10403],[0.26281,51.13023],[0.27733,51.14941],[0.27097,51.19141],[0.22759,51.21449],[0.18167,51.27687],[0.17094,51.29649],[0.13085,51.34579],[0.10907,51.35626],[0.08909,51.3733],[0.07448,51.38862],[0.05742,51.40556],[0.04427,51.41712],[0.02173,51.43086],[-0.00094,51.45203],[-0.01402,51.46569],[-0.03244,51.47634],[-0.08609,51.50502],[-0.1089,51.50408],[-0.1248,51.50803]],[[0.59157,50.86695],[0.57674,50.8579],[0.53994,50.85315],[0.50134,50.88858],[0.4947,50.91292],[0.46878,50.98493],[0.44236,51.01055],[0.36387,51.01997],[0.31317,51.07346],[0.29454,51.10403],[0.26281,51.13023],[0.27733,51.14941],[0.27097,51.19141],[0.22759,51.21449],[0.18167,51.27687],[0.17094,51.29649],[0.13085,51.34579],[0.10907,51.35626],[0.08909,51.3733],[0.07448,51.38862],[0.05742,51.40556],[0.04427,51.41712],[0.02173,51.43086],[-0.00094,51.45203],[-0.01402,51.46569],[-0.03244,51.47634],[-0.08609,51.50502],[-0.09029,51.51138]],[[0.7474,51.15647],[0.55044,51.17147],[0.38915,51.18227],[0.27097,51.19141],[0.22759,51.21449],[0.18167,51.27687],[0.17094,51.29649],[0.13085,51.34579],[0.10907,51.35626],[0.08909,51.3733],[0.07448,51.38862],[0.05742,51.40556],[0.04427,51.41712],[0.02173,51.43086],[-0.00094,51.45203],[-0.03244,51.47634],[-0.08609,51.50502],[-0.1089,51.50408],[-0.1248,51.50803]],[[0.7474,51.15647],[0.55044,51.17147],[0.38915,51.18227],[0.27097,51.19141],[0.22759,51.21449],[0.18167,51.27687],[0.17094,51.29649],[0.13085,51.34579],[0.10907,51.35626],[0.08909,51.3733],[0.07448,51.38862],[0.05742,51.40556],[0.04427,51.41712],[0.02173,51.43086],[-0.00094,51.45203],[-0.03244,51.47634],[-0.08609,51.50502],[-0.09029,51.51138]],[[0.59157,50.86695],[0.57674,50.8579],[0.53994,50.85315],[0.50134,50.88858],[0.4947,50.91292],[0.46878,50.98493],[0.44236,51.01055],[0.36387,51.01997],[0.31317,51.07346],[0.29454,51.10403],[0.26281,51.13023],[0.27733,51.14941],[0.27097,51.19141],[0.22759,51.21449],[0.18167,51.27687],[0.17094,51.29649],[0.13085,51.34579],[0.10907,51.35626],[0.08909,51.3733],[0.07448,51.38862],[0.01734,51.39998],[-0.02581,51.41104],[-0.14456,51.49526]],[[0.7474,51.15647],[0.55044,51.17147],[0.38915,51.18227],[0.27097,51.19141],[0.22759,51.21449],[0.18167,51.27687],[0.17094,51.29649],[0.13085,51.34579],[0.10907,51.35626],[0.08909,51.3733],[0.07448,51.38862],[0.01734,51.39998],[-0.02581,51.41104],[-0.14456,51.49526]],[[-0.1248,51.50803],[-0.1089,51.50408],[-0.08609,51.50502],[0.08909,51.3733],[0.10907,51.35626],[0.13085,51.34579],[0.22759,51.21449],[0.27097,51.19141],[0.27733,51.14941],[0.26281,51.13023],[0.29454,51.10403],[0.31317,51.07346],[0.36387,51.01997],[0.44236,51.01055],[0.4947,50.91292],[0.50134,50.88858],[0.53994,50.85315],[0.57674,50.8579]],[[-0.09029,51.51138],[-0.08609,51.50502],[0.08909,51.3733],[0.10907,51.35626],[0.13085,51.34579],[0.22759,51.21449],[0.27097,51.19141],[0.27733,51.14941],[0.26281,51.13023],[0.29454,51.10403],[0.31317,51.07346],[0.36387,51.01997],[0.44236,51.01055],[0.4947,50.91292],[0.50134,50.88858],[0.53994,50.85315],[0.57674,50.8579]],[[0.27097,51.19141],[0.38915,51.18227],[0.4035,51.20471],[0.41216,51.22648],[0.42247,51.24974],[0.48473,51.25524],[0.51577,51.27047],[0.51396,51.27717],[0.46617,51.30132],[0.45493,51.313],[0.44824,51.33023],[0.44493,51.35248],[0.46171,51.37393],[0.50019,51.39655],[0.50686,51.38965],[0.52115,51.38038],[0.54985,51.38657]],[[0.73468,51.34198],[0.66857,51.35334],[0.61134,51.36631],[0.54985,51.38657],[0.52115,51.38038],[0.50686,51.38965],[0.37819,51.38308],[0.35695,51.38642],[0.30036,51.39616],[0.23545,51.40167],[0.16923,51.39339],[0.10638,51.39475],[0.04524,51.4001],[0.01734,51.39998],[0.00178,51.4058],[-0.01933,51.43291],[-0.02632,51.44441],[-0.0365,51.45519],[-0.05227,51.46683],[-0.06941,51.47003],[-0.08936,51.4682],[-0.14456,51.49526]],[[0.73468,51.34198],[0.66857,51.35334],[0.61134,51.36631],[0.54985,51.38657],[0.52115,51.38038],[0.50686,51.38965],[0.37819,51.38308],[0.35695,51.38642],[0.30036,51.39616],[0.23545,51.40167],[0.16923,51.39339],[0.10638,51.39475],[0.04524,51.4001],[0.01734,51.39998],[0.00178,51.4058],[-0.02581,51.41104],[-0.05422,51.41933],[-0.10229,51.45331],[-0.08609,51.50502],[-0.09029,51.51138]],[[0.73468,51.34198],[0.66857,51.35334],[0.61134,51.36631],[0.54985,51.38657],[0.52115,51.38038],[0.50686,51.38965],[0.37819,51.38308],[0.35695,51.38642],[0.30036,51.39616],[0.23545,51.40167],[0.16923,51.39339],[0.10638,51.39475],[0.04524,51.4001],[0.01734,51.39998],[0.00178,51.4058],[-0.02581,51.41104],[-0.05422,51.41933],[-0.10229,51.45331],[-0.14456,51.49526]],[[0.73468,51.34198],[0.66857,51.35334],[0.61134,51.36631],[0.54985,51.38657],[0.52115,51.38038],[0.50686,51.38965],[0.50019,51.39655],[0.36664,51.44135],[0.32092,51.44297],[-0.00878,51.54483],[-0.12719,51.53239]],[[0.74967,51.41564],[0.74713,51.38924],[0.73536,51.36244],[0.73468,51.34198]]]}},{"type":"Feature","properties":{"line":"southern","name":"Southern","colour":"#8CC63E"},"geometry":{"type":"MultiLineString","coordinates":[[[-0.10258,51.37843],[-0.0883,51.39193],[-0.12193,51.41145],[-0.13601,51.41873],[-0.13155,51.42581],[-0.10508,51.43986],[-0.08792,51.45451],[-0.08057,51.46149],[-0.06941,51.47003],[-0.05731,51.47357],[-0.05468,51.48814],[-0.08609,51.50502]],[[-0.02581,51.41104],[-0.05574,51.40389],[-0.07261,51.41811],[-0.08384,51.42445],[-0.10383,51.43175],[-0.10508,51.43986],[-0.08792,51.45451],[-0.08057,51.46149],[-0.06941,51.47003],[-0.05731,51.47357],[-0.05468,51.48814],[-0.08609,51.50502]],[[-0.10258,51.37843],[-0.07522,51.39702],[-0.07261,51.41811],[-0.08384,51.42445],[-0.10383,51.43175],[-0.12716,51.43819],[-0.15242,51.44323],[-0.16339,51.44619],[-0.17029,51.46419],[-0.14753,51.47696],[-0.14456,51.49526]],[[-0.07831,51.28214],[-0.07692,51.30339],[-0.08115,51.30996],[-0.10092,51.32478],[-0.11403,51.33758],[-0.09886,51.34705],[-0.09346,51.36297],[-0.09278,51.37545],[-0.07522,51.39702],[-0.0404,51.47513],[-0.08609,51.50502]],[[-0.20382,51.24196],[-0.1659,51.2402],[-0.15023,51.26415],[-0.13789,51.31584],[-0.11403,51.33758],[-0.09886,51.34705],[-0.09346,51.36297],[-0.09278,51.37545],[-0.17029,51.46419],[-0.14456,51.49526]],[[-0.24261,51.30918],[-0.23596,51.29164],[-0.21125,51.29473],[-0.1695,51.30928],[-0.15426,51.31902],[-0.13446,51.32204],[-0.12342,51.33112],[-0.11403,51.33758]],[[-0.14456,51.49526],[-0.14753,51.47696],[-0.17029,51.46419],[-0.16339,51.44619],[-0.15242,51.44323],[-0.12716,51.43819],[-0.10383,51.43175],[-0.08384,51.42445],[-0.07261,51.41811],[-0.05424,51.42725],[-0.05316,51.43928],[-0.0455,51.44999],[-0.03754,51.46465],[-0.0404,51.47513],[-0.08609,51.50502]],[[-0.09278,51.37545],[-0.07522,51.39702],[-0.06589,51.41215],[-0.06084,51.41756],[-0.05424,51.42725],[-0.05316,51.43928],[-0.0455,51.44999],[-0.03754,51.46465],[-0.0404,51.47513],[-0.08609,51.50502]],[[-0.19121,51.35953],[-0.16637,51.36845],[-0.15391,51.37787],[-0.15776,51.39295],[-0.15465,51.40774],[-0.13155,51.42581],[-0.10508,51.43986],[-0.08792,51.45451],[-0.08057,51.46149],[-0.06941,51.47003],[-0.05731,51.47357],[-0.05468,51.48814],[-0.08609,51.50502]],[[-0.12716,51.43819],[-0.10508,51.43986],[-0.08792,51.45451],[-0.08057,51.46149],[-0.06941,51.47003],[-0.05731,51.47357],[-0.05468,51.48814],[-0.08609,51.50502]],[[-0.17029,51.46419],[-0.14456,51.49526]],[[-0.07831,51.28214],[-0.07692,51.30339],[-0.08115,51.30996],[-0.10092,51.32478],[-0.11403,51.33758],[-0.09886,51.34705],[-0.09346,51.36297],[-0.09278,51.37545],[-0.0883,51.39193],[-0.12193,51.41145],[-0.13601,51.41873],[-0.13155,51.42581],[-0.10508,51.43986],[-0.08792,51.45451],[-0.08057,51.46149],[-0.06941,51.47003],[-0.05731,51.47357],[-0.05468,51.48814],[-0.08609,51.50502]],[[-0.32425,51.24093],[-0.32849,51.25401],[-0.33323,51.29882],[-0.30757,51.31787],[-0.26878,51.33439],[-0.24153,51.3453],[-0.21417,51.35548],[-0.19121,51.35953],[-0.1698,51.35741],[-0.15083,51.36039],[-0.11734,51.3674],[-0.10258,51.37843],[-0.0883,51.39193],[-0.12193,51.41145],[-0.13601,51.41873],[-0.15242,51.44323],[-0.16339,51.44619],[-0.17029,51.46419],[-0.14753,51.47696],[-0.14456,51.49526]],[[-0.23895,51.32369],[-0.21316,51.32935],[-0.19885,51.34382],[-0.19121,51.35953],[-0.1698,51.35741],[-0.15083,51.36039],[-0.11734,51.3674],[-0.10258,51.37843],[-0.07522,51.39702],[-0.07261,51.41811],[-0.08384,51.42445],[-0.10383,51.43175],[-0.12716,51.43819],[-0.15242,51.44323],[-0.16339,51.44619],[-0.17029,51.46419],[-0.14753,51.47696],[-0.14456,51.49526]],[[-0.07522,51.39702],[-0.06589,51.41215],[-0.06084,51.41756],[-0.05424,51.42725],[-0.05316,51.43928],[-0.0455,51.44999],[-0.03754,51.46465],[-0.0404,51.47513],[-0.08609,51.50502]],[[0.09638,50.96874],[0.13144,50.99001],[0.18801,51.04638],[0.20143,51.08897],[0.15265,51.12866],[0.11003,51.15564],[0.09507,51.18141],[0.06717,51.20008],[0.00394,51.24443],[-0.00483,51.25791]],[[-0.0179,51.12627],[-0.00431,51.15579],[-0.00716,51.17645],[0.00394,51.24443],[-0.00483,51.25791]],[[-0.14128,50.82901],[-0.17069,50.83522],[-0.20534,50.83568],[-0.27172,50.83443],[-0.32311,50.82708],[-0.37617,50.8185],[-0.39298,50.81835],[-0.41147,50.81753],[-0.43308,50.81772],[-0.48939,50.81658],[-0.54599,50.81011],[-0.31927,51.06607],[-0.18667,51.11221],[-0.16118,51.11692],[-0.16105,51.16878],[-0.16249,51.20175],[-0.17082,51.22733],[-0.1659,51.2402],[-0.15023,51.26415],[-0.13789,51.31584],[-0.11403,51.33758],[-0.09886,51.34705],[-0.09346,51.36297],[-0.09278,51.37545],[-0.0883,51.39193],[-0.12193,51.41145],[-0.13601,51.41873],[-0.15242,51.44323],[-0.16339,51.44619],[-0.17029,51.46419],[-0.14753,51.47696],[-0.14456,51.49526]],[[0.27097,51.19141],[0.2105,51.1939],[0.06065,51.20844],[-0.05008,51.21816],[-0.13253,51.22681],[-0.1659,51.2402],[-0.15023,51.26415],[-0.13789,51.31584],[-0.11403,51.33758],[-0.09886,51.34705],[-0.09346,51.36297],[-0.09278,51.37545],[-0.0883,51.39193],[-0.12193,51.41145],[-0.13601,51.41873],[-0.15242,51.44323],[-0.16339,51.44619],[-0.17029,51.46419],[-0.14753,51.47696],[-0.14456,51.49526]],[[-0.1659,51.2402],[-0.20382,51.24196]],[[-0.09278,51.37545],[-0.0883,51.39193],[-0.12193,51.41145],[-0.13601,51.41873],[-0.15242,51.44323],[-0.16339,51.44619],[-0.17029,51.46419],[-0.18282,51.47495],[-0.19559,51.48706],[-0.21036,51.4979],[-0.21765,51.50529],[-0.29643,51.55233],[-0.33457,51.59217],[-0.39592,51.66391]],[[-1.10784,50.79696],[-1.09091,50.7985],[-1.07398,50.79634],[-1.0588,50.82828],[-0.99583,50.85396],[-0.98161,50.85443],[-0.93843,50.85161],[-0.90811,50.84828],[-0.84743,50.84275],[-0.81508,50.83905],[-0.78175,50.83205],[-0.63968,50.83091],[-0.57841,50.82939],[-0.54599,50.81011],[-0.54617,50.84822],[-0.54199,50.89668],[-0.51656,50.95736],[-0.4503,51.0152],[-0.36356,51.05069],[-0.31927,51.06607],[-0.30798,51.07975],[-0.26302,51.09589],[-0.21477,51.11562],[-0.18667,51.11221],[-0.16118,51.11692],[-0.16105,51.16878],[-0.16249,51.20175],[-0.17082,51.22733],[-0.1659,51.2402],[-0.15023,51.26415],[-0.13789,51.31584],[-0.11403,51.33758],[-0.09886,51.34705],[-0.09346,51.36297],[-0.09278,51.37545],[-0.0883,51.39193],[-0.12193,51.41145],[-0.13601,51.41873],[-0.15242,51.44323],[-0.16339,51.44619],[-0.17029,51.46419],[-0.14753,51.47696],[-0.14456,51.49526]],[[-1.12424,50.84875],[-1.06733,50.84192],[-0.99583,50.85396],[-0.98161,50.85443],[-0.93843,50.85161],[-0.90811,50.84828],[-0.84743,50.84275],[-0.81508,50.83905],[-0.78175,50.83205],[-0.63968,50.83091],[-0.57841,50.82939],[-0.54599,50.81011],[-0.54617,50.84822],[-0.54199,50.89668],[-0.51656,50.95736],[-0.4503,51.0152],[-0.36356,51.05069],[-0.31927,51.06607],[-0.30798,51.07975],[-0.26302,51.09589],[-0.21477,51.11562],[-0.18667,51.11221],[-0.16118,51.11692],[-0.16105,51.16878],[-0.16249,51.20175],[-0.17082,51.22733],[-0.1659,51.2402],[-0.15023,51.26415],[-0.13789,51.31584],[-0.11403,51.33758],[-0.09886,51.34705],[-0.09346,51.36297],[-0.09278,51.37545]],[[-0.67618,50.78656],[-0.63968,50.83091],[-0.57841,50.82939],[-0.54599,50.81011],[-0.54617,50.84822],[-0.54199,50.89668],[-0.51656,50.95736],[-0.4503,51.0152],[-0.36356,51.05069],[-0.31927,51.06607],[-0.30798,51.07975],[-0.26302,51.09589],[-0.21477,51.11562],[-0.18667,51.11221],[-0.16118,51.11692],[-0.16105,51.16878],[-0.16249,51.20175],[-0.17082,51.22733],[-0.1659,51.2402],[-0.15023,51.26415],[-0.13789,51.31584],[-0.11403,51.33758],[-0.09886,51.34705],[-0.09346,51.36297],[-0.09278,51.37545],[-0.0883,51.39193],[-0.12193,51.41145],[-0.13601,51.41873],[-0.15242,51.44323],[-0.16339,51.44619],[-0.17029,51.46419],[-0.14753,51.47696],[-0.14456,51.49526]],[[-0.67618,50.78656],[-0.63968,50.83091],[-0.57841,50.82939],[-0.54599,50.81011],[-0.54617,50.84822],[-0.54199,50.89668],[-0.51656,50.95736],[-0.4503,51.0152],[-0.36356,51.05069],[-0.31927,51.06607],[-0.30798,51.07975],[-0.26302,51.09589],[-0.21477,51.11562],[-0.18667,51.11221],[-0.16118,51.11692],[-0.16105,51.16878],[-0.16249,51.20175],[-0.17082,51.22733],[-0.1659,51.2402],[-0.15023,51.26415],[-0.13789,51.31584],[-0.11403,51.33758],[-0.09886,51.34705],[-0.09346,51.36297],[-0.09278,51.37545],[-0.07522,51.39702],[-0.0404,51.47513],[-0.08609,51.50502]],[[-1.10784,50.79696],[-1.09091,50.7985],[-1.07398,50.79634],[-1.0588,50.82828],[-0.99583,50.85396],[-0.98161,50.85443],[-0.93843,50.85161],[-0.90811,50.84828],[-0.84743,50.84275],[-0.81508,50.83905],[-0.78175,50.83205],[-0.63968,50.83091],[-0.57841,50.82939],[-0.54599,50.81011],[-0.48939,50.81658],[-0.43308,50.81772],[-0.41147,50.81753],[-0.39298,50.81835],[-0.37617,50.8185],[-0.35489,50.82165],[-0.32311,50.82708],[-0.27172,50.83443],[-0.23596,50.83252],[-0.20534,50.83568],[-0.18136,50.83636],[-0.17069,50.83522],[-0.15517,50.84594],[-0.14595,50.92462],[-0.12079,50.9643],[-0.10508,51.00568],[-0.13693,51.05552],[-0.16118,51.11692],[-0.16105,51.16878],[-0.16249,51.20175],[-0.17082,51.22733],[-0.1659,51.2402],[-0.15023,51.26415],[-0.13789,51.31584],[-0.11403,51.33758],[-0.09346,51.36297],[-0.09278,51.37545],[-0.0883,51.39193],[-0.13601,51.41873],[-0.17029,51.46419],[-0.14753,51.47696],[-0.14456,51.49526]],[[-1.12424,50.84875],[-1.06733,50.84192],[-0.99583,50.85396],[-0.98161,50.85443],[-0.93843,50.85161],[-0.90811,50.84828],[-0.84743,50.84275],[-0.81508,50.83905],[-0.78175,50.83205],[-0.63968,50.83091],[-0.57841,50.82939],[-0.54599,50.81011],[-0.48939,50.81658],[-0.43308,50.81772],[-0.41147,50.81753],[-0.39298,50.81835],[-0.37617,50.8185],[-0.35489,50.82165],[-0.32311,50.82708],[-0.27172,50.83443],[-0.23596,50.83252],[-0.20534,50.83568],[-0.18136,50.83636],[-0.17069,50.83522],[-0.14128,50.82901]],[[-1.10784,50.79696],[-1.09091,50.7985],[-1.07398,50.79634],[-1.0588,50.82828],[-0.99583,50.85396],[-0.98161,50.85443],[-0.93843,50.85161],[-0.90811,50.84828],[-0.84743,50.84275],[-0.81508,50.83905],[-0.78175,50.83205],[-0.63968,50.83091],[-0.57841,50.82939],[-0.54599,50.81011],[-0.48939,50.81658],[-0.43308,50.81772],[-0.41147,50.81753],[-0.39298,50.81835],[-0.37617,50.8185],[-0.35489,50.82165],[-0.32311,50.82708],[-0.27172,50.83443],[-0.23596,50.83252],[-0.20534,50.83568],[-0.18136,50.83636],[-0.17069,50.83522],[-0.14128,50.82901]],[[-0.14128,50.82901],[-0.17069,50.83522],[-0.15517,50.84594],[-0.14595,50.92462],[-0.12079,50.9643],[-0.10508,51.00568],[-0.13693,51.05552],[-0.16118,51.11692],[-0.16105,51.16878],[-0.16249,51.20175],[-0.17082,51.22733],[-0.1659,51.2402],[-0.15023,51.26415],[-0.13789,51.31584],[-0.11403,51.33758],[-0.09346,51.36297],[-0.09278,51.37545],[-0.07522,51.39702],[-0.17029,51.46419],[-0.14753,51.47696],[-0.14456,51.49526]],[[-0.14128,50.82901],[-0.17069,50.83522],[-0.15517,50.84594],[-0.14595,50.92462],[-0.12079,50.9643],[-0.10508,51.00568],[-0.13693,51.05552],[-0.16118,51.11692],[-0.16105,51.16878],[-0.16249,51.20175],[-0.17082,51.22733],[-0.1659,51.2402],[-0.15023,51.26415],[-0.13789,51.31584],[-0.11403,51.33758],[-0.09346,51.36297],[-0.09278,51.37545],[-0.07522,51.39702],[-0.08609,51.50502]],[[-0.67618,50.78656],[-0.63968,50.83091],[-0.57841,50.82939],[-0.54599,50.81011],[-0.48939,50.81658],[-0.43308,50.81772],[-0.41147,50.81753],[-0.39298,50.81835],[-0.37617,50.8185],[-0.35489,50.82165],[-0.32311,50.82708],[-0.27172,50.83443],[-0.23596,50.83252],[-0.20534,50.83568],[-0.18136,50.83636],[-0.17069,50.83522],[-0.14128,50.82901]],[[-1.10784,50.79696],[-1.09091,50.7985],[-1.07398,50.79634],[-1.0588,50.82828],[-0.99583,50.85396],[-0.98161,50.85443],[-0.93843,50.85161],[-0.90811,50.84828],[-0.84743,50.84275],[-0.81508,50.83905],[-0.78175,50.83205],[-0.63968,50.83091],[-0.67618,50.78656]],[[0.7307,50.95237],[0.70226,50.93377],[0.60998,50.91859],[0.6127,50.90117],[0.59157,50.86695],[0.57674,50.8579],[0.56028,50.8557],[0.47702,50.84104],[0.45786,50.83929],[0.34291,50.81746],[0.32481,50.8158],[0.27936,50.79641],[0.28125,50.76938],[0.27936,50.79641],[0.24514,50.82125],[0.16602,50.84038],[0.01133,50.87063],[-0.08738,50.86213],[-0.11884,50.84672],[-0.1365,50.83666],[-0.14128,50.82901],[-0.17069,50.83522],[-0.15517,50.84594],[-0.14595,50.92462],[-0.12079,50.9643],[-0.10508,51.00568],[-0.13693,51.05552],[-0.16118,51.11692],[-0.16105,51.16878],[-0.16249,51.20175],[-0.17082,51.22733],[-0.1659,51.2402],[-0.15023,51.26415],[-0.13789,51.31584],[-0.11403,51.33758],[-0.09278,51.37545],[-0.0883,51.39193],[-0.17029,51.46419],[-0.14456,51.49526]],[[0.7307,50.95237],[0.70226,50.93377],[0.60998,50.91859],[0.6127,50.90117],[0.59157,50.86695],[0.57674,50.8579],[0.56028,50.8557],[0.47702,50.84104],[0.45786,50.83929],[0.34291,50.81746],[0.32481,50.8158],[0.27936,50.79641],[0.28125,50.76938],[0.27936,50.79641],[0.24514,50.82125],[0.16602,50.84038],[0.01133,50.87063],[-0.08738,50.86213],[-0.11884,50.84672],[-0.1365,50.83666],[-0.14128,50.82901],[-0.17069,50.83522],[-0.15517,50.84594],[-0.14595,50.92462],[-0.12079,50.9643],[-0.10508,51.00568],[-0.13693,51.05552],[-0.16118,51.11692],[-0.16105,51.16878],[-0.16249,51.20175],[-0.17082,51.22733],[-0.1659,51.2402],[-0.15023,51.26415],[-0.13789,51.31584],[-0.11403,51.33758],[-0.09278,51.37545],[-0.08609,51.50502]],[[0.10013,50.77284],[0.08276,50.78014],[0.05499,50.78979],[0.05495,50.79486],[0.03064,50.83127],[0.01133,50.87063],[-0.08738,50.86213],[-0.11884,50.84672],[-0.1365,50.83666],[-0.14128,50.82901],[-0.17069,50.83522],[-0.15517,50.84594],[-0.14595,50.92462],[-0.12079,50.9643]]]}},{"type":"Feature","properties":{"line":"south-western-railway","name":"South Western Railway","colour":"#55595C"},"geometry":{"type":"MultiLineString","coordinates":[[[-0.97186,51.45879],[-0.91799,51.4411],[-0.89133,51.43674],[-0.87686,51.43028],[-0.84254,51.41122],[-0.7517,51.41309],[-0.7244,51.40741],[-0.67583,51.40624],[-0.63304,51.39194],[-0.59457,51.38517],[-0.56217,51.4018],[-0.54651,51.42965],[-0.50316,51.43246],[-0.46807,51.43651],[-0.40984,51.4479],[-0.36228,51.46195],[-0.33691,51.47476],[-0.32484,51.48179],[-0.30965,51.48755],[-0.28711,51.48951],[-0.26783,51.48114],[-0.25263,51.47201],[-0.24216,51.46709],[-0.21647,51.4613],[-0.18812,51.46105],[-0.17022,51.46419],[-0.12289,51.48619],[-0.11311,51.5033]],[[-0.79243,51.21191],[-0.75986,51.24642],[-0.72165,51.27225],[-0.74699,51.31186],[-0.74427,51.33633],[-0.68866,51.36437],[-0.67583,51.40624],[-0.63304,51.39194],[-0.59457,51.38517],[-0.56217,51.4018],[-0.54651,51.42965],[-0.50316,51.43246],[-0.46807,51.43651],[-0.40984,51.4479],[-0.35768,51.44961],[-0.33039,51.45003],[-0.3202,51.45524],[-0.30156,51.46306],[-0.26711,51.46809],[-0.24216,51.46709],[-0.21647,51.4613],[-0.18812,51.46105],[-0.17022,51.46419],[-0.12289,51.48619],[-0.11311,51.5033]],[[-0.55696,51.31847],[-0.50548,51.33923],[-0.48139,51.3498],[-0.48446,51.37305],[-0.50932,51.38707],[-0.56217,51.4018],[-0.54651,51.42965],[-0.50316,51.43246],[-0.46807,51.43651],[-0.40984,51.4479],[-0.36228,51.46195],[-0.33691,51.47476],[-0.32484,51.48179],[-0.30965,51.48755],[-0.28711,51.48951],[-0.26783,51.48114],[-0.25263,51.47201],[-0.24216,51.46709],[-0.21647,51.4613],[-0.18812,51.46105],[-0.17022,51.46419],[-0.12289,51.48619],[-0.11311,51.5033]],[[-0.45774,51.36177],[-0.48446,51.37305],[-0.50932,51.38707],[-0.56217,51.4018],[-0.54651,51.42965],[-0.50316,51.43246],[-0.46807,51.43651],[-0.40984,51.4479],[-0.36228,51.46195],[-0.33691,51.47476],[-0.32484,51.48179],[-0.30965,51.48755],[-0.28711,51.48951],[-0.26783,51.48114],[-0.25263,51.47201],[-0.24216,51.46709],[-0.21647,51.4613],[-0.18812,51.46105],[-0.17022,51.46419],[-0.12289,51.48619],[-0.11311,51.5033]],[[-0.60653,51.48565],[-0.57942,51.48308],[-0.55937,51.47029],[-0.54192,51.45771],[-0.50316,51.43246],[-0.46807,51.43651],[-0.40984,51.4479],[-0.36228,51.46195],[-0.33691,51.47476],[-0.32484,51.48179],[-0.30965,51.48755],[-0.28711,51.48951],[-0.26783,51.48114],[-0.25263,51.47201],[-0.24216,51.46709],[-0.21647,51.4613],[-0.18812,51.46105],[-0.17022,51.46419],[-0.12289,51.48619],[-0.11311,51.5033]],[[-0.44679,51.39681],[-0.43091,51.41307],[-0.41778,51.41831],[-0.40975,51.42098],[-0.37212,51.41593],[-0.34947,51.43394],[-0.33936,51.43896],[-0.33039,51.45003],[-0.3202,51.45524],[-0.30156,51.46306],[-0.26711,51.46809],[-0.24216,51.46709],[-0.21647,51.4613],[-0.18812,51.46105],[-0.17022,51.46419],[-0.12289,51.48619],[-0.11311,51.5033]],[[-0.33039,51.45003],[-0.33936,51.43896],[-0.33271,51.42448],[-0.31249,51.41452],[-0.30117,51.41275],[-0.28403,51.41236],[-0.25594,51.40408],[-0.23015,51.40917],[-0.20638,51.42122],[-0.18771,51.44234],[-0.17029,51.46419],[-0.12289,51.48619],[-0.11311,51.5033]],[[-0.58042,51.23697],[-0.66759,51.24452],[-0.7128,51.2496],[-0.75986,51.24642],[-0.72165,51.27225],[-0.74699,51.31186],[-0.74427,51.33633],[-0.68866,51.36437],[-0.67583,51.40624]],[[-0.58042,51.23697],[-0.66759,51.24452],[-0.7128,51.2496],[-0.75986,51.24642],[-0.79243,51.21191]],[[-0.11311,51.5033],[-0.12289,51.48619],[-0.17022,51.46419],[-0.18812,51.46105],[-0.21647,51.4613],[-0.24216,51.46709],[-0.26711,51.46809],[-0.30156,51.46306],[-0.3202,51.45524],[-0.33039,51.45003],[-0.35768,51.44961],[-0.36228,51.46195],[-0.33691,51.47476],[-0.32484,51.48179],[-0.30965,51.48755],[-0.28711,51.48951],[-0.26783,51.48114],[-0.25263,51.47201],[-0.24216,51.46709],[-0.21647,51.4613],[-0.18812,51.46105],[-0.17022,51.46419],[-0.12289,51.48619],[-0.11311,51.5033]],[[-0.30117,51.41275],[-0.31249,51.41452],[-0.33271,51.42448],[-0.33936,51.43896],[-0.33039,51.45003],[-0.35768,51.44961],[-0.36228,51.46195],[-0.33691,51.47476],[-0.32484,51.48179],[-0.30965,51.48755],[-0.28711,51.48951],[-0.26783,51.48114],[-0.25263,51.47201],[-0.24216,51.46709],[-0.21647,51.4613],[-0.18812,51.46105],[-0.17022,51.46419],[-0.12289,51.48619],[-0.11311,51.5033]],[[-0.58042,51.23697],[-0.56507,51.24065],[-0.50277,51.26401],[-0.43541,51.27935],[-0.41996,51.2915],[-0.38402,51.28874],[-0.33323,51.29882],[-0.30757,51.31787],[-0.26878,51.33439],[-0.25699,51.35005],[-0.24866,51.3634],[-0.24517,51.38125],[-0.23953,51.3952],[-0.23015,51.40917],[-0.20638,51.42122],[-0.18771,51.44234],[-0.17029,51.46419],[-0.12289,51.48619],[-0.11311,51.5033]],[[-0.44679,51.39681],[-0.43091,51.41307],[-0.41778,51.41831],[-0.40975,51.42098],[-0.37212,51.41593],[-0.34947,51.43394],[-0.33271,51.42448],[-0.31249,51.41452],[-0.30117,51.41275],[-0.28403,51.41236],[-0.25594,51.40408],[-0.23015,51.40917],[-0.20638,51.42122],[-0.18771,51.44234],[-0.17029,51.46419],[-0.12289,51.48619],[-0.11311,51.5033]],[[-0.32425,51.24093],[-0.32849,51.25401],[-0.33323,51.29882],[-0.30757,51.31787],[-0.26878,51.33439],[-0.25699,51.35005],[-0.24866,51.3634],[-0.24517,51.38125],[-0.23953,51.3952],[-0.23015,51.40917],[-0.20638,51.42122],[-0.18771,51.44234],[-0.17029,51.46419],[-0.12289,51.48619],[-0.11311,51.5033]],[[-0.30816,51.35655],[-0.3007,51.36404],[-0.27946,51.37686],[-0.26127,51.38473],[-0.23953,51.3952],[-0.23015,51.40917],[-0.20638,51.42122],[-0.18771,51.44234],[-0.17029,51.46419],[-0.12289,51.48619],[-0.11311,51.5033]],[[-0.34275,51.40256],[-0.33915,51.3891],[-0.30396,51.39246],[-0.28071,51.39905],[-0.23015,51.40917],[-0.20638,51.42122],[-0.18771,51.44234],[-0.17029,51.46419],[-0.12289,51.48619],[-0.11311,51.5033]],[[-0.96691,51.15197],[-0.86813,51.18123],[-0.79243,51.21191]],[[-0.11311,51.5033],[-0.12289,51.48619],[-0.17022,51.46419],[-0.18812,51.46105],[-0.21647,51.4613],[-0.24216,51.46709],[-0.26711,51.46809],[-0.28788,51.46516],[-0.30156,51.46306],[-0.3202,51.45524],[-0.33039,51.45003],[-0.33936,51.43896],[-0.33271,51.42448],[-0.31249,51.41452],[-0.30117,51.41275],[-0.28403,51.41236],[-0.25594,51.40408],[-0.23015,51.40917],[-0.20638,51.42122],[-0.18771,51.44234],[-0.17029,51.46419],[-0.12289,51.48619],[-0.11311,51.5033]],[[-0.11311,51.5033],[-0.12289,51.48619],[-0.17022,51.46419],[-0.18812,51.46105],[-0.21647,51.4613],[-0.24216,51.46709],[-0.26711,51.46809],[-0.30156,51.46306],[-0.3202,51.45524],[-0.33039,51.45003],[-0.33936,51.43896],[-0.33271,51.42448],[-0.31249,51.41452],[-0.30117,51.41275],[-0.31249,51.41452],[-0.33271,51.42448],[-0.34947,51.43394],[-0.37212,51.41593],[-0.40975,51.42098],[-0.41778,51.41831],[-0.43091,51.41307],[-0.44679,51.39681]],[[-0.11311,51.5033],[-0.12289,51.48619],[-0.17022,51.46419],[-0.18812,51.46105],[-0.21647,51.4613],[-0.24216,51.46709],[-0.26711,51.46809],[-0.30156,51.46306],[-0.3202,51.45524],[-0.33039,51.45003],[-0.33936,51.43896],[-0.33271,51.42448],[-0.31249,51.41452],[-0.30117,51.41275],[-0.31249,51.41452],[-0.33271,51.42448],[-0.33936,51.43896],[-0.33039,51.45003]],[[-1.08726,51.26836],[-0.90698,51.28495],[-0.83081,51.29064],[-0.75544,51.29669],[-0.63575,51.30376],[-0.55696,51.31847],[-0.50548,51.33923],[-0.48139,51.3498],[-0.45774,51.36177],[-0.41463,51.37293],[-0.38996,51.37681],[-0.35334,51.37989],[-0.30396,51.39246],[-0.28071,51.39905],[-0.23015,51.40917],[-0.20638,51.42122],[-0.17022,51.46419],[-0.12289,51.48619],[-0.11311,51.5033]],[[-0.96691,51.15197],[-0.86813,51.18123],[-0.79243,51.21191],[-0.75986,51.24642],[-0.72165,51.27225],[-0.63575,51.30376],[-0.55696,51.31847],[-0.50548,51.33923],[-0.48139,51.3498],[-0.45774,51.36177],[-0.41463,51.37293],[-0.38996,51.37681],[-0.35334,51.37989],[-0.30396,51.39246],[-0.28071,51.39905],[-0.23015,51.40917],[-0.20638,51.42122],[-0.17022,51.46419],[-0.12289,51.48619],[-0.11311,51.5033]],[[-0.58042,51.23697],[-0.55696,51.31847],[-0.50548,51.33923],[-0.48139,51.3498],[-0.45774,51.36177],[-0.41463,51.37293],[-0.38996,51.37681],[-0.35334,51.37989],[-0.30396,51.39246],[-0.28071,51.39905],[-0.23015,51.40917],[-0.20638,51.42122],[-0.18771,51.44234],[-0.17029,51.46419],[-0.12289,51.48619],[-0.11311,51.5033]],[[-1.12424,50.84875],[-1.06733,50.84192],[-0.99583,50.85396],[-0.98161,50.85443],[-0.95747,50.89217],[-0.94114,51.00673],[-0.89287,51.04357],[-0.80023,51.07132],[-0.71916,51.08865],[-0.64578,51.13316],[-0.63695,51.16332],[-0.61886,51.18659],[-0.60455,51.19715],[-0.58042,51.23697],[-0.58258,51.28902],[-0.55696,51.31847],[-0.50548,51.33923],[-0.48139,51.3498],[-0.45774,51.36177],[-0.41463,51.37293],[-0.38996,51.37681],[-0.35334,51.37989],[-0.30396,51.39246],[-0.28071,51.39905],[-0.23015,51.40917],[-0.20638,51.42122],[-0.18771,51.44234],[-0.17022,51.46419],[-0.12289,51.48619],[-0.11311,51.5033]],[[-1.10784,50.79696],[-1.09091,50.7985],[-1.07398,50.79634],[-1.0588,50.82828],[-0.99583,50.85396],[-0.98161,50.85443],[-0.95747,50.89217],[-0.94114,51.00673],[-0.89287,51.04357],[-0.80023,51.07132],[-0.71916,51.08865],[-0.64578,51.13316],[-0.63695,51.16332],[-0.61886,51.18659],[-0.60455,51.19715],[-0.58042,51.23697],[-0.58258,51.28902],[-0.55696,51.31847],[-0.50548,51.33923],[-0.48139,51.3498],[-0.45774,51.36177],[-0.41463,51.37293],[-0.38996,51.37681],[-0.35334,51.37989],[-0.30396,51.39246],[-0.28071,51.39905],[-0.23015,51.40917],[-0.20638,51.42122],[-0.17022,51.46419],[-0.12289,51.48619],[-0.11311,51.5033]],[[-1.08726,51.26836],[-0.90698,51.28495],[-0.83081,51.29064],[-0.75544,51.29669],[-0.63575,51.30376],[-0.55696,51.31847],[-0.50548,51.33923],[-0.45774,51.36177],[-0.41463,51.37293],[-0.38996,51.37681],[-0.35334,51.37989],[-0.30396,51.39246],[-0.20638,51.42122],[-0.18771,51.44234],[-0.17029,51.46419],[-0.12289,51.48619],[-0.11311,51.5033]],[[-1.10784,50.79696],[-1.09091,50.7985],[-1.07398,50.79634],[-1.0588,50.82828],[-1.06733,50.84192],[-1.12424,50.84875]],[[-1.08726,51.26836],[-0.90698,51.28495],[-0.83081,51.29064],[-0.75544,51.29669],[-0.63575,51.30376],[-0.55696,51.31847],[-0.50548,51.33923],[-0.45774,51.36177],[-0.41463,51.37293],[-0.38996,51.37681],[-0.35334,51.37989],[-0.30396,51.39246],[-0.20638,51.42122],[-0.18771,51.44234],[-0.17029,51.46419],[-0.12289,51.48619],[-0.11311,51.5033]],[[-1.08726,51.26836],[-0.90698,51.28495],[-0.83081,51.29064],[-0.75544,51.29669],[-0.63575,51.30376],[-0.55696,51.31847],[-0.50548,51.33923],[-0.45774,51.36177],[-0.41463,51.37293],[-0.38996,51.37681],[-0.35334,51.37989],[-0.30396,51.39246],[-0.20638,51.42122],[-0.18771,51.44234],[-0.17029,51.46419],[-0.12289,51.48619],[-0.11311,51.5033]],[[-1.08726,51.26836],[-0.83081,51.29064],[-0.75544,51.29669],[-0.55696,51.31847],[-0.30396,51.39246],[-0.25594,51.40408],[-0.20638,51.42122],[-0.17029,51.46419],[-0.11311,51.5033]],[[-1.08726,51.26836],[-0.83081,51.29064],[-0.75544,51.29669],[-0.55696,51.31847],[-0.30396,51.39246],[-0.25594,51.40408],[-0.20638,51.42122],[-0.17029,51.46419],[-0.11311,51.5033]],[[-1.08726,51.26836],[-0.83081,51.29064],[-0.75544,51.29669],[-0.55696,51.31847],[-0.20638,51.42122],[-0.17029,51.46419],[-0.11311,51.5033]],[[-1.08726,51.26836],[-0.83081,51.29064],[-0.75544,51.29669],[-0.55696,51.31847],[-0.20638,51.42122]],[[-1.10784,50.79696],[-1.09091,50.7985],[-1.07398,50.79634],[-1.0588,50.82828],[-1.06733,50.84192],[-1.12424,50.84875]],[[-1.10784,50.79696],[-1.09091,50.7985],[-1.07398,50.79634],[-1.0588,50.82828],[-1.06733,50.84192],[-1.12424,50.84875]]]}}]}