{
  "type": "FeatureCollection",
  "features": [
    {
      "type": "Feature",
      "properties": {
        "id": "regents-canal",
        "loop": false
      },
      "geometry": {
        "type": "MultiLineString",
        "coordinates": [
          [
            [
              -0.102648,
              51.5331679
            ],
            [
              -0.0994889,
              51.5327252
            ],
            [
              -0.0983508,
              51.5326292
            ],
            [
              -0.0977103,
              51.5327157
            ],
            [
              -0.0961275,
              51.5331333
            ],
            [
              -0.0928123,
              51.5344327
            ],
            [
              -0.0894757,
              51.5359524
            ],
            [
              -0.0873119,
              51.5370304
            ],
            [
              -0.0863187,
              51.5372596
            ],
            [
              -0.0845399,
              51.537484
            ],
            [
              -0.0744097,
              51.5362107
            ],
            [
              -0.0680912,
              51.5356845
            ],
            [
              -0.0626084,
              51.5355599
            ],
            [
              -0.061692,
              51.5353125
            ],
            [
              -0.0603748,
              51.5342989
            ],
            [
              -0.0594298,
              51.5341106
            ],
            [
              -0.05865,
              51.5341211
            ],
            [
              -0.0577533,
              51.5342807
            ],
            [
              -0.0552399,
              51.5350785
            ],
            [
              -0.0545129,
              51.5351731
            ],
            [
              -0.0538442,
              51.5351403
            ],
            [
              -0.0528125,
              51.5349294
            ],
            [
              -0.0461236,
              51.532682
            ],
            [
              -0.0431006,
              51.5312001
            ],
            [
              -0.0425331,
              51.5307836
            ],
            [
              -0.039241,
              51.5263092
            ],
            [
              -0.0379695,
              51.5251851
            ],
            [
              -0.036819,
              51.5240249
            ],
            [
              -0.0365447,
              51.5232782
            ],
            [
              -0.0363249,
              51.5202402
            ],
            [
              -0.0361071,
              51.5188785
            ],
            [
              -0.035755,
              51.5185202
            ],
            [
              -0.0340646,
              51.5172166
            ],
            [
              -0.033804,
              51.5168244
            ],
            [
              -0.0337445,
              51.5164412
            ],
            [
              -0.033791,
              51.5162598
            ],
            [
              -0.0340959,
              51.5157121
            ],
            [
              -0.036144,
              51.5133466
            ],
            [
              -0.0367767,
              51.5116125
            ],
            [
              -0.0367264,
              51.5115273
            ],
            [
              -0.0359872,
              51.5114741
            ],
            [
              -0.0351604,
              51.5112706
            ],
            [
              -0.0358005,
              51.5107186
            ],
            [
              -0.0381791,
              51.5089856
            ],
            [
              -0.0382351,
              51.5084941
            ]
          ],
          [
            [
              -0.182827,
              51.5213282
            ],
            [
              -0.1770964,
              51.5244874
            ],
            [
              -0.1738787,
              51.5260377
            ],
            [
              -0.1732769,
              51.5262321
            ],
            [
              -0.1698286,
              51.526761
            ],
            [
              -0.1690203,
              51.5270485
            ],
            [
              -0.1681578,
              51.5275176
            ],
            [
              -0.1674557,
              51.5281474
            ],
            [
              -0.166271,
              51.5296006
            ],
            [
              -0.1660526,
              51.5316452
            ],
            [
              -0.165882,
              51.5320244
            ],
            [
              -0.1645708,
              51.5336035
            ],
            [
              -0.1637135,
              51.5343509
            ],
            [
              -0.1612751,
              51.5353011
            ],
            [
              -0.1558298,
              51.5366745
            ],
            [
              -0.1519802,
              51.5372581
            ],
            [
              -0.1518836,
              51.5373525
            ],
            [
              -0.1516629,
              51.5382321
            ],
            [
              -0.1512571,
              51.5387949
            ],
            [
              -0.1502546,
              51.5396792
            ],
            [
              -0.1495297,
              51.5400814
            ],
            [
              -0.1483973,
              51.540453
            ],
            [
              -0.1464404,
              51.5408009
            ],
            [
              -0.1454402,
              51.5412174
            ],
            [
              -0.1435026,
              51.5417906
            ],
            [
              -0.1428766,
              51.5417576
            ],
            [
              -0.1407758,
              51.5408997
            ],
            [
              -0.139523,
              51.5411618
            ],
            [
              -0.1382259,
              51.5407205
            ],
            [
              -0.1366636,
              51.5407981
            ],
            [
              -0.1333487,
              51.5390434
            ],
            [
              -0.1324686,
              51.5383369
            ],
            [
              -0.1303437,
              51.5373611
            ],
            [
              -0.1287288,
              51.5369137
            ],
            [
              -0.1282105,
              51.5365944
            ],
            [
              -0.12801,
              51.5362703
            ],
            [
              -0.1267769,
              51.5349063
            ],
            [
              -0.1264026,
              51.5347092
            ],
            [
              -0.1256013,
              51.53471
            ],
            [
              -0.1225616,
              51.5354992
            ],
            [
              -0.1149929,
              51.5347942
            ]
          ],
          [
            [
              -0.0643127,
              51.5356294
            ],
            [
              -0.0640442,
              51.5355671
            ],
            [
              -0.0632205,
              51.5355958
            ]
          ],
          [
            [
              -0.1452087,
              51.5412639
            ],
            [
              -0.1461822,
              51.5408809
            ]
          ]
        ]
      }
    },
    {
      "type": "Feature",
      "properties": {
        "id": "hyde-kensington",
        "loop": true
      },
      "geometry": {
        "type": "MultiLineString",
        "coordinates": [
          [
            [
              -0.1586827,
              51.512123
            ],
            [
              -0.1583946,
              51.5114907
            ],
            [
              -0.158005,
              51.5109028
            ],
            [
              -0.1571669,
              51.5098377
            ],
            [
              -0.1567126,
              51.509472
            ],
            [
              -0.1566225,
              51.5093145
            ],
            [
              -0.1556993,
              51.5089021
            ],
            [
              -0.1553228,
              51.5086484
            ],
            [
              -0.1548743,
              51.5081893
            ],
            [
              -0.1543794,
              51.5078827
            ],
            [
              -0.1529085,
              51.5066691
            ],
            [
              -0.1523749,
              51.5061317
            ],
            [
              -0.152169,
              51.5057558
            ],
            [
              -0.1522736,
              51.5057432
            ],
            [
              -0.1523237,
              51.5050965
            ],
            [
              -0.152174,
              51.5050823
            ],
            [
              -0.1521842,
              51.5048857
            ],
            [
              -0.152425,
              51.5042771
            ],
            [
              -0.1525189,
              51.5042063
            ],
            [
              -0.1522317,
              51.5040063
            ],
            [
              -0.1514603,
              51.5039157
            ],
            [
              -0.1512785,
              51.5035206
            ],
            [
              -0.1514099,
              51.503493
            ],
            [
              -0.1516798,
              51.5039569
            ],
            [
              -0.1521334,
              51.5038553
            ],
            [
              -0.1519621,
              51.5033331
            ],
            [
              -0.15266,
              51.5031452
            ],
            [
              -0.1533764,
              51.5031285
            ],
            [
              -0.1552983,
              51.502767
            ],
            [
              -0.1564951,
              51.5024468
            ],
            [
              -0.1565021,
              51.5026319
            ],
            [
              -0.1575946,
              51.5027148
            ],
            [
              -0.1584,
              51.502653
            ],
            [
              -0.158387,
              51.5025805
            ],
            [
              -0.1586518,
              51.5025655
            ],
            [
              -0.1587076,
              51.5026243
            ],
            [
              -0.1605523,
              51.5025104
            ],
            [
              -0.1605176,
              51.5024007
            ],
            [
              -0.160668,
              51.5023959
            ],
            [
              -0.160692,
              51.5024971
            ],
            [
              -0.1621466,
              51.5023987
            ],
            [
              -0.1621364,
              51.5022983
            ],
            [
              -0.1622557,
              51.5022864
            ],
            [
              -0.1623734,
              51.5022842
            ],
            [
              -0.1623785,
              51.5023725
            ],
            [
              -0.165466,
              51.5021862
            ],
            [
              -0.1682857,
              51.5021215
            ],
            [
              -0.1682802,
              51.5019106
            ],
            [
              -0.1712263,
              51.5020195
            ],
            [
              -0.1747622,
              51.5018703
            ],
            [
              -0.1748251,
              51.5026543
            ],
            [
              -0.1747333,
              51.5033104
            ],
            [
              -0.1745459,
              51.5036819
            ],
            [
              -0.1736034,
              51.5049222
            ],
            [
              -0.1731765,
              51.5057347
            ],
            [
              -0.1723538,
              51.5067721
            ],
            [
              -0.1718801,
              51.5069485
            ],
            [
              -0.1711352,
              51.50678
            ],
            [
              -0.1707704,
              51.5071481
            ],
            [
              -0.1707825,
              51.5072136
            ],
            [
              -0.1706424,
              51.5071919
            ],
            [
              -0.170496,
              51.5075873
            ],
            [
              -0.1707248,
              51.5096338
            ],
            [
              -0.170903,
              51.5100875
            ],
            [
              -0.1713287,
              51.5103648
            ],
            [
              -0.1728786,
              51.5109987
            ],
            [
              -0.1732495,
              51.5112294
            ],
            [
              -0.173308,
              51.5113927
            ],
            [
              -0.1739805,
              51.5114545
            ],
            [
              -0.174132,
              51.5117422
            ],
            [
              -0.1686457,
              51.5122143
            ],
            [
              -0.1619074,
              51.5129842
            ],
            [
              -0.1617534,
              51.5129477
            ],
            [
              -0.1612395,
              51.5124761
            ],
            [
              -0.1614282,
              51.5123656
            ],
            [
              -0.1613746,
              51.5121985
            ],
            [
              -0.1588479,
              51.5124326
            ],
            [
              -0.1586827,
              51.512123
            ]
          ],
          [
            [
              -0.1747888,
              51.5023228
            ],
            [
              -0.1747615,
              51.5018539
            ],
            [
              -0.1748349,
              51.5018006
            ],
            [
              -0.1770912,
              51.5016698
            ],
            [
              -0.1800705,
              51.5016613
            ],
            [
              -0.1807353,
              51.5015544
            ],
            [
              -0.18243,
              51.5015684
            ],
            [
              -0.1856629,
              51.5021855
            ],
            [
              -0.1874572,
              51.5024232
            ],
            [
              -0.1883313,
              51.5041599
            ],
            [
              -0.1874092,
              51.5043117
            ],
            [
              -0.1872875,
              51.5044131
            ],
            [
              -0.1869746,
              51.504369
            ],
            [
              -0.1873453,
              51.5052195
            ],
            [
              -0.1874144,
              51.5052881
            ],
            [
              -0.1876023,
              51.5052558
            ],
            [
              -0.1875554,
              51.5051504
            ],
            [
              -0.187698,
              51.5051249
            ],
            [
              -0.1899069,
              51.5099873
            ],
            [
              -0.1826431,
              51.5104913
            ],
            [
              -0.174132,
              51.5117422
            ],
            [
              -0.1739805,
              51.5114545
            ],
            [
              -0.173308,
              51.5113927
            ],
            [
              -0.1732495,
              51.5112294
            ],
            [
              -0.1730622,
              51.5110993
            ],
            [
              -0.1713287,
              51.5103648
            ],
            [
              -0.1708016,
              51.5099464
            ],
            [
              -0.1706605,
              51.5091213
            ],
            [
              -0.1705236,
              51.5073905
            ],
            [
              -0.1706424,
              51.5071919
            ],
            [
              -0.1707825,
              51.5072136
            ],
            [
              -0.1707704,
              51.5071481
            ],
            [
              -0.1711352,
              51.50678
            ],
            [
              -0.1718801,
              51.5069485
            ],
            [
              -0.1723538,
              51.5067721
            ],
            [
              -0.1731765,
              51.5057347
            ],
            [
              -0.1736034,
              51.5049222
            ],
            [
              -0.1745459,
              51.5036819
            ],
            [
              -0.1747805,
              51.5031299
            ],
            [
              -0.1747888,
              51.5023228
            ]
          ]
        ]
      }
    },
    {
      "type": "Feature",
      "properties": {
        "id": "grand-tour",
        "loop": true
      },
      "geometry": {
        "type": "MultiLineString",
        "coordinates": [
          [
            [
              -0.0948523,
              51.5080428
            ],
            [
              -0.0958324,
              51.5083155
            ],
            [
              -0.0968726,
              51.5084109
            ],
            [
              -0.100683,
              51.5085275
            ],
            [
              -0.1011871,
              51.5083884
            ],
            [
              -0.1016427,
              51.5083907
            ],
            [
              -0.1019773,
              51.508525
            ],
            [
              -0.1028491,
              51.5085913
            ],
            [
              -0.1036,
              51.5085995
            ],
            [
              -0.1037144,
              51.508519
            ],
            [
              -0.1040999,
              51.5085163
            ]
          ],
          [
            [
              -0.1200103,
              51.5003747
            ],
            [
              -0.1194567,
              51.5030169
            ],
            [
              -0.1189851,
              51.5044825
            ],
            [
              -0.1186246,
              51.5051629
            ],
            [
              -0.1180429,
              51.5059196
            ],
            [
              -0.1172433,
              51.5065606
            ],
            [
              -0.1165103,
              51.5070166
            ],
            [
              -0.1153264,
              51.5075223
            ],
            [
              -0.1142573,
              51.5078265
            ],
            [
              -0.1126969,
              51.5081389
            ],
            [
              -0.1109141,
              51.5083772
            ],
            [
              -0.1106982,
              51.5081849
            ],
            [
              -0.1099954,
              51.5082196
            ],
            [
              -0.1088871,
              51.5084403
            ],
            [
              -0.1076651,
              51.5085081
            ],
            [
              -0.1076229,
              51.5086107
            ],
            [
              -0.1050131,
              51.508607
            ],
            [
              -0.1046743,
              51.5085114
            ]
          ]
        ]
      }
    },
    {
      "type": "Feature",
      "properties": {
        "id": "regents-park",
        "loop": true
      },
      "geometry": {
        "type": "LineString",
        "coordinates": [
          [
            -0.1646648,
            51.5296315
          ],
          [
            -0.1649347,
            51.5301618
          ],
          [
            -0.1625782,
            51.5293946
          ],
          [
            -0.16229,
            51.5294007
          ],
          [
            -0.1620793,
            51.5295733
          ],
          [
            -0.1622923,
            51.5298118
          ],
          [
            -0.1622177,
            51.5298783
          ],
          [
            -0.1620808,
            51.5299269
          ],
          [
            -0.1616762,
            51.5298246
          ],
          [
            -0.1615311,
            51.5300246
          ],
          [
            -0.1614232,
            51.530392
          ],
          [
            -0.1615204,
            51.5307125
          ],
          [
            -0.1617842,
            51.530993
          ],
          [
            -0.1623839,
            51.5313328
          ],
          [
            -0.1625676,
            51.5316592
          ],
          [
            -0.1644027,
            51.5321201
          ],
          [
            -0.162773,
            51.5338546
          ],
          [
            -0.1624186,
            51.5340673
          ],
          [
            -0.1587087,
            51.5350457
          ],
          [
            -0.1546823,
            51.5338202
          ],
          [
            -0.1526251,
            51.5332861
          ],
          [
            -0.1516762,
            51.5331637
          ],
          [
            -0.1512998,
            51.5331977
          ],
          [
            -0.1511599,
            51.533253
          ],
          [
            -0.151067,
            51.5334439
          ],
          [
            -0.1523379,
            51.5365172
          ],
          [
            -0.1514847,
            51.5366005
          ],
          [
            -0.1504261,
            51.5364354
          ],
          [
            -0.1489931,
            51.5360177
          ],
          [
            -0.1483966,
            51.5354989
          ],
          [
            -0.1464455,
            51.5310025
          ],
          [
            -0.1461302,
            51.5304416
          ],
          [
            -0.1460034,
            51.5299004
          ],
          [
            -0.1458643,
            51.5253662
          ],
          [
            -0.1550935,
            51.5237205
          ],
          [
            -0.1556269,
            51.5237145
          ],
          [
            -0.1585516,
            51.5248995
          ],
          [
            -0.1596753,
            51.5262621
          ],
          [
            -0.1601095,
            51.5266307
          ],
          [
            -0.1641576,
            51.5291507
          ],
          [
            -0.1646648,
            51.5296315
          ]
        ]
      }
    },
    {
      "type": "Feature",
      "properties": {
        "id": "diana-memorial",
        "loop": true
      },
      "geometry": {
        "type": "MultiLineString",
        "coordinates": [
          [
            [
              -0.1488825,
              51.5026625
            ],
            [
              -0.1421219,
              51.5024213
            ],
            [
              -0.1419121,
              51.5023317
            ],
            [
              -0.1419459,
              51.5021073
            ],
            [
              -0.1418286,
              51.5021014
            ],
            [
              -0.1406986,
              51.5010181
            ],
            [
              -0.1403993,
              51.5009535
            ],
            [
              -0.1400303,
              51.5011202
            ],
            [
              -0.1397445,
              51.5008241
            ],
            [
              -0.1394617,
              51.5009418
            ],
            [
              -0.1389489,
              51.5005191
            ],
            [
              -0.138775,
              51.5005346
            ],
            [
              -0.1385908,
              51.500712
            ],
            [
              -0.1389801,
              51.5008615
            ],
            [
              -0.1392875,
              51.5010998
            ],
            [
              -0.1393546,
              51.5012862
            ],
            [
              -0.1392038,
              51.5015501
            ],
            [
              -0.1389768,
              51.5017152
            ],
            [
              -0.1353644,
              51.5026001
            ],
            [
              -0.1347171,
              51.5028515
            ],
            [
              -0.1342952,
              51.5031213
            ],
            [
              -0.1325558,
              51.5032468
            ],
            [
              -0.1320651,
              51.5034296
            ],
            [
              -0.1313619,
              51.5040244
            ],
            [
              -0.1309674,
              51.5041893
            ],
            [
              -0.1299001,
              51.5039181
            ],
            [
              -0.1295347,
              51.5036413
            ],
            [
              -0.1300201,
              51.5023334
            ],
            [
              -0.131184,
              51.5021477
            ],
            [
              -0.1318113,
              51.5022558
            ],
            [
              -0.1337199,
              51.5022059
            ],
            [
              -0.1350846,
              51.5020815
            ],
            [
              -0.1357817,
              51.5035269
            ],
            [
              -0.1359046,
              51.5035903
            ],
            [
              -0.1361037,
              51.5034986
            ],
            [
              -0.1363376,
              51.5037135
            ],
            [
              -0.1394848,
              51.5024233
            ],
            [
              -0.1398197,
              51.5026032
            ],
            [
              -0.1402972,
              51.5027169
            ],
            [
              -0.1411713,
              51.5026619
            ],
            [
              -0.1442983,
              51.505682
            ],
            [
              -0.144739,
              51.5054566
            ],
            [
              -0.1446454,
              51.5053498
            ],
            [
              -0.1447712,
              51.505149
            ],
            [
              -0.1455571,
              51.5043898
            ],
            [
              -0.1463263,
              51.5039061
            ],
            [
              -0.1488215,
              51.5026861
            ],
            [
              -0.1492341,
              51.502594
            ],
            [
              -0.150013,
              51.5026526
            ],
            [
              -0.1504056,
              51.50254
            ],
            [
              -0.1516926,
              51.5025768
            ],
            [
              -0.1518092,
              51.5026286
            ],
            [
              -0.1519321,
              51.5028606
            ],
            [
              -0.1524455,
              51.5029467
            ],
            [
              -0.1527668,
              51.5034438
            ],
            [
              -0.1530317,
              51.5035293
            ],
            [
              -0.1528019,
              51.5037491
            ],
            [
              -0.152825,
              51.5038782
            ],
            [
              -0.1531097,
              51.5040272
            ],
            [
              -0.1531891,
              51.5043556
            ],
            [
              -0.1566839,
              51.5084448
            ],
            [
              -0.1606047,
              51.507757
            ],
            [
              -0.1611654,
              51.5091223
            ],
            [
              -0.1652322,
              51.5085248
            ],
            [
              -0.1652462,
              51.5084136
            ],
            [
              -0.1667575,
              51.5081542
            ],
            [
              -0.167281,
              51.5083198
            ],
            [
              -0.1678508,
              51.5081719
            ],
            [
              -0.1684728,
              51.508221
            ],
            [
              -0.1693054,
              51.5080793
            ],
            [
              -0.1695135,
              51.5081435
            ],
            [
              -0.1701063,
              51.5080686
            ],
            [
              -0.1700372,
              51.5076055
            ],
            [
              -0.1704455,
              51.5075954
            ],
            [
              -0.170444,
              51.507399
            ],
            [
              -0.1705627,
              51.5071993
            ],
            [
              -0.1710715,
              51.5067641
            ],
            [
              -0.1712851,
              51.5067349
            ],
            [
              -0.171808,
              51.5068722
            ],
            [
              -0.172118,
              51.5068441
            ],
            [
              -0.1728761,
              51.5073025
            ],
            [
              -0.1731316,
              51.5080472
            ],
            [
              -0.1733627,
              51.5082756
            ],
            [
              -0.1738374,
              51.5086346
            ],
            [
              -0.1745443,
              51.5090084
            ],
            [
              -0.1749422,
              51.5100582
            ],
            [
              -0.1751803,
              51.5112751
            ],
            [
              -0.1760862,
              51.5110773
            ],
            [
              -0.1759287,
              51.5104371
            ],
            [
              -0.1761805,
              51.50947
            ],
            [
              -0.1761249,
              51.5091493
            ],
            [
              -0.1758315,
              51.5086636
            ],
            [
              -0.175621,
              51.5079206
            ],
            [
              -0.1756692,
              51.5075935
            ],
            [
              -0.1758605,
              51.507482
            ],
            [
              -0.1781329,
              51.5070215
            ],
            [
              -0.1782682,
              51.5068746
            ],
            [
              -0.1783914,
              51.5069067
            ],
            [
              -0.1784816,
              51.506833
            ],
            [
              -0.1787534,
              51.5069419
            ],
            [
              -0.1811536,
              51.5065049
            ],
            [
              -0.1817823,
              51.507068
            ],
            [
              -0.1829595,
              51.5075826
            ],
            [
              -0.1835145,
              51.5076716
            ],
            [
              -0.1845501,
              51.5076448
            ],
            [
              -0.1869768,
              51.5081885
            ],
            [
              -0.1842715,
              51.5020277
            ],
            [
              -0.1828982,
              51.5018195
            ],
            [
              -0.1820742,
              51.5021802
            ],
            [
              -0.1784357,
              51.5026086
            ],
            [
              -0.1784717,
              51.5027848
            ],
            [
              -0.1764958,
              51.5028905
            ],
            [
              -0.1765328,
              51.5029978
            ],
            [
              -0.1759321,
              51.5034209
            ],
            [
              -0.1750018,
              51.5035877
            ],
            [
              -0.1747121,
              51.5037156
            ]
          ],
          [
            [
              -0.1748354,
              51.5036607
            ],
            [
              -0.1736342,
              51.5051655
            ],
            [
              -0.1732657,
              51.5054813
            ],
            [
              -0.173013,
              51.5054172
            ],
            [
              -0.172951,
              51.5055181
            ],
            [
              -0.1724353,
              51.5051726
            ],
            [
              -0.1713444,
              51.5051735
            ],
            [
              -0.1699631,
              51.5047857
            ],
            [
              -0.1694215,
              51.5047232
            ],
            [
              -0.16885,
              51.5044921
            ],
            [
              -0.1678212,
              51.5044045
            ],
            [
              -0.166937,
              51.5045644
            ],
            [
              -0.1664827,
              51.5045321
            ],
            [
              -0.1626802,
              51.5039798
            ],
            [
              -0.1607528,
              51.5039002
            ],
            [
              -0.1606595,
              51.5037904
            ],
            [
              -0.1604427,
              51.5037683
            ],
            [
              -0.1599275,
              51.5042373
            ],
            [
              -0.1594169,
              51.5050343
            ],
            [
              -0.1590533,
              51.5046176
            ],
            [
              -0.1582324,
              51.5043325
            ],
            [
              -0.1562295,
              51.5038312
            ],
            [
              -0.1551805,
              51.5038804
            ],
            [
              -0.1545943,
              51.503818
            ]
          ],
          [
            [
              -0.1544409,
              51.5037818
            ],
            [
              -0.1537549,
              51.5035347
            ],
            [
              -0.152875,
              51.5035046
            ],
            [
              -0.1525257,
              51.5030897
            ]
          ],
          [
            [
              -0.1544535,
              51.5038305
            ],
            [
              -0.1544743,
              51.5037559
            ],
            [
              -0.1545981,
              51.5037875
            ],
            [
              -0.1544535,
              51.5038305
            ]
          ],
          [
            [
              -0.1521044,
              51.5028913
            ],
            [
              -0.152349,
              51.5029244
            ]
          ],
          [
            [
              -0.1494927,
              51.5026138
            ],
            [
              -0.1492341,
              51.502594
            ]
          ]
        ]
      }
    },
    {
      "type": "Feature",
      "properties": {
        "id": "victoria-park",
        "loop": true
      },
      "geometry": {
        "type": "LineString",
        "coordinates": [
          [
            -0.0285168,
            51.5398132
          ],
          [
            -0.0290089,
            51.5395339
          ],
          [
            -0.0285917,
            51.5391914
          ],
          [
            -0.0277168,
            51.5396082
          ],
          [
            -0.0274658,
            51.5393442
          ],
          [
            -0.029411,
            51.5383877
          ],
          [
            -0.0294902,
            51.5383671
          ],
          [
            -0.0295646,
            51.5385151
          ],
          [
            -0.0304821,
            51.5380851
          ],
          [
            -0.0303159,
            51.5379403
          ],
          [
            -0.0381954,
            51.5342273
          ],
          [
            -0.0389127,
            51.534198
          ],
          [
            -0.0412708,
            51.5333559
          ],
          [
            -0.0415815,
            51.5334087
          ],
          [
            -0.0428617,
            51.5360932
          ],
          [
            -0.0431789,
            51.5364271
          ],
          [
            -0.0431235,
            51.5365422
          ],
          [
            -0.0432367,
            51.5366243
          ],
          [
            -0.0412845,
            51.5375877
          ],
          [
            -0.037525,
            51.54115
          ],
          [
            -0.0375823,
            51.5412617
          ],
          [
            -0.0380331,
            51.5413679
          ],
          [
            -0.0379741,
            51.5414748
          ],
          [
            -0.03736,
            51.5413331
          ],
          [
            -0.0371427,
            51.5414163
          ],
          [
            -0.0377336,
            51.5417979
          ],
          [
            -0.035735,
            51.5430526
          ],
          [
            -0.034633,
            51.5435955
          ],
          [
            -0.0332505,
            51.5446717
          ],
          [
            -0.0329153,
            51.5446331
          ],
          [
            -0.0310244,
            51.5435284
          ],
          [
            -0.0298818,
            51.5432267
          ],
          [
            -0.0294546,
            51.5430221
          ],
          [
            -0.0290856,
            51.5424863
          ],
          [
            -0.0286723,
            51.5415346
          ],
          [
            -0.027991,
            51.540662
          ],
          [
            -0.0276784,
            51.5398227
          ],
          [
            -0.0284552,
            51.5399251
          ],
          [
            -0.0285168,
            51.5398132
          ]
        ]
      }
    },
    {
      "type": "Feature",
      "properties": {
        "id": "battersea-park",
        "loop": true
      },
      "geometry": {
        "type": "LineString",
        "coordinates": [
          [
            -0.1527312,
            51.4765942
          ],
          [
            -0.1491717,
            51.4777833
          ],
          [
            -0.1491931,
            51.4779468
          ],
          [
            -0.149107,
            51.478101
          ],
          [
            -0.1487417,
            51.478291
          ],
          [
            -0.1495982,
            51.4828088
          ],
          [
            -0.1497279,
            51.4828892
          ],
          [
            -0.1498103,
            51.4831037
          ],
          [
            -0.1497336,
            51.4831942
          ],
          [
            -0.1498005,
            51.4835287
          ],
          [
            -0.1500308,
            51.4835035
          ],
          [
            -0.1500039,
            51.4834
          ],
          [
            -0.1501339,
            51.4833801
          ],
          [
            -0.1501722,
            51.4834777
          ],
          [
            -0.151654,
            51.483303
          ],
          [
            -0.1517638,
            51.4831969
          ],
          [
            -0.1649219,
            51.4814554
          ],
          [
            -0.1650209,
            51.481599
          ],
          [
            -0.1657608,
            51.4814884
          ],
          [
            -0.1657483,
            51.4813988
          ],
          [
            -0.1660808,
            51.4812884
          ],
          [
            -0.1654124,
            51.4797093
          ],
          [
            -0.1652338,
            51.4795364
          ],
          [
            -0.1652976,
            51.4794372
          ],
          [
            -0.1634169,
            51.4750269
          ],
          [
            -0.1631763,
            51.4749104
          ],
          [
            -0.161247,
            51.474969
          ],
          [
            -0.1575824,
            51.4754306
          ],
          [
            -0.155161,
            51.4759132
          ],
          [
            -0.1527312,
            51.4765942
          ]
        ]
      }
    },
    {
      "type": "Feature",
      "properties": {
        "id": "greenwich-park",
        "loop": true
      },
      "geometry": {
        "type": "LineString",
        "coordinates": [
          [
            0.0090782,
            51.4759188
          ],
          [
            0.0097799,
            51.4752792
          ],
          [
            0.0096914,
            51.475198
          ],
          [
            0.00968,
            51.475042
          ],
          [
            0.0062234,
            51.4739227
          ],
          [
            0.0000079,
            51.4720677
          ],
          [
            -0.0042522,
            51.4760542
          ],
          [
            -0.0046828,
            51.4762937
          ],
          [
            -0.0050766,
            51.4760541
          ],
          [
            -0.0054004,
            51.4763108
          ],
          [
            -0.0056867,
            51.4767186
          ],
          [
            -0.0058561,
            51.4773828
          ],
          [
            -0.0060491,
            51.4777952
          ],
          [
            -0.0062301,
            51.4779643
          ],
          [
            -0.007191,
            51.4784784
          ],
          [
            -0.0075835,
            51.4789311
          ],
          [
            -0.0075095,
            51.4789535
          ],
          [
            -0.0074741,
            51.4793218
          ],
          [
            -0.0072808,
            51.4795202
          ],
          [
            -0.0067116,
            51.4796467
          ],
          [
            -0.006758,
            51.4797012
          ],
          [
            -0.0024365,
            51.4811732
          ],
          [
            -0.0022323,
            51.4813612
          ],
          [
            -0.0022357,
            51.4815303
          ],
          [
            -0.0021176,
            51.4815495
          ],
          [
            -0.0020409,
            51.4814057
          ],
          [
            -0.001376,
            51.4814574
          ],
          [
            -0.0006208,
            51.4816385
          ],
          [
            -0.0007018,
            51.4817738
          ],
          [
            0.00051,
            51.4821309
          ],
          [
            0.0015237,
            51.4822858
          ],
          [
            0.0018243,
            51.4821831
          ],
          [
            0.0020523,
            51.4819946
          ],
          [
            0.0018898,
            51.4819267
          ],
          [
            0.0025821,
            51.4812675
          ],
          [
            0.0027394,
            51.4813237
          ],
          [
            0.003569,
            51.4804656
          ],
          [
            0.004905,
            51.4797275
          ],
          [
            0.0052512,
            51.4794573
          ],
          [
            0.0090782,
            51.4759188
          ]
        ]
      }
    },
    {
      "type": "Feature",
      "properties": {
        "id": "hampstead-heath",
        "loop": true
      },
      "geometry": {
        "type": "LineString",
        "coordinates": [
          [
            -0.1640901,
            51.5724971
          ],
          [
            -0.1624134,
            51.5725695
          ],
          [
            -0.1605219,
            51.5727621
          ],
          [
            -0.1587438,
            51.5722102
          ],
          [
            -0.1586871,
            51.5719846
          ],
          [
            -0.1607763,
            51.571984
          ],
          [
            -0.1611093,
            51.5719188
          ],
          [
            -0.1617627,
            51.5706121
          ],
          [
            -0.1611423,
            51.5705
          ],
          [
            -0.1610049,
            51.5707348
          ],
          [
            -0.1604985,
            51.5708735
          ],
          [
            -0.1596769,
            51.5706744
          ],
          [
            -0.1589374,
            51.5708127
          ],
          [
            -0.1585244,
            51.570789
          ],
          [
            -0.1582286,
            51.5702217
          ],
          [
            -0.158148,
            51.5697913
          ],
          [
            -0.1584841,
            51.5688148
          ],
          [
            -0.1592957,
            51.5686408
          ],
          [
            -0.1602569,
            51.5681746
          ],
          [
            -0.1576781,
            51.5663636
          ],
          [
            -0.1568222,
            51.5659046
          ],
          [
            -0.1560735,
            51.5652575
          ],
          [
            -0.1559947,
            51.5650013
          ],
          [
            -0.1561484,
            51.564542
          ],
          [
            -0.1559954,
            51.5640975
          ],
          [
            -0.1553224,
            51.5633534
          ],
          [
            -0.1548244,
            51.5631215
          ],
          [
            -0.1551799,
            51.5627659
          ],
          [
            -0.1547901,
            51.5626824
          ],
          [
            -0.1539308,
            51.5623121
          ],
          [
            -0.153982,
            51.5613188
          ],
          [
            -0.1507683,
            51.5612596
          ],
          [
            -0.1502051,
            51.560234
          ],
          [
            -0.1493183,
            51.559137
          ],
          [
            -0.1495749,
            51.5589946
          ],
          [
            -0.1498843,
            51.5590019
          ],
          [
            -0.1514411,
            51.5595515
          ],
          [
            -0.1515646,
            51.5593722
          ],
          [
            -0.1518005,
            51.5592331
          ],
          [
            -0.1512759,
            51.5588488
          ],
          [
            -0.1510528,
            51.5584164
          ],
          [
            -0.1517484,
            51.5578836
          ],
          [
            -0.1508671,
            51.5573782
          ],
          [
            -0.150727,
            51.5573875
          ],
          [
            -0.1495491,
            51.5555428
          ],
          [
            -0.1499602,
            51.5554246
          ],
          [
            -0.1516642,
            51.5558583
          ],
          [
            -0.1534666,
            51.5561998
          ],
          [
            -0.1563754,
            51.5563047
          ],
          [
            -0.1593042,
            51.5562268
          ],
          [
            -0.159272,
            51.5564297
          ],
          [
            -0.1612933,
            51.5587891
          ],
          [
            -0.1618929,
            51.5589167
          ],
          [
            -0.1626977,
            51.5592313
          ],
          [
            -0.1633371,
            51.5593014
          ],
          [
            -0.164154,
            51.5590574
          ],
          [
            -0.1648123,
            51.5582228
          ],
          [
            -0.1645567,
            51.5577053
          ],
          [
            -0.1654509,
            51.5563245
          ],
          [
            -0.16588,
            51.5563579
          ],
          [
            -0.16588,
            51.555971
          ],
          [
            -0.1656026,
            51.5559287
          ],
          [
            -0.1657405,
            51.5554777
          ],
          [
            -0.1662477,
            51.5553327
          ],
          [
            -0.1665289,
            51.5556973
          ],
          [
            -0.1665887,
            51.5559358
          ],
          [
            -0.1665533,
            51.5564502
          ],
          [
            -0.1666385,
            51.5566492
          ],
          [
            -0.1677732,
            51.5574927
          ],
          [
            -0.1682045,
            51.5572152
          ],
          [
            -0.1713373,
            51.5575165
          ],
          [
            -0.1717379,
            51.5576053
          ],
          [
            -0.1728622,
            51.5581939
          ],
          [
            -0.1721961,
            51.5581622
          ],
          [
            -0.1713439,
            51.5584045
          ],
          [
            -0.1710966,
            51.558402
          ],
          [
            -0.1702817,
            51.5589822
          ],
          [
            -0.1711683,
            51.55946
          ],
          [
            -0.1706225,
            51.5598267
          ],
          [
            -0.1717898,
            51.5604937
          ],
          [
            -0.1724642,
            51.560141
          ],
          [
            -0.1730026,
            51.5604382
          ],
          [
            -0.1743735,
            51.5608896
          ],
          [
            -0.1754298,
            51.5609043
          ],
          [
            -0.1761346,
            51.5610006
          ],
          [
            -0.1768461,
            51.5608867
          ],
          [
            -0.1769157,
            51.5611548
          ],
          [
            -0.177358,
            51.5611178
          ],
          [
            -0.1773187,
            51.5608977
          ],
          [
            -0.177798,
            51.5609234
          ],
          [
            -0.1777755,
            51.5612881
          ],
          [
            -0.1781453,
            51.5612973
          ],
          [
            -0.1781563,
            51.5615627
          ],
          [
            -0.179319,
            51.5615301
          ],
          [
            -0.1792725,
            51.561303
          ],
          [
            -0.1794029,
            51.561519
          ],
          [
            -0.1796086,
            51.5623218
          ],
          [
            -0.1794718,
            51.5625927
          ],
          [
            -0.1755739,
            51.5677786
          ],
          [
            -0.1754527,
            51.5676398
          ],
          [
            -0.1757142,
            51.5673355
          ],
          [
            -0.175906,
            51.5669387
          ],
          [
            -0.175855,
            51.566767
          ],
          [
            -0.1755829,
            51.5665346
          ],
          [
            -0.1754231,
            51.5666074
          ],
          [
            -0.1743621,
            51.5666138
          ],
          [
            -0.1739359,
            51.5669887
          ],
          [
            -0.1736279,
            51.567488
          ],
          [
            -0.1740557,
            51.5676874
          ],
          [
            -0.1743235,
            51.5679324
          ],
          [
            -0.1743461,
            51.5682257
          ],
          [
            -0.1749343,
            51.5686315
          ],
          [
            -0.1748848,
            51.5686951
          ],
          [
            -0.1743008,
            51.5682579
          ],
          [
            -0.1736426,
            51.5688867
          ],
          [
            -0.173884,
            51.5693314
          ],
          [
            -0.1741187,
            51.5694891
          ],
          [
            -0.1737096,
            51.5698463
          ],
          [
            -0.1736891,
            51.5704486
          ],
          [
            -0.1735725,
            51.5708144
          ],
          [
            -0.1729732,
            51.5714955
          ],
          [
            -0.1711082,
            51.5724622
          ],
          [
            -0.1696928,
            51.5727855
          ],
          [
            -0.1668966,
            51.5729623
          ],
          [
            -0.1662332,
            51.5728286
          ],
          [
            -0.1661439,
            51.5726448
          ],
          [
            -0.165977,
            51.5725414
          ],
          [
            -0.16588,
            51.5727381
          ],
          [
            -0.1656799,
            51.5727523
          ],
          [
            -0.1646161,
            51.5725167
          ],
          [
            -0.1640901,
            51.5724971
          ]
        ]
      }
    },
    {
      "type": "Feature",
      "properties": {
        "id": "stjames-green",
        "loop": true
      },
      "geometry": {
        "type": "MultiLineString",
        "coordinates": [
          [
            [
              -0.1379048,
              51.5026767
            ],
            [
              -0.1306283,
              51.5056804
            ],
            [
              -0.1295469,
              51.5051363
            ],
            [
              -0.1293972,
              51.5047414
            ],
            [
              -0.129522,
              51.504721
            ],
            [
              -0.1291562,
              51.5038299
            ],
            [
              -0.1291766,
              51.5035465
            ],
            [
              -0.129621,
              51.5030273
            ],
            [
              -0.1297694,
              51.5027072
            ],
            [
              -0.1300004,
              51.5013824
            ],
            [
              -0.1308197,
              51.501365
            ],
            [
              -0.1389471,
              51.5005591
            ],
            [
              -0.1396951,
              51.5012163
            ],
            [
              -0.1392793,
              51.5016594
            ],
            [
              -0.1393188,
              51.5021084
            ],
            [
              -0.1379048,
              51.5026767
            ]
          ],
          [
            [
              -0.1391351,
              51.5031625
            ],
            [
              -0.1403632,
              51.5043124
            ],
            [
              -0.1415306,
              51.5060096
            ],
            [
              -0.1421167,
              51.5066965
            ],
            [
              -0.1422393,
              51.5066578
            ],
            [
              -0.1423373,
              51.5067681
            ],
            [
              -0.1427304,
              51.5065251
            ],
            [
              -0.1430385,
              51.5064228
            ],
            [
              -0.143099,
              51.5064704
            ],
            [
              -0.1467341,
              51.5045993
            ],
            [
              -0.147728,
              51.5039184
            ],
            [
              -0.1495505,
              51.5031388
            ],
            [
              -0.1496124,
              51.5026853
            ],
            [
              -0.1495053,
              51.5025839
            ],
            [
              -0.1414344,
              51.5022758
            ],
            [
              -0.1409441,
              51.50233
            ],
            [
              -0.1412107,
              51.5026049
            ],
            [
              -0.1407386,
              51.5026799
            ],
            [
              -0.1402814,
              51.5026536
            ],
            [
              -0.1395941,
              51.5023923
            ],
            [
              -0.1387333,
              51.5027403
            ],
            [
              -0.1391351,
              51.5031625
            ]
          ]
        ]
      }
    },
    {
      "type": "Feature",
      "properties": {
        "id": "southwark-docks",
        "loop": true
      },
      "geometry": {
        "type": "LineString",
        "coordinates": [
          [
            -0.0529884,
            51.4916486
          ],
          [
            -0.054084,
            51.4917257
          ],
          [
            -0.0544631,
            51.49203
          ],
          [
            -0.0546693,
            51.4920595
          ],
          [
            -0.0575889,
            51.4944726
          ],
          [
            -0.0577775,
            51.4943634
          ],
          [
            -0.0581374,
            51.4945115
          ],
          [
            -0.0582623,
            51.4946693
          ],
          [
            -0.0585091,
            51.4946687
          ],
          [
            -0.0588587,
            51.4948508
          ],
          [
            -0.0586488,
            51.4950152
          ],
          [
            -0.058321,
            51.495087
          ],
          [
            -0.0586836,
            51.4961287
          ],
          [
            -0.0589802,
            51.4973183
          ],
          [
            -0.059227,
            51.4974934
          ],
          [
            -0.0593093,
            51.4983323
          ],
          [
            -0.0585906,
            51.4983828
          ],
          [
            -0.0586712,
            51.4987043
          ],
          [
            -0.0563461,
            51.4988522
          ],
          [
            -0.0558881,
            51.4986461
          ],
          [
            -0.0556399,
            51.4983713
          ],
          [
            -0.0555061,
            51.4976723
          ],
          [
            -0.0556153,
            51.4976596
          ],
          [
            -0.0555421,
            51.4972197
          ],
          [
            -0.0561417,
            51.4968673
          ],
          [
            -0.0545295,
            51.4954788
          ],
          [
            -0.0547102,
            51.495402
          ],
          [
            -0.0545844,
            51.4952858
          ],
          [
            -0.0543954,
            51.4953685
          ],
          [
            -0.0533099,
            51.4944256
          ],
          [
            -0.0517765,
            51.4949158
          ],
          [
            -0.0513834,
            51.4946179
          ],
          [
            -0.0510222,
            51.4947867
          ],
          [
            -0.0508394,
            51.4946362
          ],
          [
            -0.050517,
            51.494789
          ],
          [
            -0.0502127,
            51.4945515
          ],
          [
            -0.0492235,
            51.4940996
          ],
          [
            -0.0491309,
            51.4939284
          ],
          [
            -0.0487369,
            51.493891
          ],
          [
            -0.0488782,
            51.4937814
          ],
          [
            -0.0485013,
            51.4935883
          ],
          [
            -0.0511369,
            51.4915562
          ],
          [
            -0.0511393,
            51.4916343
          ],
          [
            -0.0529884,
            51.4916486
          ]
        ]
      }
    },
    {
      "type": "Feature",
      "properties": {
        "id": "wormwood-scrubs",
        "loop": true
      },
      "geometry": {
        "type": "LineString",
        "coordinates": [
          [
            -0.238417,
            51.5181594
          ],
          [
            -0.2383043,
            51.5181595
          ],
          [
            -0.2381714,
            51.5183115
          ],
          [
            -0.2372936,
            51.5184196
          ],
          [
            -0.237179,
            51.5185203
          ],
          [
            -0.2372458,
            51.518738
          ],
          [
            -0.238083,
            51.5199342
          ],
          [
            -0.2363653,
            51.5201602
          ],
          [
            -0.2363808,
            51.5202197
          ],
          [
            -0.2362083,
            51.5202353
          ],
          [
            -0.2361981,
            51.5201769
          ],
          [
            -0.2332144,
            51.5204373
          ],
          [
            -0.231886,
            51.5202176
          ],
          [
            -0.2315431,
            51.5199307
          ],
          [
            -0.2314824,
            51.5197455
          ],
          [
            -0.2284828,
            51.5202
          ],
          [
            -0.2283278,
            51.5197881
          ],
          [
            -0.2282208,
            51.519786
          ],
          [
            -0.2282204,
            51.5198806
          ],
          [
            -0.2283777,
            51.5201503
          ],
          [
            -0.2309372,
            51.5222567
          ],
          [
            -0.2323762,
            51.5231963
          ],
          [
            -0.2326032,
            51.5236487
          ],
          [
            -0.2327899,
            51.5236439
          ],
          [
            -0.2333373,
            51.523898
          ],
          [
            -0.2340967,
            51.5244247
          ],
          [
            -0.2344341,
            51.5245716
          ],
          [
            -0.2352672,
            51.5248167
          ],
          [
            -0.2358409,
            51.5248952
          ],
          [
            -0.2368075,
            51.5248507
          ],
          [
            -0.2406609,
            51.5242756
          ],
          [
            -0.2433459,
            51.5236884
          ],
          [
            -0.2454752,
            51.5230474
          ],
          [
            -0.2512743,
            51.5217307
          ],
          [
            -0.2511594,
            51.5215967
          ],
          [
            -0.2512593,
            51.521467
          ],
          [
            -0.2505664,
            51.5203651
          ],
          [
            -0.249974,
            51.5199858
          ],
          [
            -0.2462585,
            51.5199201
          ],
          [
            -0.2434452,
            51.5182776
          ],
          [
            -0.2432481,
            51.5179597
          ],
          [
            -0.2424247,
            51.5179169
          ],
          [
            -0.238417,
            51.5181594
          ]
        ]
      }
    }
  ]
}