<?xml version="1.0" encoding="UTF-8"?>
 <gpx creator="Garmin Connect" version="1.1"
	 xsi:schemaLocation="http://www.topografix.com/GPX/1/1 http://www.topografix.com/GPX/11.xsd"
	 xmlns:ns3="http://www.garmin.com/xmlschemas/TrackPointExtension/v1"
	 xmlns="http://www.topografix.com/GPX/1/1"
	 xmlns:xsi="http://www.w3.org/2001/XMLSchema-instance" xmlns:ns2="http://www.garmin.com/xmlschemas/GpxExtensions/v3">
	 <metadata>
		<name>London Landmarks Half Marathon 2026 - 21.098 km</name>
		 <link href="https://www.goandrace.com">
		 <text>Garmin Connect</text>
		 </link>
	 <time>2026-07-17T14:36:34</time>
	 </metadata>
	 <trk>
		 <name>London Landmarks Half Marathon 2026 - 21.098 km</name>
		 <trkseg>
			 <trkpt lat="51.50143" lon="-0.12609">
				 <ele>15.5</ele>
			 </trkpt>
			 <trkpt lat="51.501033" lon="-0.126104">
				 <ele>14.3</ele>
			 </trkpt>
			 <trkpt lat="51.500998" lon="-0.125384">
				 <ele>12.9</ele>
			 </trkpt>
			 <trkpt lat="51.500968" lon="-0.124757">
				 <ele>11.8</ele>
			 </trkpt>
			 <trkpt lat="51.500935" lon="-0.124037">
				 <ele>10.9</ele>
			 </trkpt>
			 <trkpt lat="51.500903" lon="-0.123316">
				 <ele>10.3</ele>
			 </trkpt>
			 <trkpt lat="51.5009" lon="-0.123256">
				 <ele>9.4</ele>
			 </trkpt>
			 <trkpt lat="51.500868" lon="-0.122535">
				 <ele>9</ele>
			 </trkpt>
			 <trkpt lat="51.500843" lon="-0.121956">
				 <ele>8.5</ele>
			 </trkpt>
			 <trkpt lat="51.500829" lon="-0.121234">
				 <ele>7.3</ele>
			 </trkpt>
			 <trkpt lat="51.500814" lon="-0.120512">
				 <ele>6.4</ele>
			 </trkpt>
			 <trkpt lat="51.5008" lon="-0.11979">
				 <ele>6</ele>
			 </trkpt>
			 <trkpt lat="51.50079" lon="-0.11927">
				 <ele>5.6</ele>
			 </trkpt>
			 <trkpt lat="51.500816" lon="-0.119289">
				 <ele>5.6</ele>
			 </trkpt>
			 <trkpt lat="51.500836" lon="-0.120011">
				 <ele>6.1</ele>
			 </trkpt>
			 <trkpt lat="51.500856" lon="-0.120732">
				 <ele>7</ele>
			 </trkpt>
			 <trkpt lat="51.500876" lon="-0.121454">
				 <ele>7.7</ele>
			 </trkpt>
			 <trkpt lat="51.500891" lon="-0.121989">
				 <ele>8</ele>
			 </trkpt>
			 <trkpt lat="51.500926" lon="-0.122709">
				 <ele>7.7</ele>
			 </trkpt>
			 <trkpt lat="51.500961" lon="-0.123429">
				 <ele>7.8</ele>
			 </trkpt>
			 <trkpt lat="51.500989" lon="-0.124006">
				 <ele>8.5</ele>
			 </trkpt>
			 <trkpt lat="51.501438" lon="-0.124056">
				 <ele>9.3</ele>
			 </trkpt>
			 <trkpt lat="51.501514" lon="-0.124065">
				 <ele>10.4</ele>
			 </trkpt>
			 <trkpt lat="51.501958" lon="-0.123949">
				 <ele>11.6</ele>
			 </trkpt>
			 <trkpt lat="51.502401" lon="-0.123834">
				 <ele>12.8</ele>
			 </trkpt>
			 <trkpt lat="51.502845" lon="-0.123718">
				 <ele>13.3</ele>
			 </trkpt>
			 <trkpt lat="51.503289" lon="-0.123602">
				 <ele>13.2</ele>
			 </trkpt>
			 <trkpt lat="51.503733" lon="-0.123487">
				 <ele>13.3</ele>
			 </trkpt>
			 <trkpt lat="51.504177" lon="-0.123371">
				 <ele>13.4</ele>
			 </trkpt>
			 <trkpt lat="51.504437" lon="-0.123304">
				 <ele>13.3</ele>
			 </trkpt>
			 <trkpt lat="51.504876" lon="-0.123149">
				 <ele>12.9</ele>
			 </trkpt>
			 <trkpt lat="51.505315" lon="-0.122994">
				 <ele>12.3</ele>
			 </trkpt>
			 <trkpt lat="51.50574" lon="-0.122844">
				 <ele>11.6</ele>
			 </trkpt>
			 <trkpt lat="51.506157" lon="-0.122575">
				 <ele>10.8</ele>
			 </trkpt>
			 <trkpt lat="51.506306" lon="-0.122478">
				 <ele>9.9</ele>
			 </trkpt>
			 <trkpt lat="51.506703" lon="-0.12214">
				 <ele>9.4</ele>
			 </trkpt>
			 <trkpt lat="51.507101" lon="-0.121801">
				 <ele>9.1</ele>
			 </trkpt>
			 <trkpt lat="51.507498" lon="-0.121462">
				 <ele>8.9</ele>
			 </trkpt>
			 <trkpt lat="51.507561" lon="-0.121408">
				 <ele>8.7</ele>
			 </trkpt>
			 <trkpt lat="51.50796" lon="-0.121073">
				 <ele>8.7</ele>
			 </trkpt>
			 <trkpt lat="51.508358" lon="-0.120738">
				 <ele>8.9</ele>
			 </trkpt>
			 <trkpt lat="51.508715" lon="-0.120276">
				 <ele>8.8</ele>
			 </trkpt>
			 <trkpt lat="51.50875" lon="-0.12023">
				 <ele>9.1</ele>
			 </trkpt>
			 <trkpt lat="51.509056" lon="-0.119701">
				 <ele>9.7</ele>
			 </trkpt>
			 <trkpt lat="51.509271" lon="-0.119331">
				 <ele>10.5</ele>
			 </trkpt>
			 <trkpt lat="51.509415" lon="-0.119061">
				 <ele>11.3</ele>
			 </trkpt>
			 <trkpt lat="51.509657" lon="-0.118452">
				 <ele>11.8</ele>
			 </trkpt>
			 <trkpt lat="51.509726" lon="-0.118276">
				 <ele>11.9</ele>
			 </trkpt>
			 <trkpt lat="51.509934" lon="-0.117635">
				 <ele>12</ele>
			 </trkpt>
			 <trkpt lat="51.510142" lon="-0.116995">
				 <ele>12</ele>
			 </trkpt>
			 <trkpt lat="51.510318" lon="-0.116307">
				 <ele>12.5</ele>
			 </trkpt>
			 <trkpt lat="51.510473" lon="-0.115698">
				 <ele>12.6</ele>
			 </trkpt>
			 <trkpt lat="51.510633" lon="-0.115022">
				 <ele>13</ele>
			 </trkpt>
			 <trkpt lat="51.510684" lon="-0.114805">
				 <ele>13.5</ele>
			 </trkpt>
			 <trkpt lat="51.510792" lon="-0.114104">
				 <ele>13.8</ele>
			 </trkpt>
			 <trkpt lat="51.5109" lon="-0.113402">
				 <ele>13.4</ele>
			 </trkpt>
			 <trkpt lat="51.510963" lon="-0.112653">
				 <ele>12.8</ele>
			 </trkpt>
			 <trkpt lat="51.511021" lon="-0.111937">
				 <ele>12.2</ele>
			 </trkpt>
			 <trkpt lat="51.511034" lon="-0.111784">
				 <ele>11.7</ele>
			 </trkpt>
			 <trkpt lat="51.511031" lon="-0.111061">
				 <ele>11.8</ele>
			 </trkpt>
			 <trkpt lat="51.511028" lon="-0.110339">
				 <ele>12.1</ele>
			 </trkpt>
			 <trkpt lat="51.511025" lon="-0.109616">
				 <ele>11.7</ele>
			 </trkpt>
			 <trkpt lat="51.511023" lon="-0.108894">
				 <ele>11.5</ele>
			 </trkpt>
			 <trkpt lat="51.51102" lon="-0.108171">
				 <ele>11.1</ele>
			 </trkpt>
			 <trkpt lat="51.511017" lon="-0.107449">
				 <ele>10.5</ele>
			 </trkpt>
			 <trkpt lat="51.511014" lon="-0.106726">
				 <ele>9.8</ele>
			 </trkpt>
			 <trkpt lat="51.511011" lon="-0.106004">
				 <ele>9.8</ele>
			 </trkpt>
			 <trkpt lat="51.511009" lon="-0.105281">
				 <ele>10.1</ele>
			 </trkpt>
			 <trkpt lat="51.511006" lon="-0.104559">
				 <ele>10.5</ele>
			 </trkpt>
			 <trkpt lat="51.511003" lon="-0.103836">
				 <ele>11.4</ele>
			 </trkpt>
			 <trkpt lat="51.511001" lon="-0.10326">
				 <ele>11.6</ele>
			 </trkpt>
			 <trkpt lat="51.511025" lon="-0.102539">
				 <ele>11.6</ele>
			 </trkpt>
			 <trkpt lat="51.511047" lon="-0.10192">
				 <ele>11.8</ele>
			 </trkpt>
			 <trkpt lat="51.51109" lon="-0.101308">
				 <ele>12.1</ele>
			 </trkpt>
			 <trkpt lat="51.511157" lon="-0.100627">
				 <ele>12.6</ele>
			 </trkpt>
			 <trkpt lat="51.511165" lon="-0.099905">
				 <ele>13.6</ele>
			 </trkpt>
			 <trkpt lat="51.511174" lon="-0.099182">
				 <ele>14.5</ele>
			 </trkpt>
			 <trkpt lat="51.51118" lon="-0.098611">
				 <ele>15.1</ele>
			 </trkpt>
			 <trkpt lat="51.511163" lon="-0.097889">
				 <ele>15.5</ele>
			 </trkpt>
			 <trkpt lat="51.511145" lon="-0.097167">
				 <ele>16.1</ele>
			 </trkpt>
			 <trkpt lat="51.511127" lon="-0.096445">
				 <ele>16.5</ele>
			 </trkpt>
			 <trkpt lat="51.511109" lon="-0.095724">
				 <ele>17</ele>
			 </trkpt>
			 <trkpt lat="51.5111" lon="-0.09536">
				 <ele>17.5</ele>
			 </trkpt>
			 <trkpt lat="51.51108" lon="-0.09509">
				 <ele>18.1</ele>
			 </trkpt>
			 <trkpt lat="51.510933" lon="-0.09389">
				 <ele>19.1</ele>
			 </trkpt>
			 <trkpt lat="51.510841" lon="-0.093183">
				 <ele>20.5</ele>
			 </trkpt>
			 <trkpt lat="51.510812" lon="-0.092966">
				 <ele>21.7</ele>
			 </trkpt>
			 <trkpt lat="51.510679" lon="-0.092276">
				 <ele>23.3</ele>
			 </trkpt>
			 <trkpt lat="51.510546" lon="-0.091586">
				 <ele>24.5</ele>
			 </trkpt>
			 <trkpt lat="51.510457" lon="-0.091126">
				 <ele>25.5</ele>
			 </trkpt>
			 <trkpt lat="51.510338" lon="-0.09043">
				 <ele>25.9</ele>
			 </trkpt>
			 <trkpt lat="51.510297" lon="-0.09019">
				 <ele>26.5</ele>
			 </trkpt>
			 <trkpt lat="51.510199" lon="-0.089687">
				 <ele>27</ele>
			 </trkpt>
			 <trkpt lat="51.510006" lon="-0.089035">
				 <ele>27.9</ele>
			 </trkpt>
			 <trkpt lat="51.509842" lon="-0.088484">
				 <ele>28.5</ele>
			 </trkpt>
			 <trkpt lat="51.509751" lon="-0.087776">
				 <ele>28.8</ele>
			 </trkpt>
			 <trkpt lat="51.509728" lon="-0.087596">
				 <ele>28.3</ele>
			 </trkpt>
			 <trkpt lat="51.509648" lon="-0.087307">
				 <ele>27.4</ele>
			 </trkpt>
			 <trkpt lat="51.509552" lon="-0.086602">
				 <ele>25.8</ele>
			 </trkpt>
			 <trkpt lat="51.509494" lon="-0.086178">
				 <ele>24.7</ele>
			 </trkpt>
			 <trkpt lat="51.509406" lon="-0.08547">
				 <ele>24</ele>
			 </trkpt>
			 <trkpt lat="51.509318" lon="-0.084761">
				 <ele>23.5</ele>
			 </trkpt>
			 <trkpt lat="51.509305" lon="-0.084659">
				 <ele>22.7</ele>
			 </trkpt>
			 <trkpt lat="51.509229" lon="-0.083947">
				 <ele>22.1</ele>
			 </trkpt>
			 <trkpt lat="51.509153" lon="-0.083235">
				 <ele>21.1</ele>
			 </trkpt>
			 <trkpt lat="51.509141" lon="-0.083122">
				 <ele>20</ele>
			 </trkpt>
			 <trkpt lat="51.509053" lon="-0.082413">
				 <ele>19.2</ele>
			 </trkpt>
			 <trkpt lat="51.50902" lon="-0.082146">
				 <ele>19</ele>
			 </trkpt>
			 <trkpt lat="51.509046" lon="-0.081656">
				 <ele>19</ele>
			 </trkpt>
			 <trkpt lat="51.509104" lon="-0.081181">
				 <ele>19.5</ele>
			 </trkpt>
			 <trkpt lat="51.509202" lon="-0.080733">
				 <ele>19.5</ele>
			 </trkpt>
			 <trkpt lat="51.509457" lon="-0.080138">
				 <ele>19.3</ele>
			 </trkpt>
			 <trkpt lat="51.50958" lon="-0.07985">
				 <ele>18.4</ele>
			 </trkpt>
			 <trkpt lat="51.50961" lon="-0.07955">
				 <ele>17.6</ele>
			 </trkpt>
			 <trkpt lat="51.50955" lon="-0.07863">
				 <ele>16.7</ele>
			 </trkpt>
			 <trkpt lat="51.50943" lon="-0.07796">
				 <ele>16</ele>
			 </trkpt>
			 <trkpt lat="51.50943" lon="-0.07775">
				 <ele>15.6</ele>
			 </trkpt>
			 <trkpt lat="51.50949" lon="-0.07672">
				 <ele>14.7</ele>
			 </trkpt>
			 <trkpt lat="51.509569" lon="-0.07603">
				 <ele>13.6</ele>
			 </trkpt>
			 <trkpt lat="51.509629" lon="-0.075734">
				 <ele>12.5</ele>
			 </trkpt>
			 <trkpt lat="51.509739" lon="-0.075323">
				 <ele>11.2</ele>
			 </trkpt>
			 <trkpt lat="51.5098" lon="-0.075102">
				 <ele>10.5</ele>
			 </trkpt>
			 <trkpt lat="51.509705" lon="-0.075501">
				 <ele>10.4</ele>
			 </trkpt>
			 <trkpt lat="51.509642" lon="-0.075736">
				 <ele>11.1</ele>
			 </trkpt>
			 <trkpt lat="51.50958" lon="-0.07602">
				 <ele>11.8</ele>
			 </trkpt>
			 <trkpt lat="51.509501" lon="-0.076709">
				 <ele>13.2</ele>
			 </trkpt>
			 <trkpt lat="51.509487" lon="-0.076922">
				 <ele>14.5</ele>
			 </trkpt>
			 <trkpt lat="51.509443" lon="-0.077641">
				 <ele>15.3</ele>
			 </trkpt>
			 <trkpt lat="51.509437" lon="-0.077745">
				 <ele>16.5</ele>
			 </trkpt>
			 <trkpt lat="51.509444" lon="-0.077952">
				 <ele>17.5</ele>
			 </trkpt>
			 <trkpt lat="51.509559" lon="-0.078582">
				 <ele>18.4</ele>
			 </trkpt>
			 <trkpt lat="51.509584" lon="-0.078909">
				 <ele>19.1</ele>
			 </trkpt>
			 <trkpt lat="51.509622" lon="-0.079512">
				 <ele>19.9</ele>
			 </trkpt>
			 <trkpt lat="51.509617" lon="-0.079643">
				 <ele>20.2</ele>
			 </trkpt>
			 <trkpt lat="51.509592" lon="-0.079844">
				 <ele>20.5</ele>
			 </trkpt>
			 <trkpt lat="51.50951" lon="-0.08025">
				 <ele>20.6</ele>
			 </trkpt>
			 <trkpt lat="51.50926" lon="-0.08085">
				 <ele>20.1</ele>
			 </trkpt>
			 <trkpt lat="51.50915" lon="-0.08123">
				 <ele>19.9</ele>
			 </trkpt>
			 <trkpt lat="51.509086" lon="-0.08185">
				 <ele>20.5</ele>
			 </trkpt>
			 <trkpt lat="51.5091" lon="-0.08232">
				 <ele>21.3</ele>
			 </trkpt>
			 <trkpt lat="51.509188" lon="-0.083029">
				 <ele>22.1</ele>
			 </trkpt>
			 <trkpt lat="51.509276" lon="-0.083737">
				 <ele>22.9</ele>
			 </trkpt>
			 <trkpt lat="51.509363" lon="-0.084446">
				 <ele>23.7</ele>
			 </trkpt>
			 <trkpt lat="51.509451" lon="-0.085154">
				 <ele>24.3</ele>
			 </trkpt>
			 <trkpt lat="51.509539" lon="-0.085863">
				 <ele>24.8</ele>
			 </trkpt>
			 <trkpt lat="51.509608" lon="-0.086419">
				 <ele>25.6</ele>
			 </trkpt>
			 <trkpt lat="51.509712" lon="-0.087122">
				 <ele>27</ele>
			 </trkpt>
			 <trkpt lat="51.509763" lon="-0.087463">
				 <ele>28.5</ele>
			 </trkpt>
			 <trkpt lat="51.50976" lon="-0.087691">
				 <ele>29.7</ele>
			 </trkpt>
			 <trkpt lat="51.509833" lon="-0.088169">
				 <ele>29.9</ele>
			 </trkpt>
			 <trkpt lat="51.510009" lon="-0.088833">
				 <ele>29.6</ele>
			 </trkpt>
			 <trkpt lat="51.510186" lon="-0.089498">
				 <ele>29.3</ele>
			 </trkpt>
			 <trkpt lat="51.51021" lon="-0.08959">
				 <ele>28.7</ele>
			 </trkpt>
			 <trkpt lat="51.51023" lon="-0.08976">
				 <ele>28</ele>
			 </trkpt>
			 <trkpt lat="51.51034" lon="-0.0903">
				 <ele>27.5</ele>
			 </trkpt>
			 <trkpt lat="51.51044" lon="-0.09087">
				 <ele>27.1</ele>
			 </trkpt>
			 <trkpt lat="51.51047" lon="-0.0909">
				 <ele>26.5</ele>
			 </trkpt>
			 <trkpt lat="51.51058" lon="-0.09146">
				 <ele>25.6</ele>
			 </trkpt>
			 <trkpt lat="51.510725" lon="-0.09221">
				 <ele>25</ele>
			 </trkpt>
			 <trkpt lat="51.51087" lon="-0.09296">
				 <ele>24.2</ele>
			 </trkpt>
			 <trkpt lat="51.511075" lon="-0.092984">
				 <ele>23.7</ele>
			 </trkpt>
			 <trkpt lat="51.51152" lon="-0.092885">
				 <ele>23.6</ele>
			 </trkpt>
			 <trkpt lat="51.51191" lon="-0.092797">
				 <ele>23.5</ele>
			 </trkpt>
			 <trkpt lat="51.5121" lon="-0.09272">
				 <ele>23.5</ele>
			 </trkpt>
			 <trkpt lat="51.512258" lon="-0.093397">
				 <ele>24</ele>
			 </trkpt>
			 <trkpt lat="51.512333" lon="-0.093721">
				 <ele>24.5</ele>
			 </trkpt>
			 <trkpt lat="51.512214" lon="-0.094417">
				 <ele>25</ele>
			 </trkpt>
			 <trkpt lat="51.512095" lon="-0.095114">
				 <ele>25.4</ele>
			 </trkpt>
			 <trkpt lat="51.51201" lon="-0.09561">
				 <ele>25.4</ele>
			 </trkpt>
			 <trkpt lat="51.512171" lon="-0.09571">
				 <ele>25.1</ele>
			 </trkpt>
			 <trkpt lat="51.512614" lon="-0.095585">
				 <ele>25.3</ele>
			 </trkpt>
			 <trkpt lat="51.512671" lon="-0.095246">
				 <ele>25.5</ele>
			 </trkpt>
			 <trkpt lat="51.512524" lon="-0.094563">
				 <ele>26</ele>
			 </trkpt>
			 <trkpt lat="51.512377" lon="-0.093881">
				 <ele>26.9</ele>
			 </trkpt>
			 <trkpt lat="51.51242" lon="-0.09374">
				 <ele>28.2</ele>
			 </trkpt>
			 <trkpt lat="51.51268" lon="-0.0925">
				 <ele>29.1</ele>
			 </trkpt>
			 <trkpt lat="51.513127" lon="-0.092422">
				 <ele>29.6</ele>
			 </trkpt>
			 <trkpt lat="51.513502" lon="-0.092356">
				 <ele>30.1</ele>
			 </trkpt>
			 <trkpt lat="51.513763" lon="-0.092233">
				 <ele>30.5</ele>
			 </trkpt>
			 <trkpt lat="51.513645" lon="-0.091536">
				 <ele>30.6</ele>
			 </trkpt>
			 <trkpt lat="51.513527" lon="-0.090838">
				 <ele>31</ele>
			 </trkpt>
			 <trkpt lat="51.513409" lon="-0.090141">
				 <ele>31</ele>
			 </trkpt>
			 <trkpt lat="51.51338" lon="-0.08997">
				 <ele>31</ele>
			 </trkpt>
			 <trkpt lat="51.513274" lon="-0.089904">
				 <ele>30.6</ele>
			 </trkpt>
			 <trkpt lat="51.513116" lon="-0.09058">
				 <ele>30.1</ele>
			 </trkpt>
			 <trkpt lat="51.512958" lon="-0.091257">
				 <ele>29.1</ele>
			 </trkpt>
			 <trkpt lat="51.512871" lon="-0.091627">
				 <ele>28.5</ele>
			 </trkpt>
			 <trkpt lat="51.512729" lon="-0.092195">
				 <ele>28.2</ele>
			 </trkpt>
			 <trkpt lat="51.512671" lon="-0.09227">
				 <ele>28</ele>
			 </trkpt>
			 <trkpt lat="51.512504" lon="-0.09294">
				 <ele>27.9</ele>
			 </trkpt>
			 <trkpt lat="51.512397" lon="-0.093369">
				 <ele>27.8</ele>
			 </trkpt>
			 <trkpt lat="51.51232" lon="-0.09337">
				 <ele>27.6</ele>
			 </trkpt>
			 <trkpt lat="51.512155" lon="-0.092698">
				 <ele>27.4</ele>
			 </trkpt>
			 <trkpt lat="51.512077" lon="-0.092381">
				 <ele>27.3</ele>
			 </trkpt>
			 <trkpt lat="51.511924" lon="-0.091702">
				 <ele>27.5</ele>
			 </trkpt>
			 <trkpt lat="51.511771" lon="-0.091022">
				 <ele>27.7</ele>
			 </trkpt>
			 <trkpt lat="51.511714" lon="-0.090771">
				 <ele>28.2</ele>
			 </trkpt>
			 <trkpt lat="51.511581" lon="-0.090081">
				 <ele>28.6</ele>
			 </trkpt>
			 <trkpt lat="51.511449" lon="-0.08939">
				 <ele>29</ele>
			 </trkpt>
			 <trkpt lat="51.511316" lon="-0.0887">
				 <ele>29.5</ele>
			 </trkpt>
			 <trkpt lat="51.511183" lon="-0.08801">
				 <ele>30.1</ele>
			 </trkpt>
			 <trkpt lat="51.511051" lon="-0.087319">
				 <ele>30.9</ele>
			 </trkpt>
			 <trkpt lat="51.511023" lon="-0.087173">
				 <ele>31.3</ele>
			 </trkpt>
			 <trkpt lat="51.511088" lon="-0.087018">
				 <ele>31.8</ele>
			 </trkpt>
			 <trkpt lat="51.511393" lon="-0.087218">
				 <ele>32.2</ele>
			 </trkpt>
			 <trkpt lat="51.511795" lon="-0.087538">
				 <ele>32.3</ele>
			 </trkpt>
			 <trkpt lat="51.512198" lon="-0.087859">
				 <ele>32.4</ele>
			 </trkpt>
			 <trkpt lat="51.512601" lon="-0.08818">
				 <ele>32.6</ele>
			 </trkpt>
			 <trkpt lat="51.512872" lon="-0.088395">
				 <ele>33.2</ele>
			 </trkpt>
			 <trkpt lat="51.513243" lon="-0.088803">
				 <ele>33.4</ele>
			 </trkpt>
			 <trkpt lat="51.51333" lon="-0.088717">
				 <ele>32.8</ele>
			 </trkpt>
			 <trkpt lat="51.513309" lon="-0.087995">
				 <ele>32.6</ele>
			 </trkpt>
			 <trkpt lat="51.513297" lon="-0.087574">
				 <ele>32</ele>
			 </trkpt>
			 <trkpt lat="51.513324" lon="-0.086852">
				 <ele>32.5</ele>
			 </trkpt>
			 <trkpt lat="51.513351" lon="-0.086131">
				 <ele>33</ele>
			 </trkpt>
			 <trkpt lat="51.513378" lon="-0.08541">
				 <ele>33.3</ele>
			 </trkpt>
			 <trkpt lat="51.513397" lon="-0.084901">
				 <ele>33.2</ele>
			 </trkpt>
			 <trkpt lat="51.513399" lon="-0.08562">
				 <ele>33.1</ele>
			 </trkpt>
			 <trkpt lat="51.513379" lon="-0.086341">
				 <ele>32.8</ele>
			 </trkpt>
			 <trkpt lat="51.513364" lon="-0.086885">
				 <ele>32.4</ele>
			 </trkpt>
			 <trkpt lat="51.513338" lon="-0.087557">
				 <ele>32.2</ele>
			 </trkpt>
			 <trkpt lat="51.513367" lon="-0.088278">
				 <ele>32.6</ele>
			 </trkpt>
			 <trkpt lat="51.513385" lon="-0.088704">
				 <ele>32.6</ele>
			 </trkpt>
			 <trkpt lat="51.513401" lon="-0.088957">
				 <ele>33.3</ele>
			 </trkpt>
			 <trkpt lat="51.51335" lon="-0.0893">
				 <ele>33.2</ele>
			 </trkpt>
			 <trkpt lat="51.513456" lon="-0.090002">
				 <ele>32.6</ele>
			 </trkpt>
			 <trkpt lat="51.513562" lon="-0.090704">
				 <ele>32.2</ele>
			 </trkpt>
			 <trkpt lat="51.513585" lon="-0.090856">
				 <ele>32.1</ele>
			 </trkpt>
			 <trkpt lat="51.513675" lon="-0.091115">
				 <ele>31.9</ele>
			 </trkpt>
			 <trkpt lat="51.514108" lon="-0.09092">
				 <ele>31.6</ele>
			 </trkpt>
			 <trkpt lat="51.514541" lon="-0.090724">
				 <ele>31.4</ele>
			 </trkpt>
			 <trkpt lat="51.514843" lon="-0.090587">
				 <ele>31.3</ele>
			 </trkpt>
			 <trkpt lat="51.51486" lon="-0.09049">
				 <ele>31.3</ele>
			 </trkpt>
			 <trkpt lat="51.51475" lon="-0.08996">
				 <ele>31.1</ele>
			 </trkpt>
			 <trkpt lat="51.51472" lon="-0.0899">
				 <ele>30.6</ele>
			 </trkpt>
			 <trkpt lat="51.514568" lon="-0.089781">
				 <ele>30.2</ele>
			 </trkpt>
			 <trkpt lat="51.514159" lon="-0.08948">
				 <ele>30.2</ele>
			 </trkpt>
			 <trkpt lat="51.51375" lon="-0.089179">
				 <ele>30.4</ele>
			 </trkpt>
			 <trkpt lat="51.51352" lon="-0.08901">
				 <ele>30.9</ele>
			 </trkpt>
			 <trkpt lat="51.513514" lon="-0.088906">
				 <ele>31.2</ele>
			 </trkpt>
			 <trkpt lat="51.513681" lon="-0.088234">
				 <ele>31.5</ele>
			 </trkpt>
			 <trkpt lat="51.513848" lon="-0.087563">
				 <ele>31.6</ele>
			 </trkpt>
			 <trkpt lat="51.513911" lon="-0.08731">
				 <ele>31.6</ele>
			 </trkpt>
			 <trkpt lat="51.514031" lon="-0.086614">
				 <ele>31.5</ele>
			 </trkpt>
			 <trkpt lat="51.5141" lon="-0.08621">
				 <ele>31.5</ele>
			 </trkpt>
			 <trkpt lat="51.51418" lon="-0.08621">
				 <ele>32.1</ele>
			 </trkpt>
			 <trkpt lat="51.51428" lon="-0.08612">
				 <ele>32.4</ele>
			 </trkpt>
			 <trkpt lat="51.51482" lon="-0.0855">
				 <ele>32.1</ele>
			 </trkpt>
			 <trkpt lat="51.51486" lon="-0.08557">
				 <ele>31.6</ele>
			 </trkpt>
			 <trkpt lat="51.5149" lon="-0.08618">
				 <ele>30.9</ele>
			 </trkpt>
			 <trkpt lat="51.51482" lon="-0.08685">
				 <ele>30.6</ele>
			 </trkpt>
			 <trkpt lat="51.51462" lon="-0.08781">
				 <ele>30.3</ele>
			 </trkpt>
			 <trkpt lat="51.514676" lon="-0.088527">
				 <ele>30.1</ele>
			 </trkpt>
			 <trkpt lat="51.514717" lon="-0.089057">
				 <ele>29.9</ele>
			 </trkpt>
			 <trkpt lat="51.514805" lon="-0.089501">
				 <ele>30</ele>
			 </trkpt>
			 <trkpt lat="51.514868" lon="-0.090043">
				 <ele>30</ele>
			 </trkpt>
			 <trkpt lat="51.514977" lon="-0.090744">
				 <ele>29.2</ele>
			 </trkpt>
			 <trkpt lat="51.51503" lon="-0.09109">
				 <ele>28.8</ele>
			 </trkpt>
			 <trkpt lat="51.51538" lon="-0.09103">
				 <ele>29</ele>
			 </trkpt>
			 <trkpt lat="51.51577" lon="-0.09098">
				 <ele>29.4</ele>
			 </trkpt>
			 <trkpt lat="51.51586" lon="-0.09099">
				 <ele>29.7</ele>
			 </trkpt>
			 <trkpt lat="51.51636" lon="-0.0914">
				 <ele>30</ele>
			 </trkpt>
			 <trkpt lat="51.51654" lon="-0.09146">
				 <ele>30.3</ele>
			 </trkpt>
			 <trkpt lat="51.51682" lon="-0.09143">
				 <ele>30.2</ele>
			 </trkpt>
			 <trkpt lat="51.51683" lon="-0.09169">
				 <ele>30.1</ele>
			 </trkpt>
			 <trkpt lat="51.51693" lon="-0.09212">
				 <ele>29.7</ele>
			 </trkpt>
			 <trkpt lat="51.51691" lon="-0.09229">
				 <ele>30.3</ele>
			 </trkpt>
			 <trkpt lat="51.51682" lon="-0.0924">
				 <ele>30.9</ele>
			 </trkpt>
			 <trkpt lat="51.51633" lon="-0.09284">
				 <ele>31.1</ele>
			 </trkpt>
			 <trkpt lat="51.51627" lon="-0.09292">
				 <ele>31.3</ele>
			 </trkpt>
			 <trkpt lat="51.51626" lon="-0.09296">
				 <ele>31.5</ele>
			 </trkpt>
			 <trkpt lat="51.51649" lon="-0.09405">
				 <ele>31.6</ele>
			 </trkpt>
			 <trkpt lat="51.51639" lon="-0.09422">
				 <ele>31.5</ele>
			 </trkpt>
			 <trkpt lat="51.51572" lon="-0.09461">
				 <ele>31.5</ele>
			 </trkpt>
			 <trkpt lat="51.51543" lon="-0.09337">
				 <ele>31.5</ele>
			 </trkpt>
			 <trkpt lat="51.51534" lon="-0.09317">
				 <ele>31.5</ele>
			 </trkpt>
			 <trkpt lat="51.51539" lon="-0.09311">
				 <ele>31.6</ele>
			 </trkpt>
			 <trkpt lat="51.51539" lon="-0.09269">
				 <ele>30.9</ele>
			 </trkpt>
			 <trkpt lat="51.51545" lon="-0.09261">
				 <ele>30.6</ele>
			 </trkpt>
			 <trkpt lat="51.51539" lon="-0.09221">
				 <ele>30.8</ele>
			 </trkpt>
			 <trkpt lat="51.51538" lon="-0.09206">
				 <ele>30.9</ele>
			 </trkpt>
			 <trkpt lat="51.514934" lon="-0.092147">
				 <ele>30.8</ele>
			 </trkpt>
			 <trkpt lat="51.514487" lon="-0.092233">
				 <ele>30.3</ele>
			 </trkpt>
			 <trkpt lat="51.514041" lon="-0.09232">
				 <ele>29.7</ele>
			 </trkpt>
			 <trkpt lat="51.513882" lon="-0.092351">
				 <ele>29.4</ele>
			 </trkpt>
			 <trkpt lat="51.51385" lon="-0.09253">
				 <ele>29.2</ele>
			 </trkpt>
			 <trkpt lat="51.513962" lon="-0.09323">
				 <ele>28.9</ele>
			 </trkpt>
			 <trkpt lat="51.514073" lon="-0.09393">
				 <ele>28.5</ele>
			 </trkpt>
			 <trkpt lat="51.514185" lon="-0.09463">
				 <ele>28.4</ele>
			 </trkpt>
			 <trkpt lat="51.514297" lon="-0.09533">
				 <ele>28.3</ele>
			 </trkpt>
			 <trkpt lat="51.514388" lon="-0.095904">
				 <ele>28.5</ele>
			 </trkpt>
			 <trkpt lat="51.514552" lon="-0.096578">
				 <ele>29.1</ele>
			 </trkpt>
			 <trkpt lat="51.514582" lon="-0.096703">
				 <ele>29.6</ele>
			 </trkpt>
			 <trkpt lat="51.514798" lon="-0.097007">
				 <ele>30.4</ele>
			 </trkpt>
			 <trkpt lat="51.515084" lon="-0.097149">
				 <ele>30.9</ele>
			 </trkpt>
			 <trkpt lat="51.515532" lon="-0.097077">
				 <ele>31.4</ele>
			 </trkpt>
			 <trkpt lat="51.515828" lon="-0.097029">
				 <ele>32</ele>
			 </trkpt>
			 <trkpt lat="51.515854" lon="-0.097184">
				 <ele>32.5</ele>
			 </trkpt>
			 <trkpt lat="51.515406" lon="-0.097233">
				 <ele>33.1</ele>
			 </trkpt>
			 <trkpt lat="51.515159" lon="-0.097474">
				 <ele>33.5</ele>
			 </trkpt>
			 <trkpt lat="51.51513" lon="-0.09774">
				 <ele>33.5</ele>
			 </trkpt>
			 <trkpt lat="51.515304" lon="-0.098406">
				 <ele>33.3</ele>
			 </trkpt>
			 <trkpt lat="51.515477" lon="-0.099073">
				 <ele>32.7</ele>
			 </trkpt>
			 <trkpt lat="51.515564" lon="-0.099405">
				 <ele>32</ele>
			 </trkpt>
			 <trkpt lat="51.515747" lon="-0.100065">
				 <ele>31.5</ele>
			 </trkpt>
			 <trkpt lat="51.51593" lon="-0.100725">
				 <ele>31.1</ele>
			 </trkpt>
			 <trkpt lat="51.516113" lon="-0.101385">
				 <ele>30.5</ele>
			 </trkpt>
			 <trkpt lat="51.516176" lon="-0.101611">
				 <ele>29.5</ele>
			 </trkpt>
			 <trkpt lat="51.51638" lon="-0.102254">
				 <ele>28.5</ele>
			 </trkpt>
			 <trkpt lat="51.516585" lon="-0.102898">
				 <ele>27.9</ele>
			 </trkpt>
			 <trkpt lat="51.516789" lon="-0.103541">
				 <ele>27.3</ele>
			 </trkpt>
			 <trkpt lat="51.516926" lon="-0.103971">
				 <ele>26.6</ele>
			 </trkpt>
			 <trkpt lat="51.517124" lon="-0.104619">
				 <ele>26.1</ele>
			 </trkpt>
			 <trkpt lat="51.517282" lon="-0.105138">
				 <ele>26</ele>
			 </trkpt>
			 <trkpt lat="51.517477" lon="-0.105789">
				 <ele>26.3</ele>
			 </trkpt>
			 <trkpt lat="51.51763" lon="-0.106297">
				 <ele>26.5</ele>
			 </trkpt>
			 <trkpt lat="51.517697" lon="-0.106968">
				 <ele>27</ele>
			 </trkpt>
			 <trkpt lat="51.517743" lon="-0.107191">
				 <ele>27.5</ele>
			 </trkpt>
			 <trkpt lat="51.517809" lon="-0.107832">
				 <ele>28.4</ele>
			 </trkpt>
			 <trkpt lat="51.517888" lon="-0.108543">
				 <ele>29.2</ele>
			 </trkpt>
			 <trkpt lat="51.517944" lon="-0.109042">
				 <ele>29.7</ele>
			 </trkpt>
			 <trkpt lat="51.518023" lon="-0.109754">
				 <ele>30.2</ele>
			 </trkpt>
			 <trkpt lat="51.518102" lon="-0.110465">
				 <ele>30.6</ele>
			 </trkpt>
			 <trkpt lat="51.518169" lon="-0.111074">
				 <ele>31</ele>
			 </trkpt>
			 <trkpt lat="51.518216" lon="-0.11178">
				 <ele>30.9</ele>
			 </trkpt>
			 <trkpt lat="51.518271" lon="-0.112497">
				 <ele>30.9</ele>
			 </trkpt>
			 <trkpt lat="51.518277" lon="-0.11258">
				 <ele>30.9</ele>
			 </trkpt>
			 <trkpt lat="51.518272" lon="-0.113302">
				 <ele>31</ele>
			 </trkpt>
			 <trkpt lat="51.51827" lon="-0.11349">
				 <ele>31.1</ele>
			 </trkpt>
			 <trkpt lat="51.518259" lon="-0.113869">
				 <ele>31.4</ele>
			 </trkpt>
			 <trkpt lat="51.518191" lon="-0.114584">
				 <ele>31.5</ele>
			 </trkpt>
			 <trkpt lat="51.518124" lon="-0.115298">
				 <ele>31.6</ele>
			 </trkpt>
			 <trkpt lat="51.518069" lon="-0.115892">
				 <ele>31.6</ele>
			 </trkpt>
			 <trkpt lat="51.518122" lon="-0.115175">
				 <ele>31.5</ele>
			 </trkpt>
			 <trkpt lat="51.518191" lon="-0.114461">
				 <ele>31.5</ele>
			 </trkpt>
			 <trkpt lat="51.51824" lon="-0.11395">
				 <ele>31.4</ele>
			 </trkpt>
			 <trkpt lat="51.518196" lon="-0.113801">
				 <ele>31.1</ele>
			 </trkpt>
			 <trkpt lat="51.51816" lon="-0.11378">
				 <ele>31</ele>
			 </trkpt>
			 <trkpt lat="51.518035" lon="-0.113721">
				 <ele>30.9</ele>
			 </trkpt>
			 <trkpt lat="51.517807" lon="-0.113571">
				 <ele>30.8</ele>
			 </trkpt>
			 <trkpt lat="51.517423" lon="-0.113193">
				 <ele>30.6</ele>
			 </trkpt>
			 <trkpt lat="51.517039" lon="-0.112816">
				 <ele>30.6</ele>
			 </trkpt>
			 <trkpt lat="51.516825" lon="-0.112606">
				 <ele>30.7</ele>
			 </trkpt>
			 <trkpt lat="51.516432" lon="-0.112256">
				 <ele>30.9</ele>
			 </trkpt>
			 <trkpt lat="51.516321" lon="-0.112158">
				 <ele>31.1</ele>
			 </trkpt>
			 <trkpt lat="51.51605" lon="-0.11198">
				 <ele>31</ele>
			 </trkpt>
			 <trkpt lat="51.515629" lon="-0.111726">
				 <ele>30.7</ele>
			 </trkpt>
			 <trkpt lat="51.515343" lon="-0.111554">
				 <ele>30.4</ele>
			 </trkpt>
			 <trkpt lat="51.514967" lon="-0.111402">
				 <ele>29.8</ele>
			 </trkpt>
			 <trkpt lat="51.514525" lon="-0.111267">
				 <ele>29.3</ele>
			 </trkpt>
			 <trkpt lat="51.514083" lon="-0.111133">
				 <ele>28.6</ele>
			 </trkpt>
			 <trkpt lat="51.51384" lon="-0.111059">
				 <ele>28</ele>
			 </trkpt>
			 <trkpt lat="51.513742" lon="-0.11171">
				 <ele>27.3</ele>
			 </trkpt>
			 <trkpt lat="51.513704" lon="-0.111927">
				 <ele>26.9</ele>
			 </trkpt>
			 <trkpt lat="51.513632" lon="-0.112194">
				 <ele>27.4</ele>
			 </trkpt>
			 <trkpt lat="51.51352" lon="-0.112635">
				 <ele>27.9</ele>
			 </trkpt>
			 <trkpt lat="51.513514" lon="-0.112839">
				 <ele>28.6</ele>
			 </trkpt>
			 <trkpt lat="51.513364" lon="-0.11352">
				 <ele>29.7</ele>
			 </trkpt>
			 <trkpt lat="51.513263" lon="-0.113981">
				 <ele>30.9</ele>
			 </trkpt>
			 <trkpt lat="51.513128" lon="-0.11467">
				 <ele>32.3</ele>
			 </trkpt>
			 <trkpt lat="51.51307" lon="-0.11497">
				 <ele>33.7</ele>
			 </trkpt>
			 <trkpt lat="51.513051" lon="-0.115057">
				 <ele>35.3</ele>
			 </trkpt>
			 <trkpt lat="51.513125" lon="-0.115232">
				 <ele>36.7</ele>
			 </trkpt>
			 <trkpt lat="51.5132" lon="-0.115577">
				 <ele>37.6</ele>
			 </trkpt>
			 <trkpt lat="51.51328" lon="-0.11603">
				 <ele>37.9</ele>
			 </trkpt>
			 <trkpt lat="51.513225" lon="-0.116083">
				 <ele>37.3</ele>
			 </trkpt>
			 <trkpt lat="51.512826" lon="-0.116141">
				 <ele>36.5</ele>
			 </trkpt>
			 <trkpt lat="51.51267" lon="-0.11611">
				 <ele>35.5</ele>
			 </trkpt>
			 <trkpt lat="51.512427" lon="-0.115874">
				 <ele>34</ele>
			 </trkpt>
			 <trkpt lat="51.512315" lon="-0.115708">
				 <ele>32.6</ele>
			 </trkpt>
			 <trkpt lat="51.512137" lon="-0.115584">
				 <ele>31.3</ele>
			 </trkpt>
			 <trkpt lat="51.511714" lon="-0.115342">
				 <ele>29.7</ele>
			 </trkpt>
			 <trkpt lat="51.51129" lon="-0.1151">
				 <ele>28.4</ele>
			 </trkpt>
			 <trkpt lat="51.51101" lon="-0.11494">
				 <ele>27</ele>
			 </trkpt>
			 <trkpt lat="51.51128" lon="-0.11369">
				 <ele>25.8</ele>
			 </trkpt>
			 <trkpt lat="51.5116" lon="-0.11385">
				 <ele>25</ele>
			 </trkpt>
			 <trkpt lat="51.512185" lon="-0.11419">
				 <ele>24.5</ele>
			 </trkpt>
			 <trkpt lat="51.51277" lon="-0.11453">
				 <ele>24</ele>
			 </trkpt>
			 <trkpt lat="51.512857" lon="-0.114162">
				 <ele>23.7</ele>
			 </trkpt>
			 <trkpt lat="51.512934" lon="-0.113686">
				 <ele>24</ele>
			 </trkpt>
			 <trkpt lat="51.513133" lon="-0.113377">
				 <ele>24.1</ele>
			 </trkpt>
			 <trkpt lat="51.51336" lon="-0.112981">
				 <ele>24.2</ele>
			 </trkpt>
			 <trkpt lat="51.513497" lon="-0.112617">
				 <ele>24.5</ele>
			 </trkpt>
			 <trkpt lat="51.513499" lon="-0.11245">
				 <ele>24.5</ele>
			 </trkpt>
			 <trkpt lat="51.513567" lon="-0.112298">
				 <ele>24.9</ele>
			 </trkpt>
			 <trkpt lat="51.513646" lon="-0.112014">
				 <ele>25.7</ele>
			 </trkpt>
			 <trkpt lat="51.513737" lon="-0.111611">
				 <ele>26.5</ele>
			 </trkpt>
			 <trkpt lat="51.513838" lon="-0.110935">
				 <ele>27.1</ele>
			 </trkpt>
			 <trkpt lat="51.513969" lon="-0.110243">
				 <ele>28</ele>
			 </trkpt>
			 <trkpt lat="51.514099" lon="-0.109552">
				 <ele>29</ele>
			 </trkpt>
			 <trkpt lat="51.51412" lon="-0.10944">
				 <ele>29.7</ele>
			 </trkpt>
			 <trkpt lat="51.51419" lon="-0.10848">
				 <ele>30.3</ele>
			 </trkpt>
			 <trkpt lat="51.5142" lon="-0.10742">
				 <ele>30.6</ele>
			 </trkpt>
			 <trkpt lat="51.51418" lon="-0.10652">
				 <ele>31</ele>
			 </trkpt>
			 <trkpt lat="51.514237" lon="-0.106523">
				 <ele>31.3</ele>
			 </trkpt>
			 <trkpt lat="51.514233" lon="-0.107245">
				 <ele>31.4</ele>
			 </trkpt>
			 <trkpt lat="51.51423" lon="-0.107968">
				 <ele>31.5</ele>
			 </trkpt>
			 <trkpt lat="51.514228" lon="-0.10847">
				 <ele>31.5</ele>
			 </trkpt>
			 <trkpt lat="51.51418" lon="-0.109189">
				 <ele>31.6</ele>
			 </trkpt>
			 <trkpt lat="51.514162" lon="-0.109455">
				 <ele>31.6</ele>
			 </trkpt>
			 <trkpt lat="51.5142" lon="-0.10947">
				 <ele>31.6</ele>
			 </trkpt>
			 <trkpt lat="51.51457" lon="-0.10963">
				 <ele>31.7</ele>
			 </trkpt>
			 <trkpt lat="51.51473" lon="-0.10966">
				 <ele>31.3</ele>
			 </trkpt>
			 <trkpt lat="51.51502" lon="-0.10961">
				 <ele>31</ele>
			 </trkpt>
			 <trkpt lat="51.51533" lon="-0.10946">
				 <ele>30.8</ele>
			 </trkpt>
			 <trkpt lat="51.51566" lon="-0.10927">
				 <ele>30.7</ele>
			 </trkpt>
			 <trkpt lat="51.51591" lon="-0.10898">
				 <ele>30.6</ele>
			 </trkpt>
			 <trkpt lat="51.51644" lon="-0.10825">
				 <ele>30.5</ele>
			 </trkpt>
			 <trkpt lat="51.5165" lon="-0.10818">
				 <ele>30.5</ele>
			 </trkpt>
			 <trkpt lat="51.51665" lon="-0.10809">
				 <ele>30.5</ele>
			 </trkpt>
			 <trkpt lat="51.51687" lon="-0.10802">
				 <ele>30.1</ele>
			 </trkpt>
			 <trkpt lat="51.51694" lon="-0.10795">
				 <ele>29.3</ele>
			 </trkpt>
			 <trkpt lat="51.51729" lon="-0.10787">
				 <ele>28.5</ele>
			 </trkpt>
			 <trkpt lat="51.51744" lon="-0.1078">
				 <ele>28.4</ele>
			 </trkpt>
			 <trkpt lat="51.51754" lon="-0.10772">
				 <ele>28.1</ele>
			 </trkpt>
			 <trkpt lat="51.51768" lon="-0.10756">
				 <ele>27.3</ele>
			 </trkpt>
			 <trkpt lat="51.517658" lon="-0.107022">
				 <ele>26.7</ele>
			 </trkpt>
			 <trkpt lat="51.517589" lon="-0.106371">
				 <ele>26.5</ele>
			 </trkpt>
			 <trkpt lat="51.517403" lon="-0.105713">
				 <ele>26.2</ele>
			 </trkpt>
			 <trkpt lat="51.517362" lon="-0.10557">
				 <ele>26</ele>
			 </trkpt>
			 <trkpt lat="51.51716" lon="-0.104924">
				 <ele>25.9</ele>
			 </trkpt>
			 <trkpt lat="51.516958" lon="-0.104279">
				 <ele>26.1</ele>
			 </trkpt>
			 <trkpt lat="51.516755" lon="-0.103634">
				 <ele>26.8</ele>
			 </trkpt>
			 <trkpt lat="51.516711" lon="-0.103491">
				 <ele>27.5</ele>
			 </trkpt>
			 <trkpt lat="51.51651" lon="-0.102844">
				 <ele>28.3</ele>
			 </trkpt>
			 <trkpt lat="51.51631" lon="-0.102198">
				 <ele>28.9</ele>
			 </trkpt>
			 <trkpt lat="51.516217" lon="-0.101897">
				 <ele>29.9</ele>
			 </trkpt>
			 <trkpt lat="51.516029" lon="-0.101241">
				 <ele>30.5</ele>
			 </trkpt>
			 <trkpt lat="51.515984" lon="-0.101086">
				 <ele>31.1</ele>
			 </trkpt>
			 <trkpt lat="51.515805" lon="-0.100423">
				 <ele>31.5</ele>
			 </trkpt>
			 <trkpt lat="51.515627" lon="-0.099759">
				 <ele>31.6</ele>
			 </trkpt>
			 <trkpt lat="51.515589" lon="-0.09962">
				 <ele>31.6</ele>
			 </trkpt>
			 <trkpt lat="51.515408" lon="-0.098959">
				 <ele>31.1</ele>
			 </trkpt>
			 <trkpt lat="51.515289" lon="-0.098526">
				 <ele>30.2</ele>
			 </trkpt>
			 <trkpt lat="51.515127" lon="-0.097852">
				 <ele>29.1</ele>
			 </trkpt>
			 <trkpt lat="51.515099" lon="-0.097734">
				 <ele>28.2</ele>
			 </trkpt>
			 <trkpt lat="51.514931" lon="-0.097288">
				 <ele>27.5</ele>
			 </trkpt>
			 <trkpt lat="51.514632" lon="-0.096902">
				 <ele>26.8</ele>
			 </trkpt>
			 <trkpt lat="51.514409" lon="-0.096896">
				 <ele>26</ele>
			 </trkpt>
			 <trkpt lat="51.514123" lon="-0.096729">
				 <ele>24.9</ele>
			 </trkpt>
			 <trkpt lat="51.513945" lon="-0.09653">
				 <ele>24.1</ele>
			 </trkpt>
			 <trkpt lat="51.51363" lon="-0.096376">
				 <ele>23.9</ele>
			 </trkpt>
			 <trkpt lat="51.513381" lon="-0.096336">
				 <ele>24.2</ele>
			 </trkpt>
			 <trkpt lat="51.51301" lon="-0.09642">
				 <ele>25.2</ele>
			 </trkpt>
			 <trkpt lat="51.512996" lon="-0.096527">
				 <ele>26.8</ele>
			 </trkpt>
			 <trkpt lat="51.513079" lon="-0.097237">
				 <ele>28.1</ele>
			 </trkpt>
			 <trkpt lat="51.513218" lon="-0.097948">
				 <ele>28.8</ele>
			 </trkpt>
			 <trkpt lat="51.513268" lon="-0.098199">
				 <ele>29.8</ele>
			 </trkpt>
			 <trkpt lat="51.513298" lon="-0.098382">
				 <ele>31.2</ele>
			 </trkpt>
			 <trkpt lat="51.513306" lon="-0.098985">
				 <ele>32.7</ele>
			 </trkpt>
			 <trkpt lat="51.513333" lon="-0.099344">
				 <ele>33.9</ele>
			 </trkpt>
			 <trkpt lat="51.513465" lon="-0.099845">
				 <ele>34</ele>
			 </trkpt>
			 <trkpt lat="51.513337" lon="-0.099511">
				 <ele>33.4</ele>
			 </trkpt>
			 <trkpt lat="51.51328" lon="-0.099086">
				 <ele>32.2</ele>
			 </trkpt>
			 <trkpt lat="51.513266" lon="-0.09847">
				 <ele>30.9</ele>
			 </trkpt>
			 <trkpt lat="51.513253" lon="-0.098216">
				 <ele>29.4</ele>
			 </trkpt>
			 <trkpt lat="51.513106" lon="-0.097534">
				 <ele>28.1</ele>
			 </trkpt>
			 <trkpt lat="51.513054" lon="-0.097292">
				 <ele>27.4</ele>
			 </trkpt>
			 <trkpt lat="51.512927" lon="-0.096599">
				 <ele>26.2</ele>
			 </trkpt>
			 <trkpt lat="51.5128" lon="-0.095906">
				 <ele>24.5</ele>
			 </trkpt>
			 <trkpt lat="51.51276" lon="-0.09569">
				 <ele>22.7</ele>
			 </trkpt>
			 <trkpt lat="51.51211" lon="-0.09583">
				 <ele>21.5</ele>
			 </trkpt>
			 <trkpt lat="51.51198" lon="-0.0958">
				 <ele>21.1</ele>
			 </trkpt>
			 <trkpt lat="51.51198" lon="-0.09603">
				 <ele>21.1</ele>
			 </trkpt>
			 <trkpt lat="51.51194" lon="-0.09643">
				 <ele>21.3</ele>
			 </trkpt>
			 <trkpt lat="51.5119" lon="-0.09754">
				 <ele>21.2</ele>
			 </trkpt>
			 <trkpt lat="51.51196" lon="-0.09875">
				 <ele>20.9</ele>
			 </trkpt>
			 <trkpt lat="51.51199" lon="-0.09882">
				 <ele>20.7</ele>
			 </trkpt>
			 <trkpt lat="51.51203" lon="-0.09951">
				 <ele>20.2</ele>
			 </trkpt>
			 <trkpt lat="51.51201" lon="-0.09974">
				 <ele>19.7</ele>
			 </trkpt>
			 <trkpt lat="51.512055" lon="-0.100495">
				 <ele>19.1</ele>
			 </trkpt>
			 <trkpt lat="51.5121" lon="-0.10125">
				 <ele>18.6</ele>
			 </trkpt>
			 <trkpt lat="51.51207" lon="-0.10136">
				 <ele>18.4</ele>
			 </trkpt>
			 <trkpt lat="51.5121" lon="-0.10196">
				 <ele>18.1</ele>
			 </trkpt>
			 <trkpt lat="51.51189" lon="-0.10204">
				 <ele>17.6</ele>
			 </trkpt>
			 <trkpt lat="51.51126" lon="-0.10224">
				 <ele>17.3</ele>
			 </trkpt>
			 <trkpt lat="51.51121" lon="-0.10177">
				 <ele>16.9</ele>
			 </trkpt>
			 <trkpt lat="51.51123" lon="-0.10164">
				 <ele>16.5</ele>
			 </trkpt>
			 <trkpt lat="51.51126" lon="-0.1016">
				 <ele>16.1</ele>
			 </trkpt>
			 <trkpt lat="51.51139" lon="-0.10157">
				 <ele>16.1</ele>
			 </trkpt>
			 <trkpt lat="51.51142" lon="-0.10154">
				 <ele>16.2</ele>
			 </trkpt>
			 <trkpt lat="51.51143" lon="-0.10144">
				 <ele>16.8</ele>
			 </trkpt>
			 <trkpt lat="51.5114" lon="-0.100485">
				 <ele>17.4</ele>
			 </trkpt>
			 <trkpt lat="51.51137" lon="-0.09953">
				 <ele>17.7</ele>
			 </trkpt>
			 <trkpt lat="51.511345" lon="-0.09829">
				 <ele>17.9</ele>
			 </trkpt>
			 <trkpt lat="51.51132" lon="-0.09705">
				 <ele>17.7</ele>
			 </trkpt>
			 <trkpt lat="51.51127" lon="-0.09595">
				 <ele>17.4</ele>
			 </trkpt>
			 <trkpt lat="51.511245" lon="-0.095838">
				 <ele>17.1</ele>
			 </trkpt>
			 <trkpt lat="51.511193" lon="-0.09583">
				 <ele>16.8</ele>
			 </trkpt>
			 <trkpt lat="51.511208" lon="-0.096552">
				 <ele>16.8</ele>
			 </trkpt>
			 <trkpt lat="51.511223" lon="-0.097274">
				 <ele>16.8</ele>
			 </trkpt>
			 <trkpt lat="51.511227" lon="-0.097489">
				 <ele>16.7</ele>
			 </trkpt>
			 <trkpt lat="51.511237" lon="-0.098211">
				 <ele>16.4</ele>
			 </trkpt>
			 <trkpt lat="51.511248" lon="-0.098934">
				 <ele>15.9</ele>
			 </trkpt>
			 <trkpt lat="51.511238" lon="-0.099686">
				 <ele>15.1</ele>
			 </trkpt>
			 <trkpt lat="51.511228" lon="-0.100408">
				 <ele>14.4</ele>
			 </trkpt>
			 <trkpt lat="51.511226" lon="-0.10053">
				 <ele>13.8</ele>
			 </trkpt>
			 <trkpt lat="51.511201" lon="-0.10087">
				 <ele>13.2</ele>
			 </trkpt>
			 <trkpt lat="51.511131" lon="-0.101584">
				 <ele>12.7</ele>
			 </trkpt>
			 <trkpt lat="51.51107" lon="-0.102208">
				 <ele>12.5</ele>
			 </trkpt>
			 <trkpt lat="51.511043" lon="-0.10293">
				 <ele>12.4</ele>
			 </trkpt>
			 <trkpt lat="51.511033" lon="-0.10321">
				 <ele>12.4</ele>
			 </trkpt>
			 <trkpt lat="51.511042" lon="-0.103933">
				 <ele>12.1</ele>
			 </trkpt>
			 <trkpt lat="51.511051" lon="-0.104641">
				 <ele>11.8</ele>
			 </trkpt>
			 <trkpt lat="51.511062" lon="-0.105364">
				 <ele>11</ele>
			 </trkpt>
			 <trkpt lat="51.511074" lon="-0.106086">
				 <ele>10.9</ele>
			 </trkpt>
			 <trkpt lat="51.511086" lon="-0.106808">
				 <ele>10.8</ele>
			 </trkpt>
			 <trkpt lat="51.511097" lon="-0.10753">
				 <ele>10.9</ele>
			 </trkpt>
			 <trkpt lat="51.511098" lon="-0.107594">
				 <ele>11.5</ele>
			 </trkpt>
			 <trkpt lat="51.511103" lon="-0.108317">
				 <ele>11.9</ele>
			 </trkpt>
			 <trkpt lat="51.511109" lon="-0.109039">
				 <ele>12.1</ele>
			 </trkpt>
			 <trkpt lat="51.511114" lon="-0.109762">
				 <ele>12.3</ele>
			 </trkpt>
			 <trkpt lat="51.511119" lon="-0.110484">
				 <ele>12.4</ele>
			 </trkpt>
			 <trkpt lat="51.511121" lon="-0.110743">
				 <ele>12.5</ele>
			 </trkpt>
			 <trkpt lat="51.511115" lon="-0.111465">
				 <ele>12.5</ele>
			 </trkpt>
			 <trkpt lat="51.51111" lon="-0.11212">
				 <ele>13.5</ele>
			 </trkpt>
			 <trkpt lat="51.511023" lon="-0.112829">
				 <ele>14.2</ele>
			 </trkpt>
			 <trkpt lat="51.510937" lon="-0.113538">
				 <ele>14.8</ele>
			 </trkpt>
			 <trkpt lat="51.510872" lon="-0.114069">
				 <ele>15.3</ele>
			 </trkpt>
			 <trkpt lat="51.510762" lon="-0.114769">
				 <ele>15.4</ele>
			 </trkpt>
			 <trkpt lat="51.510653" lon="-0.11547">
				 <ele>15.1</ele>
			 </trkpt>
			 <trkpt lat="51.510476" lon="-0.116161">
				 <ele>14.8</ele>
			 </trkpt>
			 <trkpt lat="51.510318" lon="-0.116767">
				 <ele>14.6</ele>
			 </trkpt>
			 <trkpt lat="51.51013" lon="-0.117423">
				 <ele>14.3</ele>
			 </trkpt>
			 <trkpt lat="51.510027" lon="-0.117785">
				 <ele>14.1</ele>
			 </trkpt>
			 <trkpt lat="51.509827" lon="-0.118432">
				 <ele>13.9</ele>
			 </trkpt>
			 <trkpt lat="51.509754" lon="-0.118666">
				 <ele>13.1</ele>
			 </trkpt>
			 <trkpt lat="51.509461" lon="-0.119214">
				 <ele>12.1</ele>
			 </trkpt>
			 <trkpt lat="51.509168" lon="-0.119762">
				 <ele>11.5</ele>
			 </trkpt>
			 <trkpt lat="51.50911" lon="-0.11987">
				 <ele>11</ele>
			 </trkpt>
			 <trkpt lat="51.50861" lon="-0.12061">
				 <ele>11.5</ele>
			 </trkpt>
			 <trkpt lat="51.50819" lon="-0.12103">
				 <ele>12.5</ele>
			 </trkpt>
			 <trkpt lat="51.5077" lon="-0.12147">
				 <ele>14.5</ele>
			 </trkpt>
			 <trkpt lat="51.5069" lon="-0.12212">
				 <ele>16.3</ele>
			 </trkpt>
			 <trkpt lat="51.50652" lon="-0.12239">
				 <ele>18</ele>
			 </trkpt>
			 <trkpt lat="51.50664" lon="-0.12286">
				 <ele>19</ele>
			 </trkpt>
			 <trkpt lat="51.5067" lon="-0.12316">
				 <ele>20.5</ele>
			 </trkpt>
			 <trkpt lat="51.50676" lon="-0.12359">
				 <ele>22.1</ele>
			 </trkpt>
			 <trkpt lat="51.50675" lon="-0.12376">
				 <ele>23.8</ele>
			 </trkpt>
			 <trkpt lat="51.506895" lon="-0.12462">
				 <ele>25.2</ele>
			 </trkpt>
			 <trkpt lat="51.50704" lon="-0.12548">
				 <ele>26.7</ele>
			 </trkpt>
			 <trkpt lat="51.50728" lon="-0.12673">
				 <ele>27.6</ele>
			 </trkpt>
			 <trkpt lat="51.5074" lon="-0.12704">
				 <ele>28.2</ele>
			 </trkpt>
			 <trkpt lat="51.507478" lon="-0.127119">
				 <ele>27.9</ele>
			 </trkpt>
			 <trkpt lat="51.507598" lon="-0.127137">
				 <ele>26.8</ele>
			 </trkpt>
			 <trkpt lat="51.507679" lon="-0.127041">
				 <ele>25.8</ele>
			 </trkpt>
			 <trkpt lat="51.50783" lon="-0.126779">
				 <ele>25.5</ele>
			 </trkpt>
			 <trkpt lat="51.508118" lon="-0.126224">
				 <ele>25.3</ele>
			 </trkpt>
			 <trkpt lat="51.508169" lon="-0.126124">
				 <ele>25.5</ele>
			 </trkpt>
			 <trkpt lat="51.508462" lon="-0.125575">
				 <ele>25.8</ele>
			 </trkpt>
			 <trkpt lat="51.508613" lon="-0.125291">
				 <ele>25.9</ele>
			 </trkpt>
			 <trkpt lat="51.508668" lon="-0.125404">
				 <ele>25.9</ele>
			 </trkpt>
			 <trkpt lat="51.508371" lon="-0.125946">
				 <ele>25.5</ele>
			 </trkpt>
			 <trkpt lat="51.508078" lon="-0.126503">
				 <ele>24.9</ele>
			 </trkpt>
			 <trkpt lat="51.507911" lon="-0.126822">
				 <ele>24.2</ele>
			 </trkpt>
		 </trkseg>
	 </trk>
</gpx>